<?xml version="1.0" encoding="UTF-8"?>
<gpx version="1.1" creator="GPX Inspector" xmlns="http://www.topografix.com/GPX/1/1"><trk><name>Central Jakarta Dense Road Demo</name><trkseg>
<trkpt lat="-6.1755200" lon="106.8300530"><time>2026-01-01T01:00:00Z</time></trkpt>
<trkpt lat="-6.1755810" lon="106.8300503"><time>2026-01-01T01:00:01Z</time></trkpt>
<trkpt lat="-6.1756420" lon="106.8300477"><time>2026-01-01T01:00:02Z</time></trkpt>
<trkpt lat="-6.1757030" lon="106.8300450"><time>2026-01-01T01:00:03Z</time></trkpt>
<trkpt lat="-6.1757640" lon="106.8300423"><time>2026-01-01T01:00:04Z</time></trkpt>
<trkpt lat="-6.1758250" lon="106.8300397"><time>2026-01-01T01:00:05Z</time></trkpt>
<trkpt lat="-6.1758860" lon="106.8300370"><time>2026-01-01T01:00:06Z</time></trkpt>
<trkpt lat="-6.1758850" lon="106.8300927"><time>2026-01-01T01:00:07Z</time></trkpt>
<trkpt lat="-6.1758840" lon="106.8301483"><time>2026-01-01T01:00:08Z</time></trkpt>
<trkpt lat="-6.1758830" lon="106.8302040"><time>2026-01-01T01:00:09Z</time></trkpt>
<trkpt lat="-6.1758297" lon="106.8302000"><time>2026-01-01T01:00:10Z</time></trkpt>
<trkpt lat="-6.1757763" lon="106.8301960"><time>2026-01-01T01:00:11Z</time></trkpt>
<trkpt lat="-6.1757230" lon="106.8301920"><time>2026-01-01T01:00:12Z</time></trkpt>
<trkpt lat="-6.1756592" lon="106.8301857"><time>2026-01-01T01:00:13Z</time></trkpt>
<trkpt lat="-6.1755953" lon="106.8301793"><time>2026-01-01T01:00:14Z</time></trkpt>
<trkpt lat="-6.1755315" lon="106.8301730"><time>2026-01-01T01:00:15Z</time></trkpt>
<trkpt lat="-6.1754677" lon="106.8301667"><time>2026-01-01T01:00:16Z</time></trkpt>
<trkpt lat="-6.1754038" lon="106.8301603"><time>2026-01-01T01:00:17Z</time></trkpt>
<trkpt lat="-6.1753400" lon="106.8301540"><time>2026-01-01T01:00:18Z</time></trkpt>
<trkpt lat="-6.1752738" lon="106.8301442"><time>2026-01-01T01:00:19Z</time></trkpt>
<trkpt lat="-6.1752075" lon="106.8301345"><time>2026-01-01T01:00:20Z</time></trkpt>
<trkpt lat="-6.1751412" lon="106.8301248"><time>2026-01-01T01:00:21Z</time></trkpt>
<trkpt lat="-6.1750750" lon="106.8301150"><time>2026-01-01T01:00:22Z</time></trkpt>
<trkpt lat="-6.1750073" lon="106.8301043"><time>2026-01-01T01:00:23Z</time></trkpt>
<trkpt lat="-6.1749397" lon="106.8300937"><time>2026-01-01T01:00:24Z</time></trkpt>
<trkpt lat="-6.1748720" lon="106.8300830"><time>2026-01-01T01:00:25Z</time></trkpt>
<trkpt lat="-6.1748027" lon="106.8300718"><time>2026-01-01T01:00:26Z</time></trkpt>
<trkpt lat="-6.1747335" lon="106.8300605"><time>2026-01-01T01:00:27Z</time></trkpt>
<trkpt lat="-6.1746643" lon="106.8300493"><time>2026-01-01T01:00:28Z</time></trkpt>
<trkpt lat="-6.1745950" lon="106.8300380"><time>2026-01-01T01:00:29Z</time></trkpt>
<trkpt lat="-6.1745760" lon="106.8300390"><time>2026-01-01T01:00:30Z</time></trkpt>
<trkpt lat="-6.1745500" lon="106.8300440"><time>2026-01-01T01:00:31Z</time></trkpt>
<trkpt lat="-6.1744965" lon="106.8300698"><time>2026-01-01T01:00:32Z</time></trkpt>
<trkpt lat="-6.1744430" lon="106.8300955"><time>2026-01-01T01:00:33Z</time></trkpt>
<trkpt lat="-6.1743895" lon="106.8301212"><time>2026-01-01T01:00:34Z</time></trkpt>
<trkpt lat="-6.1743360" lon="106.8301470"><time>2026-01-01T01:00:35Z</time></trkpt>
<trkpt lat="-6.1742755" lon="106.8301825"><time>2026-01-01T01:00:36Z</time></trkpt>
<trkpt lat="-6.1742150" lon="106.8302180"><time>2026-01-01T01:00:37Z</time></trkpt>
<trkpt lat="-6.1741825" lon="106.8302370"><time>2026-01-01T01:00:38Z</time></trkpt>
<trkpt lat="-6.1741500" lon="106.8302560"><time>2026-01-01T01:00:39Z</time></trkpt>
<trkpt lat="-6.1740910" lon="106.8302890"><time>2026-01-01T01:00:40Z</time></trkpt>
<trkpt lat="-6.1740385" lon="106.8303150"><time>2026-01-01T01:00:41Z</time></trkpt>
<trkpt lat="-6.1739860" lon="106.8303410"><time>2026-01-01T01:00:42Z</time></trkpt>
<trkpt lat="-6.1739260" lon="106.8303225"><time>2026-01-01T01:00:43Z</time></trkpt>
<trkpt lat="-6.1738660" lon="106.8303040"><time>2026-01-01T01:00:44Z</time></trkpt>
<trkpt lat="-6.1738143" lon="106.8302867"><time>2026-01-01T01:00:45Z</time></trkpt>
<trkpt lat="-6.1737625" lon="106.8302695"><time>2026-01-01T01:00:46Z</time></trkpt>
<trkpt lat="-6.1737107" lon="106.8302523"><time>2026-01-01T01:00:47Z</time></trkpt>
<trkpt lat="-6.1736590" lon="106.8302350"><time>2026-01-01T01:00:48Z</time></trkpt>
<trkpt lat="-6.1736113" lon="106.8302213"><time>2026-01-01T01:00:49Z</time></trkpt>
<trkpt lat="-6.1735637" lon="106.8302077"><time>2026-01-01T01:00:50Z</time></trkpt>
<trkpt lat="-6.1735160" lon="106.8301940"><time>2026-01-01T01:00:51Z</time></trkpt>
<trkpt lat="-6.1735025" lon="106.8301510"><time>2026-01-01T01:00:52Z</time></trkpt>
<trkpt lat="-6.1734890" lon="106.8301080"><time>2026-01-01T01:00:53Z</time></trkpt>
<trkpt lat="-6.1734657" lon="106.8300490"><time>2026-01-01T01:00:54Z</time></trkpt>
<trkpt lat="-6.1734423" lon="106.8299900"><time>2026-01-01T01:00:55Z</time></trkpt>
<trkpt lat="-6.1734190" lon="106.8299310"><time>2026-01-01T01:00:56Z</time></trkpt>
<trkpt lat="-6.1734015" lon="106.8298825"><time>2026-01-01T01:00:57Z</time></trkpt>
<trkpt lat="-6.1733840" lon="106.8298340"><time>2026-01-01T01:00:58Z</time></trkpt>
<trkpt lat="-6.1733650" lon="106.8297750"><time>2026-01-01T01:00:59Z</time></trkpt>
<trkpt lat="-6.1733418" lon="106.8297133"><time>2026-01-01T01:01:00Z</time></trkpt>
<trkpt lat="-6.1733187" lon="106.8296517"><time>2026-01-01T01:01:01Z</time></trkpt>
<trkpt lat="-6.1732955" lon="106.8295900"><time>2026-01-01T01:01:02Z</time></trkpt>
<trkpt lat="-6.1732723" lon="106.8295283"><time>2026-01-01T01:01:03Z</time></trkpt>
<trkpt lat="-6.1732492" lon="106.8294667"><time>2026-01-01T01:01:04Z</time></trkpt>
<trkpt lat="-6.1732260" lon="106.8294050"><time>2026-01-01T01:01:05Z</time></trkpt>
<trkpt lat="-6.1732040" lon="106.8293630"><time>2026-01-01T01:01:06Z</time></trkpt>
<trkpt lat="-6.1731820" lon="106.8293210"><time>2026-01-01T01:01:07Z</time></trkpt>
<trkpt lat="-6.1731545" lon="106.8292850"><time>2026-01-01T01:01:08Z</time></trkpt>
<trkpt lat="-6.1731270" lon="106.8292490"><time>2026-01-01T01:01:09Z</time></trkpt>
<trkpt lat="-6.1730970" lon="106.8292240"><time>2026-01-01T01:01:10Z</time></trkpt>
<trkpt lat="-6.1730670" lon="106.8291990"><time>2026-01-01T01:01:11Z</time></trkpt>
<trkpt lat="-6.1730345" lon="106.8291795"><time>2026-01-01T01:01:12Z</time></trkpt>
<trkpt lat="-6.1730020" lon="106.8291600"><time>2026-01-01T01:01:13Z</time></trkpt>
<trkpt lat="-6.1729640" lon="106.8291450"><time>2026-01-01T01:01:14Z</time></trkpt>
<trkpt lat="-6.1729260" lon="106.8291300"><time>2026-01-01T01:01:15Z</time></trkpt>
<trkpt lat="-6.1728620" lon="106.8291170"><time>2026-01-01T01:01:16Z</time></trkpt>
<trkpt lat="-6.1728120" lon="106.8291140"><time>2026-01-01T01:01:17Z</time></trkpt>
<trkpt lat="-6.1727610" lon="106.8291155"><time>2026-01-01T01:01:18Z</time></trkpt>
<trkpt lat="-6.1727100" lon="106.8291170"><time>2026-01-01T01:01:19Z</time></trkpt>
<trkpt lat="-6.1726440" lon="106.8291310"><time>2026-01-01T01:01:20Z</time></trkpt>
<trkpt lat="-6.1725808" lon="106.8291466"><time>2026-01-01T01:01:21Z</time></trkpt>
<trkpt lat="-6.1725176" lon="106.8291622"><time>2026-01-01T01:01:22Z</time></trkpt>
<trkpt lat="-6.1724544" lon="106.8291778"><time>2026-01-01T01:01:23Z</time></trkpt>
<trkpt lat="-6.1723912" lon="106.8291934"><time>2026-01-01T01:01:24Z</time></trkpt>
<trkpt lat="-6.1723280" lon="106.8292090"><time>2026-01-01T01:01:25Z</time></trkpt>
<trkpt lat="-6.1722678" lon="106.8292232"><time>2026-01-01T01:01:26Z</time></trkpt>
<trkpt lat="-6.1722076" lon="106.8292374"><time>2026-01-01T01:01:27Z</time></trkpt>
<trkpt lat="-6.1721474" lon="106.8292516"><time>2026-01-01T01:01:28Z</time></trkpt>
<trkpt lat="-6.1720872" lon="106.8292658"><time>2026-01-01T01:01:29Z</time></trkpt>
<trkpt lat="-6.1720270" lon="106.8292800"><time>2026-01-01T01:01:30Z</time></trkpt>
<trkpt lat="-6.1719855" lon="106.8292865"><time>2026-01-01T01:01:31Z</time></trkpt>
<trkpt lat="-6.1719440" lon="106.8292930"><time>2026-01-01T01:01:32Z</time></trkpt>
<trkpt lat="-6.1719080" lon="106.8292950"><time>2026-01-01T01:01:33Z</time></trkpt>
<trkpt lat="-6.1718720" lon="106.8292970"><time>2026-01-01T01:01:34Z</time></trkpt>
<trkpt lat="-6.1718080" lon="106.8292910"><time>2026-01-01T01:01:35Z</time></trkpt>
<trkpt lat="-6.1717530" lon="106.8292730"><time>2026-01-01T01:01:36Z</time></trkpt>
<trkpt lat="-6.1717010" lon="106.8292410"><time>2026-01-01T01:01:37Z</time></trkpt>
<trkpt lat="-6.1716560" lon="106.8291970"><time>2026-01-01T01:01:38Z</time></trkpt>
<trkpt lat="-6.1716270" lon="106.8291625"><time>2026-01-01T01:01:39Z</time></trkpt>
<trkpt lat="-6.1715980" lon="106.8291280"><time>2026-01-01T01:01:40Z</time></trkpt>
<trkpt lat="-6.1715600" lon="106.8290700"><time>2026-01-01T01:01:41Z</time></trkpt>
<trkpt lat="-6.1715310" lon="106.8290070"><time>2026-01-01T01:01:42Z</time></trkpt>
<trkpt lat="-6.1715130" lon="106.8289500"><time>2026-01-01T01:01:43Z</time></trkpt>
<trkpt lat="-6.1715000" lon="106.8288840"><time>2026-01-01T01:01:44Z</time></trkpt>
<trkpt lat="-6.1714955" lon="106.8288430"><time>2026-01-01T01:01:45Z</time></trkpt>
<trkpt lat="-6.1714910" lon="106.8288020"><time>2026-01-01T01:01:46Z</time></trkpt>
<trkpt lat="-6.1714902" lon="106.8287304"><time>2026-01-01T01:01:47Z</time></trkpt>
<trkpt lat="-6.1714894" lon="106.8286587"><time>2026-01-01T01:01:48Z</time></trkpt>
<trkpt lat="-6.1714886" lon="106.8285871"><time>2026-01-01T01:01:49Z</time></trkpt>
<trkpt lat="-6.1714879" lon="106.8285154"><time>2026-01-01T01:01:50Z</time></trkpt>
<trkpt lat="-6.1714871" lon="106.8284438"><time>2026-01-01T01:01:51Z</time></trkpt>
<trkpt lat="-6.1714863" lon="106.8283721"><time>2026-01-01T01:01:52Z</time></trkpt>
<trkpt lat="-6.1714855" lon="106.8283005"><time>2026-01-01T01:01:53Z</time></trkpt>
<trkpt lat="-6.1714847" lon="106.8282289"><time>2026-01-01T01:01:54Z</time></trkpt>
<trkpt lat="-6.1714839" lon="106.8281572"><time>2026-01-01T01:01:55Z</time></trkpt>
<trkpt lat="-6.1714831" lon="106.8280856"><time>2026-01-01T01:01:56Z</time></trkpt>
<trkpt lat="-6.1714824" lon="106.8280139"><time>2026-01-01T01:01:57Z</time></trkpt>
<trkpt lat="-6.1714816" lon="106.8279423"><time>2026-01-01T01:01:58Z</time></trkpt>
<trkpt lat="-6.1714808" lon="106.8278706"><time>2026-01-01T01:01:59Z</time></trkpt>
<trkpt lat="-6.1714800" lon="106.8277990"><time>2026-01-01T01:02:00Z</time></trkpt>
<trkpt lat="-6.1714800" lon="106.8277355"><time>2026-01-01T01:02:01Z</time></trkpt>
<trkpt lat="-6.1714800" lon="106.8276720"><time>2026-01-01T01:02:02Z</time></trkpt>
<trkpt lat="-6.1714800" lon="106.8276085"><time>2026-01-01T01:02:03Z</time></trkpt>
<trkpt lat="-6.1714800" lon="106.8275450"><time>2026-01-01T01:02:04Z</time></trkpt>
<trkpt lat="-6.1714797" lon="106.8274817"><time>2026-01-01T01:02:05Z</time></trkpt>
<trkpt lat="-6.1714793" lon="106.8274183"><time>2026-01-01T01:02:06Z</time></trkpt>
<trkpt lat="-6.1714790" lon="106.8273550"><time>2026-01-01T01:02:07Z</time></trkpt>
<trkpt lat="-6.1714786" lon="106.8272910"><time>2026-01-01T01:02:08Z</time></trkpt>
<trkpt lat="-6.1714782" lon="106.8272270"><time>2026-01-01T01:02:09Z</time></trkpt>
<trkpt lat="-6.1714778" lon="106.8271630"><time>2026-01-01T01:02:10Z</time></trkpt>
<trkpt lat="-6.1714774" lon="106.8270990"><time>2026-01-01T01:02:11Z</time></trkpt>
<trkpt lat="-6.1714770" lon="106.8270350"><time>2026-01-01T01:02:12Z</time></trkpt>
<trkpt lat="-6.1714760" lon="106.8269850"><time>2026-01-01T01:02:13Z</time></trkpt>
<trkpt lat="-6.1714753" lon="106.8269160"><time>2026-01-01T01:02:14Z</time></trkpt>
<trkpt lat="-6.1714746" lon="106.8268470"><time>2026-01-01T01:02:15Z</time></trkpt>
<trkpt lat="-6.1714739" lon="106.8267780"><time>2026-01-01T01:02:16Z</time></trkpt>
<trkpt lat="-6.1714733" lon="106.8267090"><time>2026-01-01T01:02:17Z</time></trkpt>
<trkpt lat="-6.1714726" lon="106.8266400"><time>2026-01-01T01:02:18Z</time></trkpt>
<trkpt lat="-6.1714719" lon="106.8265710"><time>2026-01-01T01:02:19Z</time></trkpt>
<trkpt lat="-6.1714712" lon="106.8265020"><time>2026-01-01T01:02:20Z</time></trkpt>
<trkpt lat="-6.1714705" lon="106.8264330"><time>2026-01-01T01:02:21Z</time></trkpt>
<trkpt lat="-6.1714698" lon="106.8263640"><time>2026-01-01T01:02:22Z</time></trkpt>
<trkpt lat="-6.1714692" lon="106.8262950"><time>2026-01-01T01:02:23Z</time></trkpt>
<trkpt lat="-6.1714685" lon="106.8262260"><time>2026-01-01T01:02:24Z</time></trkpt>
<trkpt lat="-6.1714678" lon="106.8261570"><time>2026-01-01T01:02:25Z</time></trkpt>
<trkpt lat="-6.1714671" lon="106.8260880"><time>2026-01-01T01:02:26Z</time></trkpt>
<trkpt lat="-6.1714664" lon="106.8260190"><time>2026-01-01T01:02:27Z</time></trkpt>
<trkpt lat="-6.1714657" lon="106.8259500"><time>2026-01-01T01:02:28Z</time></trkpt>
<trkpt lat="-6.1714651" lon="106.8258810"><time>2026-01-01T01:02:29Z</time></trkpt>
<trkpt lat="-6.1714644" lon="106.8258120"><time>2026-01-01T01:02:30Z</time></trkpt>
<trkpt lat="-6.1714637" lon="106.8257430"><time>2026-01-01T01:02:31Z</time></trkpt>
<trkpt lat="-6.1714630" lon="106.8256740"><time>2026-01-01T01:02:32Z</time></trkpt>
<trkpt lat="-6.1714615" lon="106.8256185"><time>2026-01-01T01:02:33Z</time></trkpt>
<trkpt lat="-6.1714600" lon="106.8255630"><time>2026-01-01T01:02:34Z</time></trkpt>
<trkpt lat="-6.1714598" lon="106.8254923"><time>2026-01-01T01:02:35Z</time></trkpt>
<trkpt lat="-6.1714597" lon="106.8254217"><time>2026-01-01T01:02:36Z</time></trkpt>
<trkpt lat="-6.1714595" lon="106.8253510"><time>2026-01-01T01:02:37Z</time></trkpt>
<trkpt lat="-6.1714593" lon="106.8252804"><time>2026-01-01T01:02:38Z</time></trkpt>
<trkpt lat="-6.1714591" lon="106.8252097"><time>2026-01-01T01:02:39Z</time></trkpt>
<trkpt lat="-6.1714590" lon="106.8251391"><time>2026-01-01T01:02:40Z</time></trkpt>
<trkpt lat="-6.1714588" lon="106.8250684"><time>2026-01-01T01:02:41Z</time></trkpt>
<trkpt lat="-6.1714586" lon="106.8249978"><time>2026-01-01T01:02:42Z</time></trkpt>
<trkpt lat="-6.1714584" lon="106.8249271"><time>2026-01-01T01:02:43Z</time></trkpt>
<trkpt lat="-6.1714583" lon="106.8248565"><time>2026-01-01T01:02:44Z</time></trkpt>
<trkpt lat="-6.1714581" lon="106.8247858"><time>2026-01-01T01:02:45Z</time></trkpt>
<trkpt lat="-6.1714579" lon="106.8247152"><time>2026-01-01T01:02:46Z</time></trkpt>
<trkpt lat="-6.1714577" lon="106.8246445"><time>2026-01-01T01:02:47Z</time></trkpt>
<trkpt lat="-6.1714576" lon="106.8245739"><time>2026-01-01T01:02:48Z</time></trkpt>
<trkpt lat="-6.1714574" lon="106.8245032"><time>2026-01-01T01:02:49Z</time></trkpt>
<trkpt lat="-6.1714572" lon="106.8244326"><time>2026-01-01T01:02:50Z</time></trkpt>
<trkpt lat="-6.1714570" lon="106.8243619"><time>2026-01-01T01:02:51Z</time></trkpt>
<trkpt lat="-6.1714569" lon="106.8242913"><time>2026-01-01T01:02:52Z</time></trkpt>
<trkpt lat="-6.1714567" lon="106.8242206"><time>2026-01-01T01:02:53Z</time></trkpt>
<trkpt lat="-6.1714565" lon="106.8241500"><time>2026-01-01T01:02:54Z</time></trkpt>
<trkpt lat="-6.1714563" lon="106.8240793"><time>2026-01-01T01:02:55Z</time></trkpt>
<trkpt lat="-6.1714562" lon="106.8240087"><time>2026-01-01T01:02:56Z</time></trkpt>
<trkpt lat="-6.1714560" lon="106.8239380"><time>2026-01-01T01:02:56.180000Z</time></trkpt>
<trkpt lat="-6.1714570" lon="106.8238673"><time>2026-01-01T01:02:56.360000Z</time></trkpt>
<trkpt lat="-6.1714580" lon="106.8237967"><time>2026-01-01T01:02:56.540000Z</time></trkpt>
<trkpt lat="-6.1714590" lon="106.8237260"><time>2026-01-01T01:02:56.720000Z</time></trkpt>
<trkpt lat="-6.1714877" lon="106.8236620"><time>2026-01-01T01:02:57.720000Z</time></trkpt>
<trkpt lat="-6.1715165" lon="106.8235980"><time>2026-01-01T01:02:58.720000Z</time></trkpt>
<trkpt lat="-6.1715452" lon="106.8235340"><time>2026-01-01T01:02:59.720000Z</time></trkpt>
<trkpt lat="-6.1715740" lon="106.8234700"><time>2026-01-01T01:03:00.720000Z</time></trkpt>
<trkpt lat="-6.1716140" lon="106.8234120"><time>2026-01-01T01:03:01.720000Z</time></trkpt>
<trkpt lat="-6.1716540" lon="106.8233540"><time>2026-01-01T01:03:02.720000Z</time></trkpt>
<trkpt lat="-6.1716957" lon="106.8233160"><time>2026-01-01T01:03:03.720000Z</time></trkpt>
<trkpt lat="-6.1717373" lon="106.8232780"><time>2026-01-01T01:03:04.720000Z</time></trkpt>
<trkpt lat="-6.1717790" lon="106.8232400"><time>2026-01-01T01:03:05.720000Z</time></trkpt>
<trkpt lat="-6.1718070" lon="106.8232250"><time>2026-01-01T01:03:06.720000Z</time></trkpt>
<trkpt lat="-6.1718560" lon="106.8232070"><time>2026-01-01T01:03:07.720000Z</time></trkpt>
<trkpt lat="-6.1719050" lon="106.8231890"><time>2026-01-01T01:03:08.720000Z</time></trkpt>
<trkpt lat="-6.1719598" lon="106.8231860"><time>2026-01-01T01:03:09.720000Z</time></trkpt>
<trkpt lat="-6.1720145" lon="106.8231830"><time>2026-01-01T01:03:10.720000Z</time></trkpt>
<trkpt lat="-6.1720692" lon="106.8231800"><time>2026-01-01T01:03:11.720000Z</time></trkpt>
<trkpt lat="-6.1721240" lon="106.8231770"><time>2026-01-01T01:03:12.720000Z</time></trkpt>
<trkpt lat="-6.1721912" lon="106.8231747"><time>2026-01-01T01:03:13.720000Z</time></trkpt>
<trkpt lat="-6.1722583" lon="106.8231723"><time>2026-01-01T01:03:14.720000Z</time></trkpt>
<trkpt lat="-6.1723255" lon="106.8231700"><time>2026-01-01T01:03:15.720000Z</time></trkpt>
<trkpt lat="-6.1723927" lon="106.8231677"><time>2026-01-01T01:03:16.720000Z</time></trkpt>
<trkpt lat="-6.1724598" lon="106.8231653"><time>2026-01-01T01:03:17.720000Z</time></trkpt>
<trkpt lat="-6.1725270" lon="106.8231630"><time>2026-01-01T01:03:18.720000Z</time></trkpt>
<trkpt lat="-6.1725962" lon="106.8231608"><time>2026-01-01T01:03:19.720000Z</time></trkpt>
<trkpt lat="-6.1726653" lon="106.8231586"><time>2026-01-01T01:03:20.720000Z</time></trkpt>
<trkpt lat="-6.1727345" lon="106.8231564"><time>2026-01-01T01:03:21.720000Z</time></trkpt>
<trkpt lat="-6.1728037" lon="106.8231542"><time>2026-01-01T01:03:22.720000Z</time></trkpt>
<trkpt lat="-6.1728728" lon="106.8231520"><time>2026-01-01T01:03:23.720000Z</time></trkpt>
<trkpt lat="-6.1729420" lon="106.8231497"><time>2026-01-01T01:03:24.720000Z</time></trkpt>
<trkpt lat="-6.1730112" lon="106.8231475"><time>2026-01-01T01:03:25.720000Z</time></trkpt>
<trkpt lat="-6.1730803" lon="106.8231453"><time>2026-01-01T01:03:26.720000Z</time></trkpt>
<trkpt lat="-6.1731495" lon="106.8231431"><time>2026-01-01T01:03:27.720000Z</time></trkpt>
<trkpt lat="-6.1732187" lon="106.8231409"><time>2026-01-01T01:03:28.720000Z</time></trkpt>
<trkpt lat="-6.1732878" lon="106.8231387"><time>2026-01-01T01:03:29.720000Z</time></trkpt>
<trkpt lat="-6.1733570" lon="106.8231365"><time>2026-01-01T01:03:30.720000Z</time></trkpt>
<trkpt lat="-6.1734262" lon="106.8231343"><time>2026-01-01T01:03:31.720000Z</time></trkpt>
<trkpt lat="-6.1734953" lon="106.8231321"><time>2026-01-01T01:03:32.720000Z</time></trkpt>
<trkpt lat="-6.1735645" lon="106.8231299"><time>2026-01-01T01:03:33.720000Z</time></trkpt>
<trkpt lat="-6.1736337" lon="106.8231277"><time>2026-01-01T01:03:34.720000Z</time></trkpt>
<trkpt lat="-6.1737028" lon="106.8231255"><time>2026-01-01T01:03:35.720000Z</time></trkpt>
<trkpt lat="-6.1737720" lon="106.8231232"><time>2026-01-01T01:03:36.720000Z</time></trkpt>
<trkpt lat="-6.1738412" lon="106.8231210"><time>2026-01-01T01:03:37.720000Z</time></trkpt>
<trkpt lat="-6.1739103" lon="106.8231188"><time>2026-01-01T01:03:38.720000Z</time></trkpt>
<trkpt lat="-6.1739795" lon="106.8231166"><time>2026-01-01T01:03:39.720000Z</time></trkpt>
<trkpt lat="-6.1740487" lon="106.8231144"><time>2026-01-01T01:03:40.720000Z</time></trkpt>
<trkpt lat="-6.1741178" lon="106.8231122"><time>2026-01-01T01:03:41.720000Z</time></trkpt>
<trkpt lat="-6.1741870" lon="106.8231100"><time>2026-01-01T01:03:42.720000Z</time></trkpt>
<trkpt lat="-6.1742499" lon="106.8231071"><time>2026-01-01T01:03:43.720000Z</time></trkpt>
<trkpt lat="-6.1743127" lon="106.8231043"><time>2026-01-01T01:03:44.720000Z</time></trkpt>
<trkpt lat="-6.1743756" lon="106.8231014"><time>2026-01-01T01:03:45.720000Z</time></trkpt>
<trkpt lat="-6.1744384" lon="106.8230986"><time>2026-01-01T01:03:46.720000Z</time></trkpt>
<trkpt lat="-6.1745013" lon="106.8230957"><time>2026-01-01T01:03:47.720000Z</time></trkpt>
<trkpt lat="-6.1745641" lon="106.8230929"><time>2026-01-01T01:03:48.720000Z</time></trkpt>
<trkpt lat="-6.1746270" lon="106.8230900"><time>2026-01-01T01:03:49.720000Z</time></trkpt>
<trkpt lat="-6.1746800" lon="106.8230890"><time>2026-01-01T01:03:50.720000Z</time></trkpt>
<trkpt lat="-6.1747506" lon="106.8230866"><time>2026-01-01T01:03:51.720000Z</time></trkpt>
<trkpt lat="-6.1748213" lon="106.8230843"><time>2026-01-01T01:03:52.720000Z</time></trkpt>
<trkpt lat="-6.1748919" lon="106.8230819"><time>2026-01-01T01:03:53.720000Z</time></trkpt>
<trkpt lat="-6.1749626" lon="106.8230796"><time>2026-01-01T01:03:54.720000Z</time></trkpt>
<trkpt lat="-6.1750332" lon="106.8230772"><time>2026-01-01T01:03:55.720000Z</time></trkpt>
<trkpt lat="-6.1751039" lon="106.8230749"><time>2026-01-01T01:03:56.720000Z</time></trkpt>
<trkpt lat="-6.1751745" lon="106.8230725"><time>2026-01-01T01:03:57.720000Z</time></trkpt>
<trkpt lat="-6.1752451" lon="106.8230701"><time>2026-01-01T01:03:58.720000Z</time></trkpt>
<trkpt lat="-6.1753158" lon="106.8230678"><time>2026-01-01T01:03:59.720000Z</time></trkpt>
<trkpt lat="-6.1753864" lon="106.8230654"><time>2026-01-01T01:04:00.720000Z</time></trkpt>
<trkpt lat="-6.1754571" lon="106.8230631"><time>2026-01-01T01:04:01.720000Z</time></trkpt>
<trkpt lat="-6.1755277" lon="106.8230607"><time>2026-01-01T01:04:02.720000Z</time></trkpt>
<trkpt lat="-6.1755984" lon="106.8230584"><time>2026-01-01T01:04:03.720000Z</time></trkpt>
<trkpt lat="-6.1756690" lon="106.8230560"><time>2026-01-01T01:04:04.720000Z</time></trkpt>
<trkpt lat="-6.1757365" lon="106.8230557"><time>2026-01-01T01:04:05.720000Z</time></trkpt>
<trkpt lat="-6.1758040" lon="106.8230553"><time>2026-01-01T01:04:06.720000Z</time></trkpt>
<trkpt lat="-6.1758715" lon="106.8230550"><time>2026-01-01T01:04:07.720000Z</time></trkpt>
<trkpt lat="-6.1759390" lon="106.8230547"><time>2026-01-01T01:04:08.720000Z</time></trkpt>
<trkpt lat="-6.1760065" lon="106.8230543"><time>2026-01-01T01:04:09.720000Z</time></trkpt>
<trkpt lat="-6.1760740" lon="106.8230540"><time>2026-01-01T01:04:10.720000Z</time></trkpt>
<trkpt lat="-6.1761446" lon="106.8230522"><time>2026-01-01T01:04:11.720000Z</time></trkpt>
<trkpt lat="-6.1762153" lon="106.8230504"><time>2026-01-01T01:04:12.720000Z</time></trkpt>
<trkpt lat="-6.1762859" lon="106.8230485"><time>2026-01-01T01:04:13.720000Z</time></trkpt>
<trkpt lat="-6.1763566" lon="106.8230467"><time>2026-01-01T01:04:14.720000Z</time></trkpt>
<trkpt lat="-6.1764272" lon="106.8230449"><time>2026-01-01T01:04:15.720000Z</time></trkpt>
<trkpt lat="-6.1764979" lon="106.8230431"><time>2026-01-01T01:04:16.720000Z</time></trkpt>
<trkpt lat="-6.1765685" lon="106.8230412"><time>2026-01-01T01:04:17.720000Z</time></trkpt>
<trkpt lat="-6.1766392" lon="106.8230394"><time>2026-01-01T01:04:18.720000Z</time></trkpt>
<trkpt lat="-6.1767098" lon="106.8230376"><time>2026-01-01T01:04:19.720000Z</time></trkpt>
<trkpt lat="-6.1767804" lon="106.8230358"><time>2026-01-01T01:04:20.720000Z</time></trkpt>
<trkpt lat="-6.1768511" lon="106.8230340"><time>2026-01-01T01:04:21.720000Z</time></trkpt>
<trkpt lat="-6.1769217" lon="106.8230321"><time>2026-01-01T01:04:22.720000Z</time></trkpt>
<trkpt lat="-6.1769924" lon="106.8230303"><time>2026-01-01T01:04:23.720000Z</time></trkpt>
<trkpt lat="-6.1770630" lon="106.8230285"><time>2026-01-01T01:04:24.720000Z</time></trkpt>
<trkpt lat="-6.1771337" lon="106.8230267"><time>2026-01-01T01:04:25.720000Z</time></trkpt>
<trkpt lat="-6.1772043" lon="106.8230248"><time>2026-01-01T01:04:26.720000Z</time></trkpt>
<trkpt lat="-6.1772750" lon="106.8230230"><time>2026-01-01T01:04:27.720000Z</time></trkpt>
<trkpt lat="-6.1773456" lon="106.8230212"><time>2026-01-01T01:04:28.720000Z</time></trkpt>
<trkpt lat="-6.1774162" lon="106.8230194"><time>2026-01-01T01:04:29.720000Z</time></trkpt>
<trkpt lat="-6.1774869" lon="106.8230176"><time>2026-01-01T01:04:30.720000Z</time></trkpt>
<trkpt lat="-6.1775575" lon="106.8230157"><time>2026-01-01T01:04:31.720000Z</time></trkpt>
<trkpt lat="-6.1776282" lon="106.8230139"><time>2026-01-01T01:04:32.720000Z</time></trkpt>
<trkpt lat="-6.1776988" lon="106.8230121"><time>2026-01-01T01:04:33.720000Z</time></trkpt>
<trkpt lat="-6.1777695" lon="106.8230103"><time>2026-01-01T01:04:34.720000Z</time></trkpt>
<trkpt lat="-6.1778401" lon="106.8230084"><time>2026-01-01T01:04:35.720000Z</time></trkpt>
<trkpt lat="-6.1779108" lon="106.8230066"><time>2026-01-01T01:04:36.720000Z</time></trkpt>
<trkpt lat="-6.1779814" lon="106.8230048"><time>2026-01-01T01:04:37.720000Z</time></trkpt>
<trkpt lat="-6.1780520" lon="106.8230030"><time>2026-01-01T01:04:38.720000Z</time></trkpt>
<trkpt lat="-6.1781227" lon="106.8230012"><time>2026-01-01T01:04:39.720000Z</time></trkpt>
<trkpt lat="-6.1781933" lon="106.8229993"><time>2026-01-01T01:04:40.720000Z</time></trkpt>
<trkpt lat="-6.1782640" lon="106.8229975"><time>2026-01-01T01:04:41.720000Z</time></trkpt>
<trkpt lat="-6.1783346" lon="106.8229957"><time>2026-01-01T01:04:42.720000Z</time></trkpt>
<trkpt lat="-6.1784053" lon="106.8229939"><time>2026-01-01T01:04:43.720000Z</time></trkpt>
<trkpt lat="-6.1784759" lon="106.8229920"><time>2026-01-01T01:04:44.720000Z</time></trkpt>
<trkpt lat="-6.1785466" lon="106.8229902"><time>2026-01-01T01:04:45.720000Z</time></trkpt>
<trkpt lat="-6.1786172" lon="106.8229884"><time>2026-01-01T01:04:46.720000Z</time></trkpt>
<trkpt lat="-6.1786878" lon="106.8229866"><time>2026-01-01T01:04:47.720000Z</time></trkpt>
<trkpt lat="-6.1787585" lon="106.8229848"><time>2026-01-01T01:04:48.720000Z</time></trkpt>
<trkpt lat="-6.1788291" lon="106.8229829"><time>2026-01-01T01:04:49.720000Z</time></trkpt>
<trkpt lat="-6.1788998" lon="106.8229811"><time>2026-01-01T01:04:50.720000Z</time></trkpt>
<trkpt lat="-6.1789704" lon="106.8229793"><time>2026-01-01T01:04:51.720000Z</time></trkpt>
<trkpt lat="-6.1790411" lon="106.8229775"><time>2026-01-01T01:04:52.720000Z</time></trkpt>
<trkpt lat="-6.1791117" lon="106.8229756"><time>2026-01-01T01:04:53.720000Z</time></trkpt>
<trkpt lat="-6.1791824" lon="106.8229738"><time>2026-01-01T01:04:54.720000Z</time></trkpt>
<trkpt lat="-6.1792530" lon="106.8229720"><time>2026-01-01T01:04:55.720000Z</time></trkpt>
<trkpt lat="-6.1793150" lon="106.8229700"><time>2026-01-01T01:04:56.720000Z</time></trkpt>
<trkpt lat="-6.1793770" lon="106.8229680"><time>2026-01-01T01:04:57.720000Z</time></trkpt>
<trkpt lat="-6.1794200" lon="106.8229670"><time>2026-01-01T01:04:58.720000Z</time></trkpt>
<trkpt lat="-6.1794630" lon="106.8229660"><time>2026-01-01T01:04:59.720000Z</time></trkpt>
<trkpt lat="-6.1795280" lon="106.8229695"><time>2026-01-01T01:05:00.720000Z</time></trkpt>
<trkpt lat="-6.1795930" lon="106.8229730"><time>2026-01-01T01:05:01.720000Z</time></trkpt>
<trkpt lat="-6.1796580" lon="106.8229765"><time>2026-01-01T01:05:02.720000Z</time></trkpt>
<trkpt lat="-6.1797230" lon="106.8229800"><time>2026-01-01T01:05:03.720000Z</time></trkpt>
<trkpt lat="-6.1797717" lon="106.8229867"><time>2026-01-01T01:05:04.720000Z</time></trkpt>
<trkpt lat="-6.1798203" lon="106.8229933"><time>2026-01-01T01:05:05.720000Z</time></trkpt>
<trkpt lat="-6.1798690" lon="106.8230000"><time>2026-01-01T01:05:06.720000Z</time></trkpt>
<trkpt lat="-6.1799390" lon="106.8230150"><time>2026-01-01T01:05:07.720000Z</time></trkpt>
<trkpt lat="-6.1800090" lon="106.8230300"><time>2026-01-01T01:05:08.720000Z</time></trkpt>
<trkpt lat="-6.1800676" lon="106.8230420"><time>2026-01-01T01:05:09.720000Z</time></trkpt>
<trkpt lat="-6.1801262" lon="106.8230540"><time>2026-01-01T01:05:10.720000Z</time></trkpt>
<trkpt lat="-6.1801848" lon="106.8230660"><time>2026-01-01T01:05:11.720000Z</time></trkpt>
<trkpt lat="-6.1802434" lon="106.8230780"><time>2026-01-01T01:05:12.720000Z</time></trkpt>
<trkpt lat="-6.1803020" lon="106.8230900"><time>2026-01-01T01:05:13.720000Z</time></trkpt>
<trkpt lat="-6.1803240" lon="106.8230930"><time>2026-01-01T01:05:14.720000Z</time></trkpt>
<trkpt lat="-6.1803735" lon="106.8230985"><time>2026-01-01T01:05:15.720000Z</time></trkpt>
<trkpt lat="-6.1804230" lon="106.8231040"><time>2026-01-01T01:05:16.720000Z</time></trkpt>
<trkpt lat="-6.1804460" lon="106.8231220"><time>2026-01-01T01:05:17.720000Z</time></trkpt>
<trkpt lat="-6.1804830" lon="106.8231460"><time>2026-01-01T01:05:18.720000Z</time></trkpt>
<trkpt lat="-6.1805170" lon="106.8231595"><time>2026-01-01T01:05:19.720000Z</time></trkpt>
<trkpt lat="-6.1805510" lon="106.8231730"><time>2026-01-01T01:05:20.720000Z</time></trkpt>
<trkpt lat="-6.1805870" lon="106.8231785"><time>2026-01-01T01:05:21.720000Z</time></trkpt>
<trkpt lat="-6.1806230" lon="106.8231840"><time>2026-01-01T01:05:22.720000Z</time></trkpt>
<trkpt lat="-6.1806595" lon="106.8231815"><time>2026-01-01T01:05:23.720000Z</time></trkpt>
<trkpt lat="-6.1806960" lon="106.8231790"><time>2026-01-01T01:05:24.720000Z</time></trkpt>
<trkpt lat="-6.1807310" lon="106.8231680"><time>2026-01-01T01:05:25.720000Z</time></trkpt>
<trkpt lat="-6.1807660" lon="106.8231570"><time>2026-01-01T01:05:26.720000Z</time></trkpt>
<trkpt lat="-6.1808140" lon="106.8231300"><time>2026-01-01T01:05:27.720000Z</time></trkpt>
<trkpt lat="-6.1808470" lon="106.8231030"><time>2026-01-01T01:05:28.720000Z</time></trkpt>
<trkpt lat="-6.1808580" lon="106.8230940"><time>2026-01-01T01:05:29.720000Z</time></trkpt>
<trkpt lat="-6.1808940" lon="106.8230520"><time>2026-01-01T01:05:30.720000Z</time></trkpt>
<trkpt lat="-6.1809300" lon="106.8230515"><time>2026-01-01T01:05:31.720000Z</time></trkpt>
<trkpt lat="-6.1809660" lon="106.8230510"><time>2026-01-01T01:05:32.720000Z</time></trkpt>
<trkpt lat="-6.1809980" lon="106.8230510"><time>2026-01-01T01:05:33.720000Z</time></trkpt>
<trkpt lat="-6.1810380" lon="106.8230400"><time>2026-01-01T01:05:34.720000Z</time></trkpt>
<trkpt lat="-6.1810780" lon="106.8230290"><time>2026-01-01T01:05:35.720000Z</time></trkpt>
<trkpt lat="-6.1811330" lon="106.8230280"><time>2026-01-01T01:05:36.720000Z</time></trkpt>
<trkpt lat="-6.1811989" lon="106.8230321"><time>2026-01-01T01:05:37.720000Z</time></trkpt>
<trkpt lat="-6.1812648" lon="106.8230362"><time>2026-01-01T01:05:38.720000Z</time></trkpt>
<trkpt lat="-6.1813307" lon="106.8230403"><time>2026-01-01T01:05:39.720000Z</time></trkpt>
<trkpt lat="-6.1813966" lon="106.8230444"><time>2026-01-01T01:05:40.720000Z</time></trkpt>
<trkpt lat="-6.1814625" lon="106.8230485"><time>2026-01-01T01:05:41.720000Z</time></trkpt>
<trkpt lat="-6.1815285" lon="106.8230525"><time>2026-01-01T01:05:42.720000Z</time></trkpt>
<trkpt lat="-6.1815944" lon="106.8230566"><time>2026-01-01T01:05:43.720000Z</time></trkpt>
<trkpt lat="-6.1816603" lon="106.8230607"><time>2026-01-01T01:05:44.720000Z</time></trkpt>
<trkpt lat="-6.1817262" lon="106.8230648"><time>2026-01-01T01:05:45.720000Z</time></trkpt>
<trkpt lat="-6.1817921" lon="106.8230689"><time>2026-01-01T01:05:46.720000Z</time></trkpt>
<trkpt lat="-6.1818580" lon="106.8230730"><time>2026-01-01T01:05:47.720000Z</time></trkpt>
<trkpt lat="-6.1819140" lon="106.8230760"><time>2026-01-01T01:05:48.720000Z</time></trkpt>
<trkpt lat="-6.1819700" lon="106.8230790"><time>2026-01-01T01:05:49.720000Z</time></trkpt>
<trkpt lat="-6.1820350" lon="106.8230820"><time>2026-01-01T01:05:50.720000Z</time></trkpt>
<trkpt lat="-6.1820971" lon="106.8230850"><time>2026-01-01T01:05:54.220000Z</time></trkpt>
<trkpt lat="-6.1821593" lon="106.8230880"><time>2026-01-01T01:05:57.720000Z</time></trkpt>
<trkpt lat="-6.1822214" lon="106.8230910"><time>2026-01-01T01:06:01.220000Z</time></trkpt>
<trkpt lat="-6.1822836" lon="106.8230940"><time>2026-01-01T01:06:02.220000Z</time></trkpt>
<trkpt lat="-6.1823457" lon="106.8230970"><time>2026-01-01T01:06:03.220000Z</time></trkpt>
<trkpt lat="-6.1824079" lon="106.8231000"><time>2026-01-01T01:06:04.220000Z</time></trkpt>
<trkpt lat="-6.1824700" lon="106.8231030"><time>2026-01-01T01:06:05.220000Z</time></trkpt>
<trkpt lat="-6.1825390" lon="106.8231060"><time>2026-01-01T01:06:06.220000Z</time></trkpt>
<trkpt lat="-6.1825590" lon="106.8231070"><time>2026-01-01T01:06:07.220000Z</time></trkpt>
<trkpt lat="-6.1826215" lon="106.8231100"><time>2026-01-01T01:06:08.220000Z</time></trkpt>
<trkpt lat="-6.1826840" lon="106.8231130"><time>2026-01-01T01:06:09.220000Z</time></trkpt>
<trkpt lat="-6.1827420" lon="106.8231175"><time>2026-01-01T01:06:10.220000Z</time></trkpt>
<trkpt lat="-6.1828000" lon="106.8231220"><time>2026-01-01T01:06:11.220000Z</time></trkpt>
<trkpt lat="-6.1828680" lon="106.8231288"><time>2026-01-01T01:06:12.220000Z</time></trkpt>
<trkpt lat="-6.1829360" lon="106.8231356"><time>2026-01-01T01:06:13.220000Z</time></trkpt>
<trkpt lat="-6.1830040" lon="106.8231424"><time>2026-01-01T01:06:14.220000Z</time></trkpt>
<trkpt lat="-6.1830720" lon="106.8231492"><time>2026-01-01T01:06:15.220000Z</time></trkpt>
<trkpt lat="-6.1831400" lon="106.8231560"><time>2026-01-01T01:06:16.220000Z</time></trkpt>
<trkpt lat="-6.1832070" lon="106.8231630"><time>2026-01-01T01:06:17.220000Z</time></trkpt>
<trkpt lat="-6.1832740" lon="106.8231700"><time>2026-01-01T01:06:18.220000Z</time></trkpt>
<trkpt lat="-6.1833185" lon="106.8231730"><time>2026-01-01T01:06:19.220000Z</time></trkpt>
<trkpt lat="-6.1833630" lon="106.8231760"><time>2026-01-01T01:06:20.220000Z</time></trkpt>
<trkpt lat="-6.1834150" lon="106.8231780"><time>2026-01-01T01:06:21.220000Z</time></trkpt>
<trkpt lat="-6.1834798" lon="106.8231820"><time>2026-01-01T01:06:22.220000Z</time></trkpt>
<trkpt lat="-6.1835446" lon="106.8231860"><time>2026-01-01T01:06:23.220000Z</time></trkpt>
<trkpt lat="-6.1836094" lon="106.8231900"><time>2026-01-01T01:06:24.220000Z</time></trkpt>
<trkpt lat="-6.1836742" lon="106.8231940"><time>2026-01-01T01:06:25.220000Z</time></trkpt>
<trkpt lat="-6.1837390" lon="106.8231980"><time>2026-01-01T01:06:26.220000Z</time></trkpt>
<trkpt lat="-6.1837905" lon="106.8232010"><time>2026-01-01T01:06:27.220000Z</time></trkpt>
<trkpt lat="-6.1838420" lon="106.8232040"><time>2026-01-01T01:06:28.220000Z</time></trkpt>
<trkpt lat="-6.1839003" lon="106.8232090"><time>2026-01-01T01:06:29.220000Z</time></trkpt>
<trkpt lat="-6.1839587" lon="106.8232140"><time>2026-01-01T01:06:30.220000Z</time></trkpt>
<trkpt lat="-6.1840170" lon="106.8232190"><time>2026-01-01T01:06:31.220000Z</time></trkpt>
<trkpt lat="-6.1840804" lon="106.8232230"><time>2026-01-01T01:06:32.220000Z</time></trkpt>
<trkpt lat="-6.1841439" lon="106.8232270"><time>2026-01-01T01:06:33.220000Z</time></trkpt>
<trkpt lat="-6.1842073" lon="106.8232310"><time>2026-01-01T01:06:34.220000Z</time></trkpt>
<trkpt lat="-6.1842707" lon="106.8232350"><time>2026-01-01T01:06:35.220000Z</time></trkpt>
<trkpt lat="-6.1843341" lon="106.8232390"><time>2026-01-01T01:06:36.220000Z</time></trkpt>
<trkpt lat="-6.1843976" lon="106.8232430"><time>2026-01-01T01:06:37.220000Z</time></trkpt>
<trkpt lat="-6.1844610" lon="106.8232470"><time>2026-01-01T01:06:38.220000Z</time></trkpt>
<trkpt lat="-6.1845263" lon="106.8232513"><time>2026-01-01T01:06:39.220000Z</time></trkpt>
<trkpt lat="-6.1845917" lon="106.8232557"><time>2026-01-01T01:06:40.220000Z</time></trkpt>
<trkpt lat="-6.1846570" lon="106.8232600"><time>2026-01-01T01:06:41.220000Z</time></trkpt>
<trkpt lat="-6.1847147" lon="106.8232630"><time>2026-01-01T01:06:42.220000Z</time></trkpt>
<trkpt lat="-6.1847723" lon="106.8232660"><time>2026-01-01T01:06:43.220000Z</time></trkpt>
<trkpt lat="-6.1848300" lon="106.8232690"><time>2026-01-01T01:06:44.220000Z</time></trkpt>
<trkpt lat="-6.1848948" lon="106.8232710"><time>2026-01-01T01:06:45.220000Z</time></trkpt>
<trkpt lat="-6.1849596" lon="106.8232730"><time>2026-01-01T01:06:46.220000Z</time></trkpt>
<trkpt lat="-6.1850244" lon="106.8232750"><time>2026-01-01T01:06:47.220000Z</time></trkpt>
<trkpt lat="-6.1850892" lon="106.8232770"><time>2026-01-01T01:06:48.220000Z</time></trkpt>
<trkpt lat="-6.1851540" lon="106.8232790"><time>2026-01-01T01:06:49.220000Z</time></trkpt>
<trkpt lat="-6.1852210" lon="106.8232800"><time>2026-01-01T01:06:50.220000Z</time></trkpt>
<trkpt lat="-6.1852798" lon="106.8232795"><time>2026-01-01T01:06:51.220000Z</time></trkpt>
<trkpt lat="-6.1853385" lon="106.8232790"><time>2026-01-01T01:06:52.220000Z</time></trkpt>
<trkpt lat="-6.1853973" lon="106.8232785"><time>2026-01-01T01:06:53.220000Z</time></trkpt>
<trkpt lat="-6.1854560" lon="106.8232780"><time>2026-01-01T01:06:54.220000Z</time></trkpt>
<trkpt lat="-6.1855240" lon="106.8232775"><time>2026-01-01T01:06:55.220000Z</time></trkpt>
<trkpt lat="-6.1855920" lon="106.8232770"><time>2026-01-01T01:06:56.220000Z</time></trkpt>
<trkpt lat="-6.1856555" lon="106.8232715"><time>2026-01-01T01:06:57.220000Z</time></trkpt>
<trkpt lat="-6.1857190" lon="106.8232660"><time>2026-01-01T01:06:58.220000Z</time></trkpt>
<trkpt lat="-6.1857875" lon="106.8232615"><time>2026-01-01T01:06:59.220000Z</time></trkpt>
<trkpt lat="-6.1858560" lon="106.8232570"><time>2026-01-01T01:07:00.220000Z</time></trkpt>
<trkpt lat="-6.1859087" lon="106.8232537"><time>2026-01-01T01:07:01.220000Z</time></trkpt>
<trkpt lat="-6.1859613" lon="106.8232503"><time>2026-01-01T01:07:02.220000Z</time></trkpt>
<trkpt lat="-6.1860140" lon="106.8232470"><time>2026-01-01T01:07:03.220000Z</time></trkpt>
<trkpt lat="-6.1860575" lon="106.8232440"><time>2026-01-01T01:07:04.220000Z</time></trkpt>
<trkpt lat="-6.1861010" lon="106.8232410"><time>2026-01-01T01:07:05.220000Z</time></trkpt>
<trkpt lat="-6.1861190" lon="106.8232400"><time>2026-01-01T01:07:06.220000Z</time></trkpt>
<trkpt lat="-6.1861770" lon="106.8232375"><time>2026-01-01T01:07:07.220000Z</time></trkpt>
<trkpt lat="-6.1862350" lon="106.8232350"><time>2026-01-01T01:07:08.220000Z</time></trkpt>
<trkpt lat="-6.1862997" lon="106.8232330"><time>2026-01-01T01:07:09.220000Z</time></trkpt>
<trkpt lat="-6.1863645" lon="106.8232310"><time>2026-01-01T01:07:10.220000Z</time></trkpt>
<trkpt lat="-6.1864292" lon="106.8232290"><time>2026-01-01T01:07:11.220000Z</time></trkpt>
<trkpt lat="-6.1864940" lon="106.8232270"><time>2026-01-01T01:07:12.220000Z</time></trkpt>
<trkpt lat="-6.1865646" lon="106.8232248"><time>2026-01-01T01:07:13.220000Z</time></trkpt>
<trkpt lat="-6.1866352" lon="106.8232226"><time>2026-01-01T01:07:14.220000Z</time></trkpt>
<trkpt lat="-6.1867058" lon="106.8232204"><time>2026-01-01T01:07:15.220000Z</time></trkpt>
<trkpt lat="-6.1867764" lon="106.8232182"><time>2026-01-01T01:07:16.220000Z</time></trkpt>
<trkpt lat="-6.1868470" lon="106.8232160"><time>2026-01-01T01:07:17.220000Z</time></trkpt>
<trkpt lat="-6.1868860" lon="106.8232140"><time>2026-01-01T01:07:18.220000Z</time></trkpt>
<trkpt lat="-6.1869300" lon="106.8232115"><time>2026-01-01T01:07:19.220000Z</time></trkpt>
<trkpt lat="-6.1869740" lon="106.8232090"><time>2026-01-01T01:07:20.220000Z</time></trkpt>
<trkpt lat="-6.1870165" lon="106.8232065"><time>2026-01-01T01:07:21.220000Z</time></trkpt>
<trkpt lat="-6.1870590" lon="106.8232040"><time>2026-01-01T01:07:22.220000Z</time></trkpt>
<trkpt lat="-6.1871300" lon="106.8232010"><time>2026-01-01T01:07:23.220000Z</time></trkpt>
<trkpt lat="-6.1871930" lon="106.8232010"><time>2026-01-01T01:07:24.220000Z</time></trkpt>
<trkpt lat="-6.1872560" lon="106.8232010"><time>2026-01-01T01:07:25.220000Z</time></trkpt>
<trkpt lat="-6.1873268" lon="106.8231973"><time>2026-01-01T01:07:26.220000Z</time></trkpt>
<trkpt lat="-6.1873976" lon="106.8231937"><time>2026-01-01T01:07:27.220000Z</time></trkpt>
<trkpt lat="-6.1874683" lon="106.8231900"><time>2026-01-01T01:07:28.220000Z</time></trkpt>
<trkpt lat="-6.1875391" lon="106.8231863"><time>2026-01-01T01:07:29.220000Z</time></trkpt>
<trkpt lat="-6.1876099" lon="106.8231827"><time>2026-01-01T01:07:30.220000Z</time></trkpt>
<trkpt lat="-6.1876807" lon="106.8231790"><time>2026-01-01T01:07:31.220000Z</time></trkpt>
<trkpt lat="-6.1877514" lon="106.8231753"><time>2026-01-01T01:07:32.220000Z</time></trkpt>
<trkpt lat="-6.1878222" lon="106.8231717"><time>2026-01-01T01:07:33.220000Z</time></trkpt>
<trkpt lat="-6.1878930" lon="106.8231680"><time>2026-01-01T01:07:34.220000Z</time></trkpt>
<trkpt lat="-6.1879390" lon="106.8231650"><time>2026-01-01T01:07:35.220000Z</time></trkpt>
<trkpt lat="-6.1880080" lon="106.8231615"><time>2026-01-01T01:07:36.220000Z</time></trkpt>
<trkpt lat="-6.1880770" lon="106.8231580"><time>2026-01-01T01:07:37.220000Z</time></trkpt>
<trkpt lat="-6.1881460" lon="106.8231545"><time>2026-01-01T01:07:38.220000Z</time></trkpt>
<trkpt lat="-6.1882150" lon="106.8231510"><time>2026-01-01T01:07:39.220000Z</time></trkpt>
<trkpt lat="-6.1882840" lon="106.8231475"><time>2026-01-01T01:07:40.220000Z</time></trkpt>
<trkpt lat="-6.1883530" lon="106.8231440"><time>2026-01-01T01:07:41.220000Z</time></trkpt>
<trkpt lat="-6.1884220" lon="106.8231405"><time>2026-01-01T01:07:42.220000Z</time></trkpt>
<trkpt lat="-6.1884910" lon="106.8231370"><time>2026-01-01T01:07:43.220000Z</time></trkpt>
<trkpt lat="-6.1885562" lon="106.8231348"><time>2026-01-01T01:07:44.220000Z</time></trkpt>
<trkpt lat="-6.1886214" lon="106.8231326"><time>2026-01-01T01:07:45.220000Z</time></trkpt>
<trkpt lat="-6.1886866" lon="106.8231304"><time>2026-01-01T01:07:46.220000Z</time></trkpt>
<trkpt lat="-6.1887518" lon="106.8231282"><time>2026-01-01T01:07:47.220000Z</time></trkpt>
<trkpt lat="-6.1888170" lon="106.8231260"><time>2026-01-01T01:07:48.220000Z</time></trkpt>
<trkpt lat="-6.1888804" lon="106.8231242"><time>2026-01-01T01:07:49.220000Z</time></trkpt>
<trkpt lat="-6.1889438" lon="106.8231224"><time>2026-01-01T01:07:50.220000Z</time></trkpt>
<trkpt lat="-6.1890072" lon="106.8231206"><time>2026-01-01T01:07:51.220000Z</time></trkpt>
<trkpt lat="-6.1890706" lon="106.8231188"><time>2026-01-01T01:07:52.220000Z</time></trkpt>
<trkpt lat="-6.1891340" lon="106.8231170"><time>2026-01-01T01:07:53.220000Z</time></trkpt>
<trkpt lat="-6.1891910" lon="106.8231155"><time>2026-01-01T01:07:54.220000Z</time></trkpt>
<trkpt lat="-6.1892480" lon="106.8231140"><time>2026-01-01T01:07:55.220000Z</time></trkpt>
<trkpt lat="-6.1893103" lon="106.8231120"><time>2026-01-01T01:07:56.220000Z</time></trkpt>
<trkpt lat="-6.1893727" lon="106.8231100"><time>2026-01-01T01:07:57.220000Z</time></trkpt>
<trkpt lat="-6.1894350" lon="106.8231080"><time>2026-01-01T01:07:58.220000Z</time></trkpt>
<trkpt lat="-6.1894982" lon="106.8231062"><time>2026-01-01T01:07:59.220000Z</time></trkpt>
<trkpt lat="-6.1895615" lon="106.8231045"><time>2026-01-01T01:08:00.220000Z</time></trkpt>
<trkpt lat="-6.1896248" lon="106.8231028"><time>2026-01-01T01:08:01.220000Z</time></trkpt>
<trkpt lat="-6.1896880" lon="106.8231010"><time>2026-01-01T01:08:02.220000Z</time></trkpt>
<trkpt lat="-6.1897500" lon="106.8231000"><time>2026-01-01T01:08:03.220000Z</time></trkpt>
<trkpt lat="-6.1898120" lon="106.8230990"><time>2026-01-01T01:08:04.220000Z</time></trkpt>
<trkpt lat="-6.1898769" lon="106.8230963"><time>2026-01-01T01:08:05.220000Z</time></trkpt>
<trkpt lat="-6.1899418" lon="106.8230937"><time>2026-01-01T01:08:06.220000Z</time></trkpt>
<trkpt lat="-6.1900067" lon="106.8230910"><time>2026-01-01T01:08:07.220000Z</time></trkpt>
<trkpt lat="-6.1900716" lon="106.8230883"><time>2026-01-01T01:08:08.220000Z</time></trkpt>
<trkpt lat="-6.1901364" lon="106.8230857"><time>2026-01-01T01:08:09.220000Z</time></trkpt>
<trkpt lat="-6.1902013" lon="106.8230830"><time>2026-01-01T01:08:10.220000Z</time></trkpt>
<trkpt lat="-6.1902662" lon="106.8230803"><time>2026-01-01T01:08:11.220000Z</time></trkpt>
<trkpt lat="-6.1903311" lon="106.8230777"><time>2026-01-01T01:08:12.220000Z</time></trkpt>
<trkpt lat="-6.1903960" lon="106.8230750"><time>2026-01-01T01:08:13.220000Z</time></trkpt>
<trkpt lat="-6.1904675" lon="106.8230748"><time>2026-01-01T01:08:14.220000Z</time></trkpt>
<trkpt lat="-6.1905390" lon="106.8230745"><time>2026-01-01T01:08:15.220000Z</time></trkpt>
<trkpt lat="-6.1906105" lon="106.8230743"><time>2026-01-01T01:08:16.220000Z</time></trkpt>
<trkpt lat="-6.1906820" lon="106.8230740"><time>2026-01-01T01:08:17.220000Z</time></trkpt>
<trkpt lat="-6.1907285" lon="106.8230745"><time>2026-01-01T01:08:18.220000Z</time></trkpt>
<trkpt lat="-6.1907750" lon="106.8230750"><time>2026-01-01T01:08:19.220000Z</time></trkpt>
<trkpt lat="-6.1908380" lon="106.8230765"><time>2026-01-01T01:08:20.220000Z</time></trkpt>
<trkpt lat="-6.1909010" lon="106.8230780"><time>2026-01-01T01:08:21.220000Z</time></trkpt>
<trkpt lat="-6.1909610" lon="106.8230783"><time>2026-01-01T01:08:22.220000Z</time></trkpt>
<trkpt lat="-6.1910210" lon="106.8230787"><time>2026-01-01T01:08:23.220000Z</time></trkpt>
<trkpt lat="-6.1910810" lon="106.8230790"><time>2026-01-01T01:08:24.220000Z</time></trkpt>
<trkpt lat="-6.1911280" lon="106.8230800"><time>2026-01-01T01:08:25.220000Z</time></trkpt>
<trkpt lat="-6.1911750" lon="106.8230810"><time>2026-01-01T01:08:26.220000Z</time></trkpt>
<trkpt lat="-6.1912459" lon="106.8230827"><time>2026-01-01T01:08:27.220000Z</time></trkpt>
<trkpt lat="-6.1913168" lon="106.8230845"><time>2026-01-01T01:08:28.220000Z</time></trkpt>
<trkpt lat="-6.1913878" lon="106.8230863"><time>2026-01-01T01:08:29.220000Z</time></trkpt>
<trkpt lat="-6.1914587" lon="106.8230880"><time>2026-01-01T01:08:30.220000Z</time></trkpt>
<trkpt lat="-6.1915296" lon="106.8230898"><time>2026-01-01T01:08:31.220000Z</time></trkpt>
<trkpt lat="-6.1916005" lon="106.8230915"><time>2026-01-01T01:08:32.220000Z</time></trkpt>
<trkpt lat="-6.1916714" lon="106.8230932"><time>2026-01-01T01:08:33.220000Z</time></trkpt>
<trkpt lat="-6.1917423" lon="106.8230950"><time>2026-01-01T01:08:34.220000Z</time></trkpt>
<trkpt lat="-6.1918133" lon="106.8230968"><time>2026-01-01T01:08:35.220000Z</time></trkpt>
<trkpt lat="-6.1918842" lon="106.8230985"><time>2026-01-01T01:08:36.220000Z</time></trkpt>
<trkpt lat="-6.1919551" lon="106.8231003"><time>2026-01-01T01:08:37.220000Z</time></trkpt>
<trkpt lat="-6.1920260" lon="106.8231020"><time>2026-01-01T01:08:38.220000Z</time></trkpt>
<trkpt lat="-6.1920949" lon="106.8231039"><time>2026-01-01T01:08:39.220000Z</time></trkpt>
<trkpt lat="-6.1921637" lon="106.8231057"><time>2026-01-01T01:08:40.220000Z</time></trkpt>
<trkpt lat="-6.1922326" lon="106.8231076"><time>2026-01-01T01:08:41.220000Z</time></trkpt>
<trkpt lat="-6.1923014" lon="106.8231094"><time>2026-01-01T01:08:42.220000Z</time></trkpt>
<trkpt lat="-6.1923703" lon="106.8231113"><time>2026-01-01T01:08:43.220000Z</time></trkpt>
<trkpt lat="-6.1924391" lon="106.8231131"><time>2026-01-01T01:08:44.220000Z</time></trkpt>
<trkpt lat="-6.1925080" lon="106.8231150"><time>2026-01-01T01:08:45.220000Z</time></trkpt>
<trkpt lat="-6.1925530" lon="106.8231160"><time>2026-01-01T01:08:46.220000Z</time></trkpt>
<trkpt lat="-6.1926186" lon="106.8231188"><time>2026-01-01T01:08:47.220000Z</time></trkpt>
<trkpt lat="-6.1926842" lon="106.8231216"><time>2026-01-01T01:08:48.220000Z</time></trkpt>
<trkpt lat="-6.1927498" lon="106.8231244"><time>2026-01-01T01:08:49.220000Z</time></trkpt>
<trkpt lat="-6.1928154" lon="106.8231272"><time>2026-01-01T01:08:50.220000Z</time></trkpt>
<trkpt lat="-6.1928810" lon="106.8231300"><time>2026-01-01T01:08:51.220000Z</time></trkpt>
<trkpt lat="-6.1929466" lon="106.8231328"><time>2026-01-01T01:08:52.220000Z</time></trkpt>
<trkpt lat="-6.1930122" lon="106.8231356"><time>2026-01-01T01:08:53.220000Z</time></trkpt>
<trkpt lat="-6.1930778" lon="106.8231384"><time>2026-01-01T01:08:54.220000Z</time></trkpt>
<trkpt lat="-6.1931434" lon="106.8231412"><time>2026-01-01T01:08:55.220000Z</time></trkpt>
<trkpt lat="-6.1932090" lon="106.8231440"><time>2026-01-01T01:08:56.220000Z</time></trkpt>
</trkseg></trk></gpx>
