<?xml version="1.0" encoding="UTF-8"?>
<gpx version="1.1" creator="GPX Inspector" xmlns="http://www.topografix.com/GPX/1/1"><trk><name>Bogor Dense Bicycle Baseline</name><trkseg>
<trkpt lat="-6.5949790" lon="106.7928970"><time>2026-01-01T01:00:00Z</time></trkpt>
<trkpt lat="-6.5950220" lon="106.7928710"><time>2026-01-01T01:00:01.115520Z</time></trkpt>
<trkpt lat="-6.5950665" lon="106.7928460"><time>2026-01-01T01:00:02.248837Z</time></trkpt>
<trkpt lat="-6.5951110" lon="106.7928210"><time>2026-01-01T01:00:03.382154Z</time></trkpt>
<trkpt lat="-6.5951670" lon="106.7927900"><time>2026-01-01T01:00:04.803419Z</time></trkpt>
<trkpt lat="-6.5952310" lon="106.7927690"><time>2026-01-01T01:00:06.300415Z</time></trkpt>
<trkpt lat="-6.5952715" lon="106.7927545"><time>2026-01-01T01:00:07.300415Z</time></trkpt>
<trkpt lat="-6.5953120" lon="106.7927400"><time>2026-01-01T01:00:08.300415Z</time></trkpt>
<trkpt lat="-6.5953640" lon="106.7927050"><time>2026-01-01T01:00:09.691523Z</time></trkpt>
<trkpt lat="-6.5953660" lon="106.7926820"><time>2026-01-01T01:00:10.691523Z</time></trkpt>
<trkpt lat="-6.5953700" lon="106.7926430"><time>2026-01-01T01:00:11.691523Z</time></trkpt>
<trkpt lat="-6.5953695" lon="106.7925995"><time>2026-01-01T01:00:12.691523Z</time></trkpt>
<trkpt lat="-6.5953690" lon="106.7925560"><time>2026-01-01T01:00:13.691523Z</time></trkpt>
<trkpt lat="-6.5953600" lon="106.7925330"><time>2026-01-01T01:00:14.691523Z</time></trkpt>
<trkpt lat="-6.5953400" lon="106.7924790"><time>2026-01-01T01:00:15.964699Z</time></trkpt>
<trkpt lat="-6.5953250" lon="106.7924400"><time>2026-01-01T01:00:16.964699Z</time></trkpt>
<trkpt lat="-6.5953170" lon="106.7923970"><time>2026-01-01T01:00:17.964699Z</time></trkpt>
<trkpt lat="-6.5953170" lon="106.7923860"><time>2026-01-01T01:00:18.964699Z</time></trkpt>
<trkpt lat="-6.5953170" lon="106.7923510"><time>2026-01-01T01:00:19.964699Z</time></trkpt>
<trkpt lat="-6.5953180" lon="106.7922990"><time>2026-01-01T01:00:21.113688Z</time></trkpt>
<trkpt lat="-6.5953190" lon="106.7922470"><time>2026-01-01T01:00:22.262677Z</time></trkpt>
<trkpt lat="-6.5953200" lon="106.7921950"><time>2026-01-01T01:00:23.411666Z</time></trkpt>
<trkpt lat="-6.5953200" lon="106.7921425"><time>2026-01-01T01:00:24.571486Z</time></trkpt>
<trkpt lat="-6.5953200" lon="106.7920900"><time>2026-01-01T01:00:25.731306Z</time></trkpt>
<trkpt lat="-6.5953210" lon="106.7920550"><time>2026-01-01T01:00:26.731306Z</time></trkpt>
<trkpt lat="-6.5953207" lon="106.7919835"><time>2026-01-01T01:00:28.310880Z</time></trkpt>
<trkpt lat="-6.5953205" lon="106.7919120"><time>2026-01-01T01:00:29.890454Z</time></trkpt>
<trkpt lat="-6.5953203" lon="106.7918405"><time>2026-01-01T01:00:31.470028Z</time></trkpt>
<trkpt lat="-6.5953200" lon="106.7917690"><time>2026-01-01T01:00:33.049602Z</time></trkpt>
<trkpt lat="-6.5953855" lon="106.7917547"><time>2026-01-01T01:00:34.539885Z</time></trkpt>
<trkpt lat="-6.5954510" lon="106.7917405"><time>2026-01-01T01:00:36.030168Z</time></trkpt>
<trkpt lat="-6.5955165" lon="106.7917263"><time>2026-01-01T01:00:37.520451Z</time></trkpt>
<trkpt lat="-6.5955820" lon="106.7917120"><time>2026-01-01T01:00:39.010734Z</time></trkpt>
<trkpt lat="-6.5956455" lon="106.7916985"><time>2026-01-01T01:00:40.454059Z</time></trkpt>
<trkpt lat="-6.5957090" lon="106.7916850"><time>2026-01-01T01:00:41.897384Z</time></trkpt>
<trkpt lat="-6.5957674" lon="106.7916724"><time>2026-01-01T01:00:43.225635Z</time></trkpt>
<trkpt lat="-6.5958258" lon="106.7916598"><time>2026-01-01T01:00:44.553886Z</time></trkpt>
<trkpt lat="-6.5958842" lon="106.7916472"><time>2026-01-01T01:00:45.882137Z</time></trkpt>
<trkpt lat="-6.5959426" lon="106.7916346"><time>2026-01-01T01:00:47.210388Z</time></trkpt>
<trkpt lat="-6.5960010" lon="106.7916220"><time>2026-01-01T01:00:48.538639Z</time></trkpt>
<trkpt lat="-6.5960613" lon="106.7916093"><time>2026-01-01T01:00:49.909260Z</time></trkpt>
<trkpt lat="-6.5961217" lon="106.7915967"><time>2026-01-01T01:00:51.279881Z</time></trkpt>
<trkpt lat="-6.5961820" lon="106.7915840"><time>2026-01-01T01:00:52.650502Z</time></trkpt>
<trkpt lat="-6.5962040" lon="106.7915790"><time>2026-01-01T01:00:53.650502Z</time></trkpt>
<trkpt lat="-6.5962300" lon="106.7915710"><time>2026-01-01T01:00:54.650502Z</time></trkpt>
<trkpt lat="-6.5962438" lon="106.7916336"><time>2026-01-01T01:00:56.067090Z</time></trkpt>
<trkpt lat="-6.5962576" lon="106.7916962"><time>2026-01-01T01:00:57.483678Z</time></trkpt>
<trkpt lat="-6.5962714" lon="106.7917588"><time>2026-01-01T01:00:58.900266Z</time></trkpt>
<trkpt lat="-6.5962852" lon="106.7918214"><time>2026-01-01T01:01:00.316854Z</time></trkpt>
<trkpt lat="-6.5962990" lon="106.7918840"><time>2026-01-01T01:01:01.733442Z</time></trkpt>
<trkpt lat="-6.5963118" lon="106.7919412"><time>2026-01-01T01:01:03.028757Z</time></trkpt>
<trkpt lat="-6.5963246" lon="106.7919984"><time>2026-01-01T01:01:04.324072Z</time></trkpt>
<trkpt lat="-6.5963374" lon="106.7920556"><time>2026-01-01T01:01:05.619386Z</time></trkpt>
<trkpt lat="-6.5963502" lon="106.7921128"><time>2026-01-01T01:01:06.914700Z</time></trkpt>
<trkpt lat="-6.5963630" lon="106.7921700"><time>2026-01-01T01:01:08.210014Z</time></trkpt>
<trkpt lat="-6.5963745" lon="106.7922210"><time>2026-01-01T01:01:09.365356Z</time></trkpt>
<trkpt lat="-6.5963860" lon="106.7922720"><time>2026-01-01T01:01:10.520698Z</time></trkpt>
<trkpt lat="-6.5963992" lon="106.7923310"><time>2026-01-01T01:01:11.856598Z</time></trkpt>
<trkpt lat="-6.5964123" lon="106.7923900"><time>2026-01-01T01:01:13.192498Z</time></trkpt>
<trkpt lat="-6.5964255" lon="106.7924490"><time>2026-01-01T01:01:14.528398Z</time></trkpt>
<trkpt lat="-6.5964387" lon="106.7925080"><time>2026-01-01T01:01:15.864298Z</time></trkpt>
<trkpt lat="-6.5964518" lon="106.7925670"><time>2026-01-01T01:01:17.200197Z</time></trkpt>
<trkpt lat="-6.5964650" lon="106.7926260"><time>2026-01-01T01:01:18.536096Z</time></trkpt>
<trkpt lat="-6.5964790" lon="106.7926888"><time>2026-01-01T01:01:19.957965Z</time></trkpt>
<trkpt lat="-6.5964930" lon="106.7927516"><time>2026-01-01T01:01:21.379834Z</time></trkpt>
<trkpt lat="-6.5965070" lon="106.7928144"><time>2026-01-01T01:01:22.801703Z</time></trkpt>
<trkpt lat="-6.5965210" lon="106.7928772"><time>2026-01-01T01:01:24.223572Z</time></trkpt>
<trkpt lat="-6.5965350" lon="106.7929400"><time>2026-01-01T01:01:25.645441Z</time></trkpt>
<trkpt lat="-6.5965505" lon="106.7930092"><time>2026-01-01T01:01:27.213648Z</time></trkpt>
<trkpt lat="-6.5965660" lon="106.7930785"><time>2026-01-01T01:01:28.781855Z</time></trkpt>
<trkpt lat="-6.5965815" lon="106.7931478"><time>2026-01-01T01:01:30.350062Z</time></trkpt>
<trkpt lat="-6.5965970" lon="106.7932170"><time>2026-01-01T01:01:31.918269Z</time></trkpt>
<trkpt lat="-6.5966057" lon="106.7932647"><time>2026-01-01T01:01:32.988802Z</time></trkpt>
<trkpt lat="-6.5966143" lon="106.7933123"><time>2026-01-01T01:01:34.059335Z</time></trkpt>
<trkpt lat="-6.5966230" lon="106.7933600"><time>2026-01-01T01:01:35.129868Z</time></trkpt>
<trkpt lat="-6.5966273" lon="106.7934127"><time>2026-01-01T01:01:36.297351Z</time></trkpt>
<trkpt lat="-6.5966317" lon="106.7934653"><time>2026-01-01T01:01:37.464834Z</time></trkpt>
<trkpt lat="-6.5966360" lon="106.7935180"><time>2026-01-01T01:01:38.632317Z</time></trkpt>
<trkpt lat="-6.5966380" lon="106.7935530"><time>2026-01-01T01:01:39.632317Z</time></trkpt>
<trkpt lat="-6.5966323" lon="106.7936047"><time>2026-01-01T01:01:40.780660Z</time></trkpt>
<trkpt lat="-6.5966267" lon="106.7936563"><time>2026-01-01T01:01:41.929003Z</time></trkpt>
<trkpt lat="-6.5966210" lon="106.7937080"><time>2026-01-01T01:01:43.077346Z</time></trkpt>
<trkpt lat="-6.5965930" lon="106.7937660"><time>2026-01-01T01:01:44.501962Z</time></trkpt>
<trkpt lat="-6.5965640" lon="106.7938020"><time>2026-01-01T01:01:45.525897Z</time></trkpt>
<trkpt lat="-6.5965350" lon="106.7938380"><time>2026-01-01T01:01:46.549832Z</time></trkpt>
<trkpt lat="-6.5964970" lon="106.7938687"><time>2026-01-01T01:01:47.632949Z</time></trkpt>
<trkpt lat="-6.5964590" lon="106.7938993"><time>2026-01-01T01:01:48.716066Z</time></trkpt>
<trkpt lat="-6.5964210" lon="106.7939300"><time>2026-01-01T01:01:49.799183Z</time></trkpt>
<trkpt lat="-6.5963600" lon="106.7939520"><time>2026-01-01T01:01:51.240196Z</time></trkpt>
<trkpt lat="-6.5962990" lon="106.7939740"><time>2026-01-01T01:01:52.681209Z</time></trkpt>
<trkpt lat="-6.5962380" lon="106.7939960"><time>2026-01-01T01:01:54.122222Z</time></trkpt>
<trkpt lat="-6.5961713" lon="106.7940213"><time>2026-01-01T01:01:55.706936Z</time></trkpt>
<trkpt lat="-6.5961047" lon="106.7940467"><time>2026-01-01T01:01:57.291650Z</time></trkpt>
<trkpt lat="-6.5960380" lon="106.7940720"><time>2026-01-01T01:01:58.876364Z</time></trkpt>
<trkpt lat="-6.5959713" lon="106.7940973"><time>2026-01-01T01:02:00.461078Z</time></trkpt>
<trkpt lat="-6.5959047" lon="106.7941227"><time>2026-01-01T01:02:02.045792Z</time></trkpt>
<trkpt lat="-6.5958380" lon="106.7941480"><time>2026-01-01T01:02:03.630506Z</time></trkpt>
<trkpt lat="-6.5957837" lon="106.7941673"><time>2026-01-01T01:02:04.912089Z</time></trkpt>
<trkpt lat="-6.5957293" lon="106.7941867"><time>2026-01-01T01:02:06.193672Z</time></trkpt>
<trkpt lat="-6.5956750" lon="106.7942060"><time>2026-01-01T01:02:07.475255Z</time></trkpt>
<trkpt lat="-6.5956680" lon="106.7942080"><time>2026-01-01T01:02:08.475255Z</time></trkpt>
<trkpt lat="-6.5956960" lon="106.7942530"><time>2026-01-01T01:02:09.648303Z</time></trkpt>
<trkpt lat="-6.5956980" lon="106.7942570"><time>2026-01-01T01:02:10.648303Z</time></trkpt>
<trkpt lat="-6.5957607" lon="106.7942330"><time>2026-01-01T01:02:12.139395Z</time></trkpt>
<trkpt lat="-6.5958233" lon="106.7942090"><time>2026-01-01T01:02:13.630487Z</time></trkpt>
<trkpt lat="-6.5958860" lon="106.7941850"><time>2026-01-01T01:02:15.121579Z</time></trkpt>
<trkpt lat="-6.5959435" lon="106.7941637"><time>2026-01-01T01:02:16.483770Z</time></trkpt>
<trkpt lat="-6.5960010" lon="106.7941425"><time>2026-01-01T01:02:17.845961Z</time></trkpt>
<trkpt lat="-6.5960585" lon="106.7941213"><time>2026-01-01T01:02:19.208152Z</time></trkpt>
<trkpt lat="-6.5961160" lon="106.7941000"><time>2026-01-01T01:02:20.570343Z</time></trkpt>
<trkpt lat="-6.5961717" lon="106.7940818"><time>2026-01-01T01:02:21.874073Z</time></trkpt>
<trkpt lat="-6.5962275" lon="106.7940635"><time>2026-01-01T01:02:23.177803Z</time></trkpt>
<trkpt lat="-6.5962833" lon="106.7940452"><time>2026-01-01T01:02:24.481533Z</time></trkpt>
<trkpt lat="-6.5963390" lon="106.7940270"><time>2026-01-01T01:02:25.785263Z</time></trkpt>
<trkpt lat="-6.5963923" lon="106.7940087"><time>2026-01-01T01:02:27.038587Z</time></trkpt>
<trkpt lat="-6.5964457" lon="106.7939903"><time>2026-01-01T01:02:28.291911Z</time></trkpt>
<trkpt lat="-6.5964990" lon="106.7939720"><time>2026-01-01T01:02:29.545235Z</time></trkpt>
<trkpt lat="-6.5965583" lon="106.7939597"><time>2026-01-01T01:02:30.892585Z</time></trkpt>
<trkpt lat="-6.5966177" lon="106.7939473"><time>2026-01-01T01:02:32.239935Z</time></trkpt>
<trkpt lat="-6.5966770" lon="106.7939350"><time>2026-01-01T01:02:33.587285Z</time></trkpt>
<trkpt lat="-6.5967450" lon="106.7939215"><time>2026-01-01T01:02:35.128664Z</time></trkpt>
<trkpt lat="-6.5968130" lon="106.7939080"><time>2026-01-01T01:02:36.670043Z</time></trkpt>
<trkpt lat="-6.5968840" lon="106.7938990"><time>2026-01-01T01:02:38.261480Z</time></trkpt>
<trkpt lat="-6.5969390" lon="106.7938940"><time>2026-01-01T01:02:39.489602Z</time></trkpt>
<trkpt lat="-6.5969883" lon="106.7938900"><time>2026-01-01T01:02:40.590278Z</time></trkpt>
<trkpt lat="-6.5970377" lon="106.7938860"><time>2026-01-01T01:02:41.690954Z</time></trkpt>
<trkpt lat="-6.5970870" lon="106.7938820"><time>2026-01-01T01:02:42.791630Z</time></trkpt>
<trkpt lat="-6.5971340" lon="106.7938825"><time>2026-01-01T01:02:43.836921Z</time></trkpt>
<trkpt lat="-6.5971810" lon="106.7938830"><time>2026-01-01T01:02:44.882212Z</time></trkpt>
<trkpt lat="-6.5972360" lon="106.7938975"><time>2026-01-01T01:02:46.146606Z</time></trkpt>
<trkpt lat="-6.5972910" lon="106.7939120"><time>2026-01-01T01:02:47.411000Z</time></trkpt>
<trkpt lat="-6.5973502" lon="106.7939280"><time>2026-01-01T01:02:48.775246Z</time></trkpt>
<trkpt lat="-6.5974095" lon="106.7939440"><time>2026-01-01T01:02:50.139492Z</time></trkpt>
<trkpt lat="-6.5974687" lon="106.7939600"><time>2026-01-01T01:02:51.503738Z</time></trkpt>
<trkpt lat="-6.5975280" lon="106.7939760"><time>2026-01-01T01:02:52.867984Z</time></trkpt>
<trkpt lat="-6.5975740" lon="106.7939900"><time>2026-01-01T01:02:53.936708Z</time></trkpt>
<trkpt lat="-6.5976370" lon="106.7940085"><time>2026-01-01T01:02:55.396157Z</time></trkpt>
<trkpt lat="-6.5977000" lon="106.7940270"><time>2026-01-01T01:02:56.855606Z</time></trkpt>
<trkpt lat="-6.5977160" lon="106.7940330"><time>2026-01-01T01:02:57.855606Z</time></trkpt>
<trkpt lat="-6.5977750" lon="106.7940530"><time>2026-01-01T01:02:59.240100Z</time></trkpt>
<trkpt lat="-6.5978278" lon="106.7940710"><time>2026-01-01T01:03:00.478771Z</time></trkpt>
<trkpt lat="-6.5978805" lon="106.7940890"><time>2026-01-01T01:03:01.717442Z</time></trkpt>
<trkpt lat="-6.5979332" lon="106.7941070"><time>2026-01-01T01:03:02.956113Z</time></trkpt>
<trkpt lat="-6.5979860" lon="106.7941250"><time>2026-01-01T01:03:04.194784Z</time></trkpt>
<trkpt lat="-6.5980475" lon="106.7941455"><time>2026-01-01T01:03:05.635512Z</time></trkpt>
<trkpt lat="-6.5981090" lon="106.7941660"><time>2026-01-01T01:03:07.076240Z</time></trkpt>
<trkpt lat="-6.5981420" lon="106.7941770"><time>2026-01-01T01:03:08.076240Z</time></trkpt>
<trkpt lat="-6.5982000" lon="106.7941980"><time>2026-01-01T01:03:09.446995Z</time></trkpt>
<trkpt lat="-6.5982470" lon="106.7942157"><time>2026-01-01T01:03:10.562716Z</time></trkpt>
<trkpt lat="-6.5982940" lon="106.7942333"><time>2026-01-01T01:03:11.678437Z</time></trkpt>
<trkpt lat="-6.5983410" lon="106.7942510"><time>2026-01-01T01:03:12.794158Z</time></trkpt>
<trkpt lat="-6.5983780" lon="106.7942650"><time>2026-01-01T01:03:13.794158Z</time></trkpt>
<trkpt lat="-6.5984367" lon="106.7942873"><time>2026-01-01T01:03:15.189018Z</time></trkpt>
<trkpt lat="-6.5984953" lon="106.7943097"><time>2026-01-01T01:03:16.583877Z</time></trkpt>
<trkpt lat="-6.5985540" lon="106.7943320"><time>2026-01-01T01:03:17.978736Z</time></trkpt>
<trkpt lat="-6.5986100" lon="106.7943520"><time>2026-01-01T01:03:19.300173Z</time></trkpt>
<trkpt lat="-6.5986660" lon="106.7943720"><time>2026-01-01T01:03:20.621610Z</time></trkpt>
<trkpt lat="-6.5987220" lon="106.7943920"><time>2026-01-01T01:03:21.943047Z</time></trkpt>
<trkpt lat="-6.5987780" lon="106.7944120"><time>2026-01-01T01:03:23.264484Z</time></trkpt>
<trkpt lat="-6.5988340" lon="106.7944320"><time>2026-01-01T01:03:24.585921Z</time></trkpt>
<trkpt lat="-6.5988956" lon="106.7944540"><time>2026-01-01T01:03:26.039502Z</time></trkpt>
<trkpt lat="-6.5989572" lon="106.7944760"><time>2026-01-01T01:03:27.493083Z</time></trkpt>
<trkpt lat="-6.5990188" lon="106.7944980"><time>2026-01-01T01:03:28.946664Z</time></trkpt>
<trkpt lat="-6.5990804" lon="106.7945200"><time>2026-01-01T01:03:30.400245Z</time></trkpt>
<trkpt lat="-6.5991420" lon="106.7945420"><time>2026-01-01T01:03:31.853826Z</time></trkpt>
<trkpt lat="-6.5991987" lon="106.7945615"><time>2026-01-01T01:03:33.187385Z</time></trkpt>
<trkpt lat="-6.5992555" lon="106.7945810"><time>2026-01-01T01:03:34.520944Z</time></trkpt>
<trkpt lat="-6.5993123" lon="106.7946005"><time>2026-01-01T01:03:35.854503Z</time></trkpt>
<trkpt lat="-6.5993690" lon="106.7946200"><time>2026-01-01T01:03:37.188062Z</time></trkpt>
<trkpt lat="-6.5994085" lon="106.7946340"><time>2026-01-01T01:03:38.188062Z</time></trkpt>
<trkpt lat="-6.5994480" lon="106.7946480"><time>2026-01-01T01:03:39.188062Z</time></trkpt>
<trkpt lat="-6.5994430" lon="106.7946680"><time>2026-01-01T01:03:40.188062Z</time></trkpt>
<trkpt lat="-6.5994545" lon="106.7947293"><time>2026-01-01T01:03:41.565131Z</time></trkpt>
<trkpt lat="-6.5994660" lon="106.7947905"><time>2026-01-01T01:03:42.942200Z</time></trkpt>
<trkpt lat="-6.5994775" lon="106.7948517"><time>2026-01-01T01:03:44.319269Z</time></trkpt>
<trkpt lat="-6.5994890" lon="106.7949130"><time>2026-01-01T01:03:45.696338Z</time></trkpt>
<trkpt lat="-6.5995410" lon="106.7949345"><time>2026-01-01T01:03:46.946506Z</time></trkpt>
<trkpt lat="-6.5995930" lon="106.7949560"><time>2026-01-01T01:03:48.196674Z</time></trkpt>
<trkpt lat="-6.5996450" lon="106.7949775"><time>2026-01-01T01:03:49.446842Z</time></trkpt>
<trkpt lat="-6.5996970" lon="106.7949990"><time>2026-01-01T01:03:50.697010Z</time></trkpt>
<trkpt lat="-6.5997365" lon="106.7950385"><time>2026-01-01T01:03:51.935202Z</time></trkpt>
<trkpt lat="-6.5997760" lon="106.7950780"><time>2026-01-01T01:03:53.173394Z</time></trkpt>
<trkpt lat="-6.5998155" lon="106.7951175"><time>2026-01-01T01:03:54.411586Z</time></trkpt>
<trkpt lat="-6.5998550" lon="106.7951570"><time>2026-01-01T01:03:55.649778Z</time></trkpt>
<trkpt lat="-6.5998875" lon="106.7951925"><time>2026-01-01T01:03:56.716288Z</time></trkpt>
<trkpt lat="-6.5999200" lon="106.7952280"><time>2026-01-01T01:03:57.782798Z</time></trkpt>
<trkpt lat="-6.5999310" lon="106.7952370"><time>2026-01-01T01:03:58.782798Z</time></trkpt>
<trkpt lat="-6.5999723" lon="106.7952693"><time>2026-01-01T01:03:59.946915Z</time></trkpt>
<trkpt lat="-6.6000137" lon="106.7953017"><time>2026-01-01T01:04:01.111031Z</time></trkpt>
<trkpt lat="-6.6000550" lon="106.7953340"><time>2026-01-01T01:04:02.275147Z</time></trkpt>
<trkpt lat="-6.6000680" lon="106.7953760"><time>2026-01-01T01:04:03.275147Z</time></trkpt>
<trkpt lat="-6.6000830" lon="106.7954270"><time>2026-01-01T01:04:04.450165Z</time></trkpt>
<trkpt lat="-6.6000980" lon="106.7954780"><time>2026-01-01T01:04:05.625183Z</time></trkpt>
<trkpt lat="-6.6001130" lon="106.7955290"><time>2026-01-01T01:04:06.800201Z</time></trkpt>
<trkpt lat="-6.6001765" lon="106.7955055"><time>2026-01-01T01:04:08.304780Z</time></trkpt>
<trkpt lat="-6.6002400" lon="106.7954820"><time>2026-01-01T01:04:09.809359Z</time></trkpt>
<trkpt lat="-6.6002850" lon="106.7954690"><time>2026-01-01T01:04:10.850506Z</time></trkpt>
<trkpt lat="-6.6003370" lon="106.7954537"><time>2026-01-01T01:04:12.055007Z</time></trkpt>
<trkpt lat="-6.6003890" lon="106.7954385"><time>2026-01-01T01:04:13.259508Z</time></trkpt>
<trkpt lat="-6.6004410" lon="106.7954232"><time>2026-01-01T01:04:14.464009Z</time></trkpt>
<trkpt lat="-6.6004930" lon="106.7954080"><time>2026-01-01T01:04:15.668510Z</time></trkpt>
<trkpt lat="-6.6005592" lon="106.7953952"><time>2026-01-01T01:04:17.168525Z</time></trkpt>
<trkpt lat="-6.6006255" lon="106.7953825"><time>2026-01-01T01:04:18.668540Z</time></trkpt>
<trkpt lat="-6.6006918" lon="106.7953697"><time>2026-01-01T01:04:20.168555Z</time></trkpt>
<trkpt lat="-6.6007580" lon="106.7953570"><time>2026-01-01T01:04:21.668570Z</time></trkpt>
<trkpt lat="-6.6008277" lon="106.7953550"><time>2026-01-01T01:04:23.220368Z</time></trkpt>
<trkpt lat="-6.6008975" lon="106.7953530"><time>2026-01-01T01:04:24.772166Z</time></trkpt>
<trkpt lat="-6.6009673" lon="106.7953510"><time>2026-01-01T01:04:26.323964Z</time></trkpt>
<trkpt lat="-6.6010370" lon="106.7953490"><time>2026-01-01T01:04:27.875762Z</time></trkpt>
<trkpt lat="-6.6010875" lon="106.7953475"><time>2026-01-01T01:04:28.999320Z</time></trkpt>
<trkpt lat="-6.6011380" lon="106.7953460"><time>2026-01-01T01:04:30.122878Z</time></trkpt>
<trkpt lat="-6.6012083" lon="106.7953602"><time>2026-01-01T01:04:31.718023Z</time></trkpt>
<trkpt lat="-6.6012787" lon="106.7953743"><time>2026-01-01T01:04:33.313168Z</time></trkpt>
<trkpt lat="-6.6013490" lon="106.7953885"><time>2026-01-01T01:04:34.908313Z</time></trkpt>
<trkpt lat="-6.6014193" lon="106.7954027"><time>2026-01-01T01:04:36.503458Z</time></trkpt>
<trkpt lat="-6.6014897" lon="106.7954168"><time>2026-01-01T01:04:38.098603Z</time></trkpt>
<trkpt lat="-6.6015600" lon="106.7954310"><time>2026-01-01T01:04:39.693748Z</time></trkpt>
<trkpt lat="-6.6016280" lon="106.7954530"><time>2026-01-01T01:04:41.282179Z</time></trkpt>
<trkpt lat="-6.6016787" lon="106.7954700"><time>2026-01-01T01:04:42.469893Z</time></trkpt>
<trkpt lat="-6.6017293" lon="106.7954870"><time>2026-01-01T01:04:43.657607Z</time></trkpt>
<trkpt lat="-6.6017800" lon="106.7955040"><time>2026-01-01T01:04:44.845321Z</time></trkpt>
<trkpt lat="-6.6018327" lon="106.7955305"><time>2026-01-01T01:04:46.156390Z</time></trkpt>
<trkpt lat="-6.6018855" lon="106.7955570"><time>2026-01-01T01:04:47.467459Z</time></trkpt>
<trkpt lat="-6.6019382" lon="106.7955835"><time>2026-01-01T01:04:48.778528Z</time></trkpt>
<trkpt lat="-6.6019910" lon="106.7956100"><time>2026-01-01T01:04:50.089597Z</time></trkpt>
<trkpt lat="-6.6020385" lon="106.7956440"><time>2026-01-01T01:04:51.385763Z</time></trkpt>
<trkpt lat="-6.6020860" lon="106.7956780"><time>2026-01-01T01:04:52.681929Z</time></trkpt>
<trkpt lat="-6.6021340" lon="106.7957260"><time>2026-01-01T01:04:54.186564Z</time></trkpt>
<trkpt lat="-6.6021670" lon="106.7957770"><time>2026-01-01T01:04:55.531171Z</time></trkpt>
<trkpt lat="-6.6021885" lon="106.7958100"><time>2026-01-01T01:04:56.531171Z</time></trkpt>
<trkpt lat="-6.6022100" lon="106.7958430"><time>2026-01-01T01:04:57.531171Z</time></trkpt>
<trkpt lat="-6.6022400" lon="106.7959030"><time>2026-01-01T01:04:59.015098Z</time></trkpt>
<trkpt lat="-6.6022500" lon="106.7959250"><time>2026-01-01T01:05:00.015098Z</time></trkpt>
<trkpt lat="-6.6023072" lon="106.7959463"><time>2026-01-01T01:05:01.372069Z</time></trkpt>
<trkpt lat="-6.6023645" lon="106.7959675"><time>2026-01-01T01:05:02.729040Z</time></trkpt>
<trkpt lat="-6.6024217" lon="106.7959887"><time>2026-01-01T01:05:04.086011Z</time></trkpt>
<trkpt lat="-6.6024790" lon="106.7960100"><time>2026-01-01T01:05:05.442982Z</time></trkpt>
<trkpt lat="-6.6025413" lon="106.7960367"><time>2026-01-01T01:05:06.949196Z</time></trkpt>
<trkpt lat="-6.6026037" lon="106.7960633"><time>2026-01-01T01:05:08.455410Z</time></trkpt>
<trkpt lat="-6.6026660" lon="106.7960900"><time>2026-01-01T01:05:09.961624Z</time></trkpt>
<trkpt lat="-6.6027240" lon="106.7961156"><time>2026-01-01T01:05:11.369767Z</time></trkpt>
<trkpt lat="-6.6027820" lon="106.7961411"><time>2026-01-01T01:05:12.777910Z</time></trkpt>
<trkpt lat="-6.6028400" lon="106.7961667"><time>2026-01-01T01:05:14.186053Z</time></trkpt>
<trkpt lat="-6.6028980" lon="106.7961923"><time>2026-01-01T01:05:15.594196Z</time></trkpt>
<trkpt lat="-6.6029560" lon="106.7962179"><time>2026-01-01T01:05:17.002339Z</time></trkpt>
<trkpt lat="-6.6030140" lon="106.7962434"><time>2026-01-01T01:05:18.410482Z</time></trkpt>
<trkpt lat="-6.6030720" lon="106.7962690"><time>2026-01-01T01:05:19.818625Z</time></trkpt>
<trkpt lat="-6.6031337" lon="106.7962940"><time>2026-01-01T01:05:21.298779Z</time></trkpt>
<trkpt lat="-6.6031955" lon="106.7963190"><time>2026-01-01T01:05:22.778933Z</time></trkpt>
<trkpt lat="-6.6032573" lon="106.7963440"><time>2026-01-01T01:05:24.259087Z</time></trkpt>
<trkpt lat="-6.6033190" lon="106.7963690"><time>2026-01-01T01:05:25.739241Z</time></trkpt>
<trkpt lat="-6.6033630" lon="106.7963910"><time>2026-01-01T01:05:26.831807Z</time></trkpt>
<trkpt lat="-6.6034110" lon="106.7964320"><time>2026-01-01T01:05:28.231763Z</time></trkpt>
<trkpt lat="-6.6034500" lon="106.7964860"><time>2026-01-01T01:05:29.706669Z</time></trkpt>
<trkpt lat="-6.6034570" lon="106.7965340"><time>2026-01-01T01:05:30.778425Z</time></trkpt>
<trkpt lat="-6.6034640" lon="106.7965820"><time>2026-01-01T01:05:31.850181Z</time></trkpt>
<trkpt lat="-6.6034500" lon="106.7966450"><time>2026-01-01T01:05:33.276342Z</time></trkpt>
<trkpt lat="-6.6034310" lon="106.7966945"><time>2026-01-01T01:05:34.448665Z</time></trkpt>
<trkpt lat="-6.6034120" lon="106.7967440"><time>2026-01-01T01:05:35.620988Z</time></trkpt>
</trkseg></trk></gpx>
