<?xml version="1.0" encoding="UTF-8"?>
<gpx version="1.1" creator="GPX Inspector" xmlns="http://www.topografix.com/GPX/1/1"><trk><name>Bekasi Dense Road Demo</name><trkseg>
<trkpt lat="-6.2382880" lon="106.9756070"><time>2026-01-01T01:00:00Z</time></trkpt>
<trkpt lat="-6.2383190" lon="106.9756670"><time>2026-01-01T01:00:01Z</time></trkpt>
<trkpt lat="-6.2383500" lon="106.9757270"><time>2026-01-01T01:00:02Z</time></trkpt>
<trkpt lat="-6.2383810" lon="106.9757870"><time>2026-01-01T01:00:03Z</time></trkpt>
<trkpt lat="-6.2384120" lon="106.9758470"><time>2026-01-01T01:00:04Z</time></trkpt>
<trkpt lat="-6.2384430" lon="106.9759070"><time>2026-01-01T01:00:05Z</time></trkpt>
<trkpt lat="-6.2384740" lon="106.9759670"><time>2026-01-01T01:00:06Z</time></trkpt>
<trkpt lat="-6.2385050" lon="106.9760270"><time>2026-01-01T01:00:07Z</time></trkpt>
<trkpt lat="-6.2385360" lon="106.9760870"><time>2026-01-01T01:00:08Z</time></trkpt>
<trkpt lat="-6.2385670" lon="106.9761470"><time>2026-01-01T01:00:09Z</time></trkpt>
<trkpt lat="-6.2385052" lon="106.9761784"><time>2026-01-01T01:00:10Z</time></trkpt>
<trkpt lat="-6.2384434" lon="106.9762098"><time>2026-01-01T01:00:11Z</time></trkpt>
<trkpt lat="-6.2383816" lon="106.9762412"><time>2026-01-01T01:00:12Z</time></trkpt>
<trkpt lat="-6.2383198" lon="106.9762726"><time>2026-01-01T01:00:13Z</time></trkpt>
<trkpt lat="-6.2382580" lon="106.9763040"><time>2026-01-01T01:00:14Z</time></trkpt>
<trkpt lat="-6.2382892" lon="106.9763642"><time>2026-01-01T01:00:15Z</time></trkpt>
<trkpt lat="-6.2383205" lon="106.9764243"><time>2026-01-01T01:00:16Z</time></trkpt>
<trkpt lat="-6.2383517" lon="106.9764845"><time>2026-01-01T01:00:17Z</time></trkpt>
<trkpt lat="-6.2383829" lon="106.9765446"><time>2026-01-01T01:00:18Z</time></trkpt>
<trkpt lat="-6.2384142" lon="106.9766048"><time>2026-01-01T01:00:19Z</time></trkpt>
<trkpt lat="-6.2384454" lon="106.9766649"><time>2026-01-01T01:00:20Z</time></trkpt>
<trkpt lat="-6.2384766" lon="106.9767251"><time>2026-01-01T01:00:21Z</time></trkpt>
<trkpt lat="-6.2385078" lon="106.9767852"><time>2026-01-01T01:00:22Z</time></trkpt>
<trkpt lat="-6.2385391" lon="106.9768454"><time>2026-01-01T01:00:23Z</time></trkpt>
<trkpt lat="-6.2385703" lon="106.9769055"><time>2026-01-01T01:00:24Z</time></trkpt>
<trkpt lat="-6.2386015" lon="106.9769657"><time>2026-01-01T01:00:25Z</time></trkpt>
<trkpt lat="-6.2386328" lon="106.9770258"><time>2026-01-01T01:00:26Z</time></trkpt>
<trkpt lat="-6.2386640" lon="106.9770860"><time>2026-01-01T01:00:27Z</time></trkpt>
<trkpt lat="-6.2386700" lon="106.9771526"><time>2026-01-01T01:00:28Z</time></trkpt>
<trkpt lat="-6.2386760" lon="106.9772192"><time>2026-01-01T01:00:29Z</time></trkpt>
<trkpt lat="-6.2386820" lon="106.9772858"><time>2026-01-01T01:00:30Z</time></trkpt>
<trkpt lat="-6.2386880" lon="106.9773524"><time>2026-01-01T01:00:31Z</time></trkpt>
<trkpt lat="-6.2386940" lon="106.9774190"><time>2026-01-01T01:00:32Z</time></trkpt>
<trkpt lat="-6.2387012" lon="106.9774804"><time>2026-01-01T01:00:33Z</time></trkpt>
<trkpt lat="-6.2387084" lon="106.9775418"><time>2026-01-01T01:00:34Z</time></trkpt>
<trkpt lat="-6.2387156" lon="106.9776032"><time>2026-01-01T01:00:35Z</time></trkpt>
<trkpt lat="-6.2387228" lon="106.9776646"><time>2026-01-01T01:00:36Z</time></trkpt>
<trkpt lat="-6.2387300" lon="106.9777260"><time>2026-01-01T01:00:37Z</time></trkpt>
<trkpt lat="-6.2387422" lon="106.9777960"><time>2026-01-01T01:00:38Z</time></trkpt>
<trkpt lat="-6.2387544" lon="106.9778660"><time>2026-01-01T01:00:39Z</time></trkpt>
<trkpt lat="-6.2387666" lon="106.9779360"><time>2026-01-01T01:00:40Z</time></trkpt>
<trkpt lat="-6.2387788" lon="106.9780060"><time>2026-01-01T01:00:41Z</time></trkpt>
<trkpt lat="-6.2387910" lon="106.9780760"><time>2026-01-01T01:00:42Z</time></trkpt>
<trkpt lat="-6.2387243" lon="106.9780860"><time>2026-01-01T01:00:43Z</time></trkpt>
<trkpt lat="-6.2386576" lon="106.9780960"><time>2026-01-01T01:00:44Z</time></trkpt>
<trkpt lat="-6.2385909" lon="106.9781060"><time>2026-01-01T01:00:45Z</time></trkpt>
<trkpt lat="-6.2385242" lon="106.9781160"><time>2026-01-01T01:00:46Z</time></trkpt>
<trkpt lat="-6.2384575" lon="106.9781260"><time>2026-01-01T01:00:47Z</time></trkpt>
<trkpt lat="-6.2383908" lon="106.9781360"><time>2026-01-01T01:00:48Z</time></trkpt>
<trkpt lat="-6.2383241" lon="106.9781460"><time>2026-01-01T01:00:49Z</time></trkpt>
<trkpt lat="-6.2382574" lon="106.9781560"><time>2026-01-01T01:00:50Z</time></trkpt>
<trkpt lat="-6.2381907" lon="106.9781660"><time>2026-01-01T01:00:51Z</time></trkpt>
<trkpt lat="-6.2381240" lon="106.9781760"><time>2026-01-01T01:00:52Z</time></trkpt>
<trkpt lat="-6.2380546" lon="106.9781858"><time>2026-01-01T01:00:53Z</time></trkpt>
<trkpt lat="-6.2379852" lon="106.9781956"><time>2026-01-01T01:00:54Z</time></trkpt>
<trkpt lat="-6.2379158" lon="106.9782054"><time>2026-01-01T01:00:55Z</time></trkpt>
<trkpt lat="-6.2378464" lon="106.9782152"><time>2026-01-01T01:00:56Z</time></trkpt>
<trkpt lat="-6.2377770" lon="106.9782250"><time>2026-01-01T01:00:57Z</time></trkpt>
<trkpt lat="-6.2377848" lon="106.9782858"><time>2026-01-01T01:00:58Z</time></trkpt>
<trkpt lat="-6.2377927" lon="106.9783467"><time>2026-01-01T01:00:59Z</time></trkpt>
<trkpt lat="-6.2378005" lon="106.9784075"><time>2026-01-01T01:01:00Z</time></trkpt>
<trkpt lat="-6.2378083" lon="106.9784683"><time>2026-01-01T01:01:01Z</time></trkpt>
<trkpt lat="-6.2378162" lon="106.9785292"><time>2026-01-01T01:01:02Z</time></trkpt>
<trkpt lat="-6.2378240" lon="106.9785900"><time>2026-01-01T01:01:03Z</time></trkpt>
<trkpt lat="-6.2378340" lon="106.9786588"><time>2026-01-01T01:01:04Z</time></trkpt>
<trkpt lat="-6.2378440" lon="106.9787276"><time>2026-01-01T01:01:05Z</time></trkpt>
<trkpt lat="-6.2378540" lon="106.9787963"><time>2026-01-01T01:01:06Z</time></trkpt>
<trkpt lat="-6.2378640" lon="106.9788651"><time>2026-01-01T01:01:07Z</time></trkpt>
<trkpt lat="-6.2378740" lon="106.9789339"><time>2026-01-01T01:01:08Z</time></trkpt>
<trkpt lat="-6.2378840" lon="106.9790027"><time>2026-01-01T01:01:09Z</time></trkpt>
<trkpt lat="-6.2378940" lon="106.9790714"><time>2026-01-01T01:01:10Z</time></trkpt>
<trkpt lat="-6.2379040" lon="106.9791402"><time>2026-01-01T01:01:11Z</time></trkpt>
<trkpt lat="-6.2379140" lon="106.9792090"><time>2026-01-01T01:01:12Z</time></trkpt>
<trkpt lat="-6.2379783" lon="106.9792037"><time>2026-01-01T01:01:13Z</time></trkpt>
<trkpt lat="-6.2380427" lon="106.9791983"><time>2026-01-01T01:01:14Z</time></trkpt>
<trkpt lat="-6.2381070" lon="106.9791930"><time>2026-01-01T01:01:15Z</time></trkpt>
<trkpt lat="-6.2381633" lon="106.9791873"><time>2026-01-01T01:01:16Z</time></trkpt>
<trkpt lat="-6.2382197" lon="106.9791817"><time>2026-01-01T01:01:17Z</time></trkpt>
<trkpt lat="-6.2382760" lon="106.9791760"><time>2026-01-01T01:01:18Z</time></trkpt>
<trkpt lat="-6.2383312" lon="106.9791700"><time>2026-01-01T01:01:19Z</time></trkpt>
<trkpt lat="-6.2383865" lon="106.9791640"><time>2026-01-01T01:01:20Z</time></trkpt>
<trkpt lat="-6.2384417" lon="106.9791580"><time>2026-01-01T01:01:21Z</time></trkpt>
<trkpt lat="-6.2384970" lon="106.9791520"><time>2026-01-01T01:01:22Z</time></trkpt>
<trkpt lat="-6.2385569" lon="106.9791771"><time>2026-01-01T01:01:23Z</time></trkpt>
<trkpt lat="-6.2386168" lon="106.9792023"><time>2026-01-01T01:01:24Z</time></trkpt>
<trkpt lat="-6.2386766" lon="106.9792274"><time>2026-01-01T01:01:25Z</time></trkpt>
<trkpt lat="-6.2387365" lon="106.9792525"><time>2026-01-01T01:01:26Z</time></trkpt>
<trkpt lat="-6.2387964" lon="106.9792776"><time>2026-01-01T01:01:27Z</time></trkpt>
<trkpt lat="-6.2388562" lon="106.9793028"><time>2026-01-01T01:01:28Z</time></trkpt>
<trkpt lat="-6.2389161" lon="106.9793279"><time>2026-01-01T01:01:29Z</time></trkpt>
<trkpt lat="-6.2389760" lon="106.9793530"><time>2026-01-01T01:01:30Z</time></trkpt>
<trkpt lat="-6.2390387" lon="106.9793438"><time>2026-01-01T01:01:31Z</time></trkpt>
<trkpt lat="-6.2391013" lon="106.9793347"><time>2026-01-01T01:01:32Z</time></trkpt>
<trkpt lat="-6.2391640" lon="106.9793255"><time>2026-01-01T01:01:33Z</time></trkpt>
<trkpt lat="-6.2392267" lon="106.9793163"><time>2026-01-01T01:01:34Z</time></trkpt>
<trkpt lat="-6.2392893" lon="106.9793072"><time>2026-01-01T01:01:35Z</time></trkpt>
<trkpt lat="-6.2393520" lon="106.9792980"><time>2026-01-01T01:01:36Z</time></trkpt>
<trkpt lat="-6.2394209" lon="106.9792887"><time>2026-01-01T01:01:37Z</time></trkpt>
<trkpt lat="-6.2394898" lon="106.9792793"><time>2026-01-01T01:01:38Z</time></trkpt>
<trkpt lat="-6.2395587" lon="106.9792700"><time>2026-01-01T01:01:39Z</time></trkpt>
<trkpt lat="-6.2396276" lon="106.9792607"><time>2026-01-01T01:01:40Z</time></trkpt>
<trkpt lat="-6.2396964" lon="106.9792513"><time>2026-01-01T01:01:41Z</time></trkpt>
<trkpt lat="-6.2397653" lon="106.9792420"><time>2026-01-01T01:01:42Z</time></trkpt>
<trkpt lat="-6.2398342" lon="106.9792327"><time>2026-01-01T01:01:43Z</time></trkpt>
<trkpt lat="-6.2399031" lon="106.9792233"><time>2026-01-01T01:01:44Z</time></trkpt>
<trkpt lat="-6.2399720" lon="106.9792140"><time>2026-01-01T01:01:45Z</time></trkpt>
<trkpt lat="-6.2400398" lon="106.9792028"><time>2026-01-01T01:01:46Z</time></trkpt>
<trkpt lat="-6.2401076" lon="106.9791916"><time>2026-01-01T01:01:47Z</time></trkpt>
<trkpt lat="-6.2401754" lon="106.9791804"><time>2026-01-01T01:01:48Z</time></trkpt>
<trkpt lat="-6.2402432" lon="106.9791692"><time>2026-01-01T01:01:49Z</time></trkpt>
<trkpt lat="-6.2403110" lon="106.9791580"><time>2026-01-01T01:01:50Z</time></trkpt>
<trkpt lat="-6.2403768" lon="106.9791503"><time>2026-01-01T01:01:51Z</time></trkpt>
<trkpt lat="-6.2404425" lon="106.9791425"><time>2026-01-01T01:01:52Z</time></trkpt>
<trkpt lat="-6.2405082" lon="106.9791348"><time>2026-01-01T01:01:53Z</time></trkpt>
<trkpt lat="-6.2405740" lon="106.9791270"><time>2026-01-01T01:01:54Z</time></trkpt>
<trkpt lat="-6.2406277" lon="106.9791325"><time>2026-01-01T01:01:55Z</time></trkpt>
<trkpt lat="-6.2406815" lon="106.9791380"><time>2026-01-01T01:01:56Z</time></trkpt>
<trkpt lat="-6.2407353" lon="106.9791435"><time>2026-01-01T01:01:57Z</time></trkpt>
<trkpt lat="-6.2407890" lon="106.9791490"><time>2026-01-01T01:01:58Z</time></trkpt>
<trkpt lat="-6.2408160" lon="106.9791500"><time>2026-01-01T01:01:59Z</time></trkpt>
<trkpt lat="-6.2408720" lon="106.9791583"><time>2026-01-01T01:02:00Z</time></trkpt>
<trkpt lat="-6.2409280" lon="106.9791667"><time>2026-01-01T01:02:01Z</time></trkpt>
<trkpt lat="-6.2409840" lon="106.9791750"><time>2026-01-01T01:02:02Z</time></trkpt>
<trkpt lat="-6.2410380" lon="106.9791895"><time>2026-01-01T01:02:03Z</time></trkpt>
<trkpt lat="-6.2410920" lon="106.9792040"><time>2026-01-01T01:02:04Z</time></trkpt>
<trkpt lat="-6.2411470" lon="106.9792150"><time>2026-01-01T01:02:05Z</time></trkpt>
<trkpt lat="-6.2412156" lon="106.9792304"><time>2026-01-01T01:02:06Z</time></trkpt>
<trkpt lat="-6.2412842" lon="106.9792457"><time>2026-01-01T01:02:07Z</time></trkpt>
<trkpt lat="-6.2413529" lon="106.9792611"><time>2026-01-01T01:02:08Z</time></trkpt>
<trkpt lat="-6.2414215" lon="106.9792765"><time>2026-01-01T01:02:09Z</time></trkpt>
<trkpt lat="-6.2414901" lon="106.9792919"><time>2026-01-01T01:02:10Z</time></trkpt>
<trkpt lat="-6.2415588" lon="106.9793073"><time>2026-01-01T01:02:11Z</time></trkpt>
<trkpt lat="-6.2416274" lon="106.9793226"><time>2026-01-01T01:02:12Z</time></trkpt>
<trkpt lat="-6.2416960" lon="106.9793380"><time>2026-01-01T01:02:13Z</time></trkpt>
<trkpt lat="-6.2417585" lon="106.9793425"><time>2026-01-01T01:02:14Z</time></trkpt>
<trkpt lat="-6.2418210" lon="106.9793470"><time>2026-01-01T01:02:15Z</time></trkpt>
<trkpt lat="-6.2418710" lon="106.9793430"><time>2026-01-01T01:02:16Z</time></trkpt>
<trkpt lat="-6.2419200" lon="106.9793240"><time>2026-01-01T01:02:17Z</time></trkpt>
<trkpt lat="-6.2419677" lon="106.9792800"><time>2026-01-01T01:02:18Z</time></trkpt>
<trkpt lat="-6.2420153" lon="106.9792360"><time>2026-01-01T01:02:19Z</time></trkpt>
<trkpt lat="-6.2420630" lon="106.9791920"><time>2026-01-01T01:02:20Z</time></trkpt>
<trkpt lat="-6.2421107" lon="106.9791480"><time>2026-01-01T01:02:21Z</time></trkpt>
<trkpt lat="-6.2421583" lon="106.9791040"><time>2026-01-01T01:02:22Z</time></trkpt>
<trkpt lat="-6.2422060" lon="106.9790600"><time>2026-01-01T01:02:23Z</time></trkpt>
<trkpt lat="-6.2422440" lon="106.9790270"><time>2026-01-01T01:02:24Z</time></trkpt>
<trkpt lat="-6.2422820" lon="106.9789940"><time>2026-01-01T01:02:25Z</time></trkpt>
<trkpt lat="-6.2423177" lon="106.9789603"><time>2026-01-01T01:02:26Z</time></trkpt>
<trkpt lat="-6.2423533" lon="106.9789267"><time>2026-01-01T01:02:27Z</time></trkpt>
<trkpt lat="-6.2423890" lon="106.9788930"><time>2026-01-01T01:02:28Z</time></trkpt>
<trkpt lat="-6.2424292" lon="106.9788537"><time>2026-01-01T01:02:29Z</time></trkpt>
<trkpt lat="-6.2424695" lon="106.9788145"><time>2026-01-01T01:02:30Z</time></trkpt>
<trkpt lat="-6.2425097" lon="106.9787752"><time>2026-01-01T01:02:31Z</time></trkpt>
<trkpt lat="-6.2425500" lon="106.9787360"><time>2026-01-01T01:02:32Z</time></trkpt>
<trkpt lat="-6.2425955" lon="106.9786898"><time>2026-01-01T01:02:33Z</time></trkpt>
<trkpt lat="-6.2426410" lon="106.9786435"><time>2026-01-01T01:02:34Z</time></trkpt>
<trkpt lat="-6.2426865" lon="106.9785972"><time>2026-01-01T01:02:35Z</time></trkpt>
<trkpt lat="-6.2427320" lon="106.9785510"><time>2026-01-01T01:02:36Z</time></trkpt>
<trkpt lat="-6.2427772" lon="106.9785047"><time>2026-01-01T01:02:37Z</time></trkpt>
<trkpt lat="-6.2428225" lon="106.9784585"><time>2026-01-01T01:02:38Z</time></trkpt>
<trkpt lat="-6.2428678" lon="106.9784122"><time>2026-01-01T01:02:39Z</time></trkpt>
<trkpt lat="-6.2429130" lon="106.9783660"><time>2026-01-01T01:02:40Z</time></trkpt>
<trkpt lat="-6.2429630" lon="106.9783220"><time>2026-01-01T01:02:41Z</time></trkpt>
<trkpt lat="-6.2430090" lon="106.9782915"><time>2026-01-01T01:02:42Z</time></trkpt>
<trkpt lat="-6.2430550" lon="106.9782610"><time>2026-01-01T01:02:43Z</time></trkpt>
<trkpt lat="-6.2431140" lon="106.9782430"><time>2026-01-01T01:02:44Z</time></trkpt>
<trkpt lat="-6.2431730" lon="106.9782250"><time>2026-01-01T01:02:45Z</time></trkpt>
<trkpt lat="-6.2432230" lon="106.9782130"><time>2026-01-01T01:02:46Z</time></trkpt>
<trkpt lat="-6.2432730" lon="106.9782010"><time>2026-01-01T01:02:47Z</time></trkpt>
<trkpt lat="-6.2433398" lon="106.9781882"><time>2026-01-01T01:02:48Z</time></trkpt>
<trkpt lat="-6.2434066" lon="106.9781754"><time>2026-01-01T01:02:49Z</time></trkpt>
<trkpt lat="-6.2434734" lon="106.9781626"><time>2026-01-01T01:02:50Z</time></trkpt>
<trkpt lat="-6.2435402" lon="106.9781498"><time>2026-01-01T01:02:51Z</time></trkpt>
<trkpt lat="-6.2436070" lon="106.9781370"><time>2026-01-01T01:02:52Z</time></trkpt>
<trkpt lat="-6.2436739" lon="106.9781292"><time>2026-01-01T01:02:53Z</time></trkpt>
<trkpt lat="-6.2437408" lon="106.9781214"><time>2026-01-01T01:02:54Z</time></trkpt>
<trkpt lat="-6.2438077" lon="106.9781137"><time>2026-01-01T01:02:55Z</time></trkpt>
<trkpt lat="-6.2438746" lon="106.9781059"><time>2026-01-01T01:02:56Z</time></trkpt>
<trkpt lat="-6.2439414" lon="106.9780981"><time>2026-01-01T01:02:57Z</time></trkpt>
<trkpt lat="-6.2440083" lon="106.9780903"><time>2026-01-01T01:02:58Z</time></trkpt>
<trkpt lat="-6.2440752" lon="106.9780826"><time>2026-01-01T01:02:59Z</time></trkpt>
<trkpt lat="-6.2441421" lon="106.9780748"><time>2026-01-01T01:03:00Z</time></trkpt>
<trkpt lat="-6.2442090" lon="106.9780670"><time>2026-01-01T01:03:01Z</time></trkpt>
<trkpt lat="-6.2442799" lon="106.9780596"><time>2026-01-01T01:03:02Z</time></trkpt>
<trkpt lat="-6.2443507" lon="106.9780522"><time>2026-01-01T01:03:03Z</time></trkpt>
<trkpt lat="-6.2444216" lon="106.9780449"><time>2026-01-01T01:03:04Z</time></trkpt>
<trkpt lat="-6.2444925" lon="106.9780375"><time>2026-01-01T01:03:05Z</time></trkpt>
<trkpt lat="-6.2445634" lon="106.9780301"><time>2026-01-01T01:03:06Z</time></trkpt>
<trkpt lat="-6.2446342" lon="106.9780228"><time>2026-01-01T01:03:07Z</time></trkpt>
<trkpt lat="-6.2447051" lon="106.9780154"><time>2026-01-01T01:03:08Z</time></trkpt>
<trkpt lat="-6.2447760" lon="106.9780080"><time>2026-01-01T01:03:09Z</time></trkpt>
<trkpt lat="-6.2448433" lon="106.9780025"><time>2026-01-01T01:03:10Z</time></trkpt>
<trkpt lat="-6.2449107" lon="106.9779970"><time>2026-01-01T01:03:11Z</time></trkpt>
<trkpt lat="-6.2449780" lon="106.9779915"><time>2026-01-01T01:03:12Z</time></trkpt>
<trkpt lat="-6.2450453" lon="106.9779860"><time>2026-01-01T01:03:13Z</time></trkpt>
<trkpt lat="-6.2451127" lon="106.9779805"><time>2026-01-01T01:03:14Z</time></trkpt>
<trkpt lat="-6.2451800" lon="106.9779750"><time>2026-01-01T01:03:15Z</time></trkpt>
<trkpt lat="-6.2452390" lon="106.9779697"><time>2026-01-01T01:03:16Z</time></trkpt>
<trkpt lat="-6.2452980" lon="106.9779643"><time>2026-01-01T01:03:17Z</time></trkpt>
<trkpt lat="-6.2453570" lon="106.9779590"><time>2026-01-01T01:03:18Z</time></trkpt>
<trkpt lat="-6.2454203" lon="106.9779542"><time>2026-01-01T01:03:19Z</time></trkpt>
<trkpt lat="-6.2454835" lon="106.9779495"><time>2026-01-01T01:03:20Z</time></trkpt>
<trkpt lat="-6.2455467" lon="106.9779448"><time>2026-01-01T01:03:21Z</time></trkpt>
<trkpt lat="-6.2456100" lon="106.9779400"><time>2026-01-01T01:03:22Z</time></trkpt>
<trkpt lat="-6.2456770" lon="106.9779321"><time>2026-01-01T01:03:23Z</time></trkpt>
<trkpt lat="-6.2457440" lon="106.9779243"><time>2026-01-01T01:03:24Z</time></trkpt>
<trkpt lat="-6.2458110" lon="106.9779164"><time>2026-01-01T01:03:25Z</time></trkpt>
<trkpt lat="-6.2458780" lon="106.9779085"><time>2026-01-01T01:03:25.180000Z</time></trkpt>
<trkpt lat="-6.2459450" lon="106.9779006"><time>2026-01-01T01:03:25.360000Z</time></trkpt>
<trkpt lat="-6.2460120" lon="106.9778928"><time>2026-01-01T01:03:25.540000Z</time></trkpt>
<trkpt lat="-6.2460790" lon="106.9778849"><time>2026-01-01T01:03:25.720000Z</time></trkpt>
<trkpt lat="-6.2461460" lon="106.9778770"><time>2026-01-01T01:03:26.720000Z</time></trkpt>
<trkpt lat="-6.2462101" lon="106.9778703"><time>2026-01-01T01:03:27.720000Z</time></trkpt>
<trkpt lat="-6.2462742" lon="106.9778637"><time>2026-01-01T01:03:28.720000Z</time></trkpt>
<trkpt lat="-6.2463383" lon="106.9778570"><time>2026-01-01T01:03:29.720000Z</time></trkpt>
<trkpt lat="-6.2464024" lon="106.9778503"><time>2026-01-01T01:03:30.720000Z</time></trkpt>
<trkpt lat="-6.2464666" lon="106.9778437"><time>2026-01-01T01:03:31.720000Z</time></trkpt>
<trkpt lat="-6.2465307" lon="106.9778370"><time>2026-01-01T01:03:32.720000Z</time></trkpt>
<trkpt lat="-6.2465948" lon="106.9778303"><time>2026-01-01T01:03:33.720000Z</time></trkpt>
<trkpt lat="-6.2466589" lon="106.9778237"><time>2026-01-01T01:03:34.720000Z</time></trkpt>
<trkpt lat="-6.2467230" lon="106.9778170"><time>2026-01-01T01:03:35.720000Z</time></trkpt>
<trkpt lat="-6.2467817" lon="106.9778093"><time>2026-01-01T01:03:36.720000Z</time></trkpt>
<trkpt lat="-6.2468403" lon="106.9778017"><time>2026-01-01T01:03:37.720000Z</time></trkpt>
<trkpt lat="-6.2468990" lon="106.9777940"><time>2026-01-01T01:03:38.720000Z</time></trkpt>
<trkpt lat="-6.2469520" lon="106.9777890"><time>2026-01-01T01:03:39.720000Z</time></trkpt>
<trkpt lat="-6.2470050" lon="106.9777840"><time>2026-01-01T01:03:40.720000Z</time></trkpt>
<trkpt lat="-6.2470720" lon="106.9777780"><time>2026-01-01T01:03:41.720000Z</time></trkpt>
<trkpt lat="-6.2471390" lon="106.9777720"><time>2026-01-01T01:03:42.720000Z</time></trkpt>
<trkpt lat="-6.2471800" lon="106.9777850"><time>2026-01-01T01:03:43.720000Z</time></trkpt>
<trkpt lat="-6.2472210" lon="106.9777980"><time>2026-01-01T01:03:44.720000Z</time></trkpt>
<trkpt lat="-6.2472765" lon="106.9777970"><time>2026-01-01T01:03:45.720000Z</time></trkpt>
<trkpt lat="-6.2473320" lon="106.9777960"><time>2026-01-01T01:03:46.720000Z</time></trkpt>
<trkpt lat="-6.2473943" lon="106.9777910"><time>2026-01-01T01:03:47.720000Z</time></trkpt>
<trkpt lat="-6.2474565" lon="106.9777860"><time>2026-01-01T01:03:48.720000Z</time></trkpt>
<trkpt lat="-6.2475188" lon="106.9777810"><time>2026-01-01T01:03:49.720000Z</time></trkpt>
<trkpt lat="-6.2475810" lon="106.9777760"><time>2026-01-01T01:03:50.720000Z</time></trkpt>
<trkpt lat="-6.2475864" lon="106.9778412"><time>2026-01-01T01:03:51.720000Z</time></trkpt>
<trkpt lat="-6.2475918" lon="106.9779064"><time>2026-01-01T01:03:52.720000Z</time></trkpt>
<trkpt lat="-6.2475972" lon="106.9779716"><time>2026-01-01T01:03:53.720000Z</time></trkpt>
<trkpt lat="-6.2476026" lon="106.9780368"><time>2026-01-01T01:03:54.720000Z</time></trkpt>
<trkpt lat="-6.2476080" lon="106.9781020"><time>2026-01-01T01:03:55.720000Z</time></trkpt>
<trkpt lat="-6.2476141" lon="106.9781643"><time>2026-01-01T01:03:56.720000Z</time></trkpt>
<trkpt lat="-6.2476203" lon="106.9782266"><time>2026-01-01T01:03:57.720000Z</time></trkpt>
<trkpt lat="-6.2476264" lon="106.9782889"><time>2026-01-01T01:03:58.720000Z</time></trkpt>
<trkpt lat="-6.2476326" lon="106.9783511"><time>2026-01-01T01:03:59.720000Z</time></trkpt>
<trkpt lat="-6.2476387" lon="106.9784134"><time>2026-01-01T01:04:00.720000Z</time></trkpt>
<trkpt lat="-6.2476449" lon="106.9784757"><time>2026-01-01T01:04:01.720000Z</time></trkpt>
<trkpt lat="-6.2476510" lon="106.9785380"><time>2026-01-01T01:04:02.720000Z</time></trkpt>
<trkpt lat="-6.2476557" lon="106.9785933"><time>2026-01-01T01:04:03.720000Z</time></trkpt>
<trkpt lat="-6.2476605" lon="106.9786485"><time>2026-01-01T01:04:04.720000Z</time></trkpt>
<trkpt lat="-6.2476653" lon="106.9787037"><time>2026-01-01T01:04:05.720000Z</time></trkpt>
<trkpt lat="-6.2476700" lon="106.9787590"><time>2026-01-01T01:04:06.720000Z</time></trkpt>
<trkpt lat="-6.2476755" lon="106.9788135"><time>2026-01-01T01:04:07.720000Z</time></trkpt>
<trkpt lat="-6.2476810" lon="106.9788680"><time>2026-01-01T01:04:08.720000Z</time></trkpt>
<trkpt lat="-6.2476865" lon="106.9789225"><time>2026-01-01T01:04:09.720000Z</time></trkpt>
<trkpt lat="-6.2476920" lon="106.9789770"><time>2026-01-01T01:04:10.720000Z</time></trkpt>
<trkpt lat="-6.2476986" lon="106.9790458"><time>2026-01-01T01:04:11.720000Z</time></trkpt>
<trkpt lat="-6.2477052" lon="106.9791146"><time>2026-01-01T01:04:12.720000Z</time></trkpt>
<trkpt lat="-6.2477118" lon="106.9791834"><time>2026-01-01T01:04:13.720000Z</time></trkpt>
<trkpt lat="-6.2477184" lon="106.9792522"><time>2026-01-01T01:04:14.720000Z</time></trkpt>
<trkpt lat="-6.2477250" lon="106.9793210"><time>2026-01-01T01:04:15.720000Z</time></trkpt>
<trkpt lat="-6.2477323" lon="106.9793928"><time>2026-01-01T01:04:16.720000Z</time></trkpt>
<trkpt lat="-6.2477397" lon="106.9794647"><time>2026-01-01T01:04:17.720000Z</time></trkpt>
<trkpt lat="-6.2477470" lon="106.9795365"><time>2026-01-01T01:04:18.720000Z</time></trkpt>
<trkpt lat="-6.2477543" lon="106.9796083"><time>2026-01-01T01:04:19.720000Z</time></trkpt>
<trkpt lat="-6.2477617" lon="106.9796802"><time>2026-01-01T01:04:20.720000Z</time></trkpt>
<trkpt lat="-6.2477690" lon="106.9797520"><time>2026-01-01T01:04:21.720000Z</time></trkpt>
<trkpt lat="-6.2477753" lon="106.9798203"><time>2026-01-01T01:04:22.720000Z</time></trkpt>
<trkpt lat="-6.2477815" lon="106.9798885"><time>2026-01-01T01:04:23.720000Z</time></trkpt>
<trkpt lat="-6.2477877" lon="106.9799567"><time>2026-01-01T01:04:24.720000Z</time></trkpt>
<trkpt lat="-6.2477940" lon="106.9800250"><time>2026-01-01T01:04:25.720000Z</time></trkpt>
<trkpt lat="-6.2477985" lon="106.9800665"><time>2026-01-01T01:04:26.720000Z</time></trkpt>
<trkpt lat="-6.2478030" lon="106.9801080"><time>2026-01-01T01:04:27.720000Z</time></trkpt>
<trkpt lat="-6.2478087" lon="106.9801673"><time>2026-01-01T01:04:28.720000Z</time></trkpt>
<trkpt lat="-6.2478143" lon="106.9802267"><time>2026-01-01T01:04:29.720000Z</time></trkpt>
<trkpt lat="-6.2478200" lon="106.9802860"><time>2026-01-01T01:04:30.720000Z</time></trkpt>
<trkpt lat="-6.2478270" lon="106.9803520"><time>2026-01-01T01:04:31.720000Z</time></trkpt>
<trkpt lat="-6.2478340" lon="106.9804180"><time>2026-01-01T01:04:32.720000Z</time></trkpt>
<trkpt lat="-6.2478410" lon="106.9804840"><time>2026-01-01T01:04:33.720000Z</time></trkpt>
<trkpt lat="-6.2478480" lon="106.9805500"><time>2026-01-01T01:04:34.720000Z</time></trkpt>
<trkpt lat="-6.2478550" lon="106.9806160"><time>2026-01-01T01:04:35.720000Z</time></trkpt>
<trkpt lat="-6.2478630" lon="106.9806790"><time>2026-01-01T01:04:36.720000Z</time></trkpt>
<trkpt lat="-6.2478711" lon="106.9807489"><time>2026-01-01T01:04:37.720000Z</time></trkpt>
<trkpt lat="-6.2478791" lon="106.9808188"><time>2026-01-01T01:04:38.720000Z</time></trkpt>
<trkpt lat="-6.2478872" lon="106.9808886"><time>2026-01-01T01:04:39.720000Z</time></trkpt>
<trkpt lat="-6.2478952" lon="106.9809585"><time>2026-01-01T01:04:40.720000Z</time></trkpt>
<trkpt lat="-6.2479033" lon="106.9810284"><time>2026-01-01T01:04:41.720000Z</time></trkpt>
<trkpt lat="-6.2479114" lon="106.9810983"><time>2026-01-01T01:04:42.720000Z</time></trkpt>
<trkpt lat="-6.2479194" lon="106.9811682"><time>2026-01-01T01:04:43.720000Z</time></trkpt>
<trkpt lat="-6.2479275" lon="106.9812381"><time>2026-01-01T01:04:44.720000Z</time></trkpt>
<trkpt lat="-6.2479355" lon="106.9813079"><time>2026-01-01T01:04:45.720000Z</time></trkpt>
<trkpt lat="-6.2479436" lon="106.9813778"><time>2026-01-01T01:04:46.720000Z</time></trkpt>
<trkpt lat="-6.2479516" lon="106.9814477"><time>2026-01-01T01:04:47.720000Z</time></trkpt>
<trkpt lat="-6.2479597" lon="106.9815176"><time>2026-01-01T01:04:48.720000Z</time></trkpt>
<trkpt lat="-6.2479678" lon="106.9815875"><time>2026-01-01T01:04:49.720000Z</time></trkpt>
<trkpt lat="-6.2479758" lon="106.9816574"><time>2026-01-01T01:04:50.720000Z</time></trkpt>
<trkpt lat="-6.2479839" lon="106.9817272"><time>2026-01-01T01:04:51.720000Z</time></trkpt>
<trkpt lat="-6.2479919" lon="106.9817971"><time>2026-01-01T01:04:52.720000Z</time></trkpt>
<trkpt lat="-6.2480000" lon="106.9818670"><time>2026-01-01T01:04:53.720000Z</time></trkpt>
<trkpt lat="-6.2480082" lon="106.9819278"><time>2026-01-01T01:04:54.720000Z</time></trkpt>
<trkpt lat="-6.2480163" lon="106.9819887"><time>2026-01-01T01:04:55.720000Z</time></trkpt>
<trkpt lat="-6.2480245" lon="106.9820495"><time>2026-01-01T01:04:56.720000Z</time></trkpt>
<trkpt lat="-6.2480327" lon="106.9821103"><time>2026-01-01T01:04:57.720000Z</time></trkpt>
<trkpt lat="-6.2480408" lon="106.9821712"><time>2026-01-01T01:04:58.720000Z</time></trkpt>
<trkpt lat="-6.2480490" lon="106.9822320"><time>2026-01-01T01:04:59.720000Z</time></trkpt>
<trkpt lat="-6.2480538" lon="106.9822863"><time>2026-01-01T01:05:00.720000Z</time></trkpt>
<trkpt lat="-6.2480585" lon="106.9823405"><time>2026-01-01T01:05:01.720000Z</time></trkpt>
<trkpt lat="-6.2480632" lon="106.9823947"><time>2026-01-01T01:05:02.720000Z</time></trkpt>
<trkpt lat="-6.2480680" lon="106.9824490"><time>2026-01-01T01:05:03.720000Z</time></trkpt>
<trkpt lat="-6.2480756" lon="106.9825140"><time>2026-01-01T01:05:04.720000Z</time></trkpt>
<trkpt lat="-6.2480831" lon="106.9825790"><time>2026-01-01T01:05:05.720000Z</time></trkpt>
<trkpt lat="-6.2480907" lon="106.9826440"><time>2026-01-01T01:05:06.720000Z</time></trkpt>
<trkpt lat="-6.2480982" lon="106.9827090"><time>2026-01-01T01:05:07.720000Z</time></trkpt>
<trkpt lat="-6.2481058" lon="106.9827740"><time>2026-01-01T01:05:08.720000Z</time></trkpt>
<trkpt lat="-6.2481133" lon="106.9828390"><time>2026-01-01T01:05:09.720000Z</time></trkpt>
<trkpt lat="-6.2481209" lon="106.9829040"><time>2026-01-01T01:05:10.720000Z</time></trkpt>
<trkpt lat="-6.2481284" lon="106.9829690"><time>2026-01-01T01:05:11.720000Z</time></trkpt>
<trkpt lat="-6.2481360" lon="106.9830340"><time>2026-01-01T01:05:12.720000Z</time></trkpt>
<trkpt lat="-6.2481444" lon="106.9831006"><time>2026-01-01T01:05:13.720000Z</time></trkpt>
<trkpt lat="-6.2481528" lon="106.9831672"><time>2026-01-01T01:05:14.720000Z</time></trkpt>
<trkpt lat="-6.2481612" lon="106.9832338"><time>2026-01-01T01:05:15.720000Z</time></trkpt>
<trkpt lat="-6.2481696" lon="106.9833004"><time>2026-01-01T01:05:16.720000Z</time></trkpt>
<trkpt lat="-6.2481780" lon="106.9833670"><time>2026-01-01T01:05:17.720000Z</time></trkpt>
<trkpt lat="-6.2481825" lon="106.9834030"><time>2026-01-01T01:05:18.720000Z</time></trkpt>
<trkpt lat="-6.2481870" lon="106.9834390"><time>2026-01-01T01:05:19.720000Z</time></trkpt>
<trkpt lat="-6.2481920" lon="106.9834910"><time>2026-01-01T01:05:20.720000Z</time></trkpt>
<trkpt lat="-6.2481970" lon="106.9835430"><time>2026-01-01T01:05:21.720000Z</time></trkpt>
<trkpt lat="-6.2481997" lon="106.9836120"><time>2026-01-01T01:05:22.720000Z</time></trkpt>
<trkpt lat="-6.2482023" lon="106.9836810"><time>2026-01-01T01:05:23.720000Z</time></trkpt>
<trkpt lat="-6.2482050" lon="106.9837500"><time>2026-01-01T01:05:24.720000Z</time></trkpt>
<trkpt lat="-6.2482100" lon="106.9837930"><time>2026-01-01T01:05:25.720000Z</time></trkpt>
<trkpt lat="-6.2482157" lon="106.9838558"><time>2026-01-01T01:05:26.720000Z</time></trkpt>
<trkpt lat="-6.2482215" lon="106.9839185"><time>2026-01-01T01:05:27.720000Z</time></trkpt>
<trkpt lat="-6.2482273" lon="106.9839812"><time>2026-01-01T01:05:28.720000Z</time></trkpt>
<trkpt lat="-6.2482330" lon="106.9840440"><time>2026-01-01T01:05:29.720000Z</time></trkpt>
<trkpt lat="-6.2482399" lon="106.9841096"><time>2026-01-01T01:05:30.720000Z</time></trkpt>
<trkpt lat="-6.2482467" lon="106.9841751"><time>2026-01-01T01:05:31.720000Z</time></trkpt>
<trkpt lat="-6.2482536" lon="106.9842407"><time>2026-01-01T01:05:32.720000Z</time></trkpt>
<trkpt lat="-6.2482604" lon="106.9843063"><time>2026-01-01T01:05:33.720000Z</time></trkpt>
<trkpt lat="-6.2482673" lon="106.9843719"><time>2026-01-01T01:05:34.720000Z</time></trkpt>
<trkpt lat="-6.2482741" lon="106.9844374"><time>2026-01-01T01:05:35.720000Z</time></trkpt>
<trkpt lat="-6.2482810" lon="106.9845030"><time>2026-01-01T01:05:36.720000Z</time></trkpt>
<trkpt lat="-6.2482886" lon="106.9845742"><time>2026-01-01T01:05:37.720000Z</time></trkpt>
<trkpt lat="-6.2482962" lon="106.9846454"><time>2026-01-01T01:05:38.720000Z</time></trkpt>
<trkpt lat="-6.2483038" lon="106.9847166"><time>2026-01-01T01:05:39.720000Z</time></trkpt>
<trkpt lat="-6.2483114" lon="106.9847878"><time>2026-01-01T01:05:40.720000Z</time></trkpt>
<trkpt lat="-6.2483190" lon="106.9848590"><time>2026-01-01T01:05:41.720000Z</time></trkpt>
<trkpt lat="-6.2483234" lon="106.9849216"><time>2026-01-01T01:05:42.720000Z</time></trkpt>
<trkpt lat="-6.2483278" lon="106.9849842"><time>2026-01-01T01:05:43.720000Z</time></trkpt>
<trkpt lat="-6.2483322" lon="106.9850468"><time>2026-01-01T01:05:44.720000Z</time></trkpt>
<trkpt lat="-6.2483366" lon="106.9851094"><time>2026-01-01T01:05:45.720000Z</time></trkpt>
<trkpt lat="-6.2483410" lon="106.9851720"><time>2026-01-01T01:05:46.720000Z</time></trkpt>
<trkpt lat="-6.2483457" lon="106.9852370"><time>2026-01-01T01:05:47.720000Z</time></trkpt>
<trkpt lat="-6.2483503" lon="106.9853020"><time>2026-01-01T01:05:48.720000Z</time></trkpt>
<trkpt lat="-6.2483550" lon="106.9853670"><time>2026-01-01T01:05:49.720000Z</time></trkpt>
<trkpt lat="-6.2483578" lon="106.9854305"><time>2026-01-01T01:05:50.720000Z</time></trkpt>
<trkpt lat="-6.2483605" lon="106.9854940"><time>2026-01-01T01:05:51.720000Z</time></trkpt>
<trkpt lat="-6.2483632" lon="106.9855575"><time>2026-01-01T01:05:52.720000Z</time></trkpt>
<trkpt lat="-6.2483660" lon="106.9856210"><time>2026-01-01T01:05:53.720000Z</time></trkpt>
<trkpt lat="-6.2483650" lon="106.9856847"><time>2026-01-01T01:05:54.720000Z</time></trkpt>
<trkpt lat="-6.2483640" lon="106.9857485"><time>2026-01-01T01:05:55.720000Z</time></trkpt>
<trkpt lat="-6.2483630" lon="106.9858123"><time>2026-01-01T01:05:56.720000Z</time></trkpt>
<trkpt lat="-6.2483620" lon="106.9858760"><time>2026-01-01T01:05:57.720000Z</time></trkpt>
<trkpt lat="-6.2483613" lon="106.9859277"><time>2026-01-01T01:05:58.720000Z</time></trkpt>
<trkpt lat="-6.2483607" lon="106.9859793"><time>2026-01-01T01:05:59.720000Z</time></trkpt>
<trkpt lat="-6.2483600" lon="106.9860310"><time>2026-01-01T01:06:00.720000Z</time></trkpt>
<trkpt lat="-6.2483560" lon="106.9860988"><time>2026-01-01T01:06:01.720000Z</time></trkpt>
<trkpt lat="-6.2483520" lon="106.9861667"><time>2026-01-01T01:06:02.720000Z</time></trkpt>
<trkpt lat="-6.2483480" lon="106.9862345"><time>2026-01-01T01:06:03.720000Z</time></trkpt>
<trkpt lat="-6.2483440" lon="106.9863023"><time>2026-01-01T01:06:04.720000Z</time></trkpt>
<trkpt lat="-6.2483400" lon="106.9863702"><time>2026-01-01T01:06:05.720000Z</time></trkpt>
<trkpt lat="-6.2483360" lon="106.9864380"><time>2026-01-01T01:06:06.720000Z</time></trkpt>
<trkpt lat="-6.2483296" lon="106.9865016"><time>2026-01-01T01:06:07.720000Z</time></trkpt>
<trkpt lat="-6.2483232" lon="106.9865652"><time>2026-01-01T01:06:08.720000Z</time></trkpt>
<trkpt lat="-6.2483168" lon="106.9866288"><time>2026-01-01T01:06:09.720000Z</time></trkpt>
<trkpt lat="-6.2483104" lon="106.9866924"><time>2026-01-01T01:06:10.720000Z</time></trkpt>
<trkpt lat="-6.2483040" lon="106.9867560"><time>2026-01-01T01:06:11.720000Z</time></trkpt>
<trkpt lat="-6.2482946" lon="106.9868142"><time>2026-01-01T01:06:12.720000Z</time></trkpt>
<trkpt lat="-6.2482852" lon="106.9868724"><time>2026-01-01T01:06:13.720000Z</time></trkpt>
<trkpt lat="-6.2482758" lon="106.9869306"><time>2026-01-01T01:06:14.720000Z</time></trkpt>
<trkpt lat="-6.2482664" lon="106.9869888"><time>2026-01-01T01:06:15.720000Z</time></trkpt>
<trkpt lat="-6.2482570" lon="106.9870470"><time>2026-01-01T01:06:16.720000Z</time></trkpt>
<trkpt lat="-6.2482451" lon="106.9871099"><time>2026-01-01T01:06:17.720000Z</time></trkpt>
<trkpt lat="-6.2482333" lon="106.9871727"><time>2026-01-01T01:06:18.720000Z</time></trkpt>
<trkpt lat="-6.2482214" lon="106.9872356"><time>2026-01-01T01:06:19.720000Z</time></trkpt>
<trkpt lat="-6.2482096" lon="106.9872984"><time>2026-01-01T01:06:20.720000Z</time></trkpt>
<trkpt lat="-6.2481977" lon="106.9873613"><time>2026-01-01T01:06:21.720000Z</time></trkpt>
<trkpt lat="-6.2481859" lon="106.9874241"><time>2026-01-01T01:06:22.720000Z</time></trkpt>
<trkpt lat="-6.2481740" lon="106.9874870"><time>2026-01-01T01:06:23.720000Z</time></trkpt>
<trkpt lat="-6.2481625" lon="106.9875455"><time>2026-01-01T01:06:24.720000Z</time></trkpt>
<trkpt lat="-6.2481510" lon="106.9876040"><time>2026-01-01T01:06:25.720000Z</time></trkpt>
<trkpt lat="-6.2481360" lon="106.9876630"><time>2026-01-01T01:06:26.720000Z</time></trkpt>
<trkpt lat="-6.2481202" lon="106.9877308"><time>2026-01-01T01:06:27.720000Z</time></trkpt>
<trkpt lat="-6.2481044" lon="106.9877986"><time>2026-01-01T01:06:28.720000Z</time></trkpt>
<trkpt lat="-6.2480886" lon="106.9878664"><time>2026-01-01T01:06:29.720000Z</time></trkpt>
<trkpt lat="-6.2480728" lon="106.9879342"><time>2026-01-01T01:06:30.720000Z</time></trkpt>
<trkpt lat="-6.2480570" lon="106.9880020"><time>2026-01-01T01:06:31.720000Z</time></trkpt>
<trkpt lat="-6.2480420" lon="106.9880698"><time>2026-01-01T01:06:32.720000Z</time></trkpt>
<trkpt lat="-6.2480270" lon="106.9881376"><time>2026-01-01T01:06:33.720000Z</time></trkpt>
<trkpt lat="-6.2480120" lon="106.9882054"><time>2026-01-01T01:06:34.720000Z</time></trkpt>
<trkpt lat="-6.2479970" lon="106.9882732"><time>2026-01-01T01:06:35.720000Z</time></trkpt>
<trkpt lat="-6.2479820" lon="106.9883410"><time>2026-01-01T01:06:36.720000Z</time></trkpt>
<trkpt lat="-6.2479664" lon="106.9884088"><time>2026-01-01T01:06:37.720000Z</time></trkpt>
<trkpt lat="-6.2479509" lon="106.9884766"><time>2026-01-01T01:06:38.720000Z</time></trkpt>
<trkpt lat="-6.2479353" lon="106.9885444"><time>2026-01-01T01:06:39.720000Z</time></trkpt>
<trkpt lat="-6.2479197" lon="106.9886121"><time>2026-01-01T01:06:40.720000Z</time></trkpt>
<trkpt lat="-6.2479041" lon="106.9886799"><time>2026-01-01T01:06:41.720000Z</time></trkpt>
<trkpt lat="-6.2478886" lon="106.9887477"><time>2026-01-01T01:06:42.720000Z</time></trkpt>
<trkpt lat="-6.2478730" lon="106.9888155"><time>2026-01-01T01:06:43.720000Z</time></trkpt>
<trkpt lat="-6.2478574" lon="106.9888833"><time>2026-01-01T01:06:44.720000Z</time></trkpt>
<trkpt lat="-6.2478419" lon="106.9889511"><time>2026-01-01T01:06:45.720000Z</time></trkpt>
<trkpt lat="-6.2478263" lon="106.9890189"><time>2026-01-01T01:06:46.720000Z</time></trkpt>
<trkpt lat="-6.2478107" lon="106.9890866"><time>2026-01-01T01:06:47.720000Z</time></trkpt>
<trkpt lat="-6.2477951" lon="106.9891544"><time>2026-01-01T01:06:51.220000Z</time></trkpt>
<trkpt lat="-6.2477796" lon="106.9892222"><time>2026-01-01T01:06:54.720000Z</time></trkpt>
<trkpt lat="-6.2477640" lon="106.9892900"><time>2026-01-01T01:06:58.220000Z</time></trkpt>
<trkpt lat="-6.2477490" lon="106.9893460"><time>2026-01-01T01:06:59.220000Z</time></trkpt>
<trkpt lat="-6.2477430" lon="106.9893835"><time>2026-01-01T01:07:00.220000Z</time></trkpt>
<trkpt lat="-6.2477370" lon="106.9894210"><time>2026-01-01T01:07:01.220000Z</time></trkpt>
<trkpt lat="-6.2477214" lon="106.9894890"><time>2026-01-01T01:07:02.220000Z</time></trkpt>
<trkpt lat="-6.2477059" lon="106.9895570"><time>2026-01-01T01:07:03.220000Z</time></trkpt>
<trkpt lat="-6.2476903" lon="106.9896250"><time>2026-01-01T01:07:04.220000Z</time></trkpt>
<trkpt lat="-6.2476747" lon="106.9896930"><time>2026-01-01T01:07:05.220000Z</time></trkpt>
<trkpt lat="-6.2476592" lon="106.9897610"><time>2026-01-01T01:07:06.220000Z</time></trkpt>
<trkpt lat="-6.2476436" lon="106.9898290"><time>2026-01-01T01:07:07.220000Z</time></trkpt>
<trkpt lat="-6.2476281" lon="106.9898970"><time>2026-01-01T01:07:08.220000Z</time></trkpt>
<trkpt lat="-6.2476125" lon="106.9899650"><time>2026-01-01T01:07:09.220000Z</time></trkpt>
<trkpt lat="-6.2475969" lon="106.9900330"><time>2026-01-01T01:07:10.220000Z</time></trkpt>
<trkpt lat="-6.2475814" lon="106.9901010"><time>2026-01-01T01:07:11.220000Z</time></trkpt>
<trkpt lat="-6.2475658" lon="106.9901690"><time>2026-01-01T01:07:12.220000Z</time></trkpt>
<trkpt lat="-6.2475502" lon="106.9902370"><time>2026-01-01T01:07:13.220000Z</time></trkpt>
<trkpt lat="-6.2475347" lon="106.9903050"><time>2026-01-01T01:07:14.220000Z</time></trkpt>
<trkpt lat="-6.2475191" lon="106.9903730"><time>2026-01-01T01:07:15.220000Z</time></trkpt>
<trkpt lat="-6.2475036" lon="106.9904410"><time>2026-01-01T01:07:16.220000Z</time></trkpt>
<trkpt lat="-6.2474880" lon="106.9905090"><time>2026-01-01T01:07:17.220000Z</time></trkpt>
<trkpt lat="-6.2474790" lon="106.9905500"><time>2026-01-01T01:07:18.220000Z</time></trkpt>
<trkpt lat="-6.2474700" lon="106.9905910"><time>2026-01-01T01:07:19.220000Z</time></trkpt>
<trkpt lat="-6.2474539" lon="106.9906543"><time>2026-01-01T01:07:20.220000Z</time></trkpt>
<trkpt lat="-6.2474377" lon="106.9907176"><time>2026-01-01T01:07:21.220000Z</time></trkpt>
<trkpt lat="-6.2474216" lon="106.9907809"><time>2026-01-01T01:07:22.220000Z</time></trkpt>
<trkpt lat="-6.2474054" lon="106.9908441"><time>2026-01-01T01:07:23.220000Z</time></trkpt>
<trkpt lat="-6.2473893" lon="106.9909074"><time>2026-01-01T01:07:24.220000Z</time></trkpt>
<trkpt lat="-6.2473731" lon="106.9909707"><time>2026-01-01T01:07:25.220000Z</time></trkpt>
<trkpt lat="-6.2473570" lon="106.9910340"><time>2026-01-01T01:07:26.220000Z</time></trkpt>
<trkpt lat="-6.2473375" lon="106.9911036"><time>2026-01-01T01:07:27.220000Z</time></trkpt>
<trkpt lat="-6.2473180" lon="106.9911733"><time>2026-01-01T01:07:28.220000Z</time></trkpt>
<trkpt lat="-6.2472985" lon="106.9912429"><time>2026-01-01T01:07:29.220000Z</time></trkpt>
<trkpt lat="-6.2472790" lon="106.9913125"><time>2026-01-01T01:07:30.220000Z</time></trkpt>
<trkpt lat="-6.2472595" lon="106.9913821"><time>2026-01-01T01:07:31.220000Z</time></trkpt>
<trkpt lat="-6.2472400" lon="106.9914517"><time>2026-01-01T01:07:32.220000Z</time></trkpt>
<trkpt lat="-6.2472205" lon="106.9915214"><time>2026-01-01T01:07:33.220000Z</time></trkpt>
<trkpt lat="-6.2472010" lon="106.9915910"><time>2026-01-01T01:07:34.220000Z</time></trkpt>
<trkpt lat="-6.2471712" lon="106.9916558"><time>2026-01-01T01:07:35.220000Z</time></trkpt>
<trkpt lat="-6.2471414" lon="106.9917206"><time>2026-01-01T01:07:36.220000Z</time></trkpt>
<trkpt lat="-6.2471116" lon="106.9917854"><time>2026-01-01T01:07:37.220000Z</time></trkpt>
<trkpt lat="-6.2470818" lon="106.9918502"><time>2026-01-01T01:07:38.220000Z</time></trkpt>
<trkpt lat="-6.2470520" lon="106.9919150"><time>2026-01-01T01:07:39.220000Z</time></trkpt>
<trkpt lat="-6.2470229" lon="106.9919809"><time>2026-01-01T01:07:40.220000Z</time></trkpt>
<trkpt lat="-6.2469937" lon="106.9920468"><time>2026-01-01T01:07:41.220000Z</time></trkpt>
<trkpt lat="-6.2469646" lon="106.9921126"><time>2026-01-01T01:07:42.220000Z</time></trkpt>
<trkpt lat="-6.2469355" lon="106.9921785"><time>2026-01-01T01:07:43.220000Z</time></trkpt>
<trkpt lat="-6.2469064" lon="106.9922444"><time>2026-01-01T01:07:44.220000Z</time></trkpt>
<trkpt lat="-6.2468773" lon="106.9923103"><time>2026-01-01T01:07:45.220000Z</time></trkpt>
<trkpt lat="-6.2468481" lon="106.9923761"><time>2026-01-01T01:07:46.220000Z</time></trkpt>
<trkpt lat="-6.2468190" lon="106.9924420"><time>2026-01-01T01:07:47.220000Z</time></trkpt>
<trkpt lat="-6.2468225" lon="106.9925075"><time>2026-01-01T01:07:48.220000Z</time></trkpt>
<trkpt lat="-6.2468260" lon="106.9925730"><time>2026-01-01T01:07:49.220000Z</time></trkpt>
<trkpt lat="-6.2468300" lon="106.9926310"><time>2026-01-01T01:07:50.220000Z</time></trkpt>
<trkpt lat="-6.2468340" lon="106.9926890"><time>2026-01-01T01:07:51.220000Z</time></trkpt>
<trkpt lat="-6.2468380" lon="106.9927470"><time>2026-01-01T01:07:52.220000Z</time></trkpt>
<trkpt lat="-6.2468456" lon="106.9928090"><time>2026-01-01T01:07:53.220000Z</time></trkpt>
<trkpt lat="-6.2468532" lon="106.9928710"><time>2026-01-01T01:07:54.220000Z</time></trkpt>
<trkpt lat="-6.2468608" lon="106.9929330"><time>2026-01-01T01:07:55.220000Z</time></trkpt>
<trkpt lat="-6.2468684" lon="106.9929950"><time>2026-01-01T01:07:56.220000Z</time></trkpt>
<trkpt lat="-6.2468760" lon="106.9930570"><time>2026-01-01T01:07:57.220000Z</time></trkpt>
<trkpt lat="-6.2469010" lon="106.9931187"><time>2026-01-01T01:07:58.220000Z</time></trkpt>
<trkpt lat="-6.2469260" lon="106.9931803"><time>2026-01-01T01:07:59.220000Z</time></trkpt>
<trkpt lat="-6.2469510" lon="106.9932420"><time>2026-01-01T01:08:00.220000Z</time></trkpt>
<trkpt lat="-6.2469861" lon="106.9933021"><time>2026-01-01T01:08:01.220000Z</time></trkpt>
<trkpt lat="-6.2470213" lon="106.9933623"><time>2026-01-01T01:08:02.220000Z</time></trkpt>
<trkpt lat="-6.2470564" lon="106.9934224"><time>2026-01-01T01:08:03.220000Z</time></trkpt>
<trkpt lat="-6.2470916" lon="106.9934826"><time>2026-01-01T01:08:04.220000Z</time></trkpt>
<trkpt lat="-6.2471267" lon="106.9935427"><time>2026-01-01T01:08:05.220000Z</time></trkpt>
<trkpt lat="-6.2471619" lon="106.9936029"><time>2026-01-01T01:08:06.220000Z</time></trkpt>
<trkpt lat="-6.2471970" lon="106.9936630"><time>2026-01-01T01:08:07.220000Z</time></trkpt>
<trkpt lat="-6.2472289" lon="106.9937273"><time>2026-01-01T01:08:08.220000Z</time></trkpt>
<trkpt lat="-6.2472608" lon="106.9937915"><time>2026-01-01T01:08:09.220000Z</time></trkpt>
<trkpt lat="-6.2472927" lon="106.9938558"><time>2026-01-01T01:08:10.220000Z</time></trkpt>
<trkpt lat="-6.2473246" lon="106.9939201"><time>2026-01-01T01:08:11.220000Z</time></trkpt>
<trkpt lat="-6.2473565" lon="106.9939844"><time>2026-01-01T01:08:12.220000Z</time></trkpt>
<trkpt lat="-6.2473885" lon="106.9940486"><time>2026-01-01T01:08:13.220000Z</time></trkpt>
<trkpt lat="-6.2474204" lon="106.9941129"><time>2026-01-01T01:08:14.220000Z</time></trkpt>
<trkpt lat="-6.2474523" lon="106.9941772"><time>2026-01-01T01:08:15.220000Z</time></trkpt>
<trkpt lat="-6.2474842" lon="106.9942415"><time>2026-01-01T01:08:16.220000Z</time></trkpt>
<trkpt lat="-6.2475161" lon="106.9943057"><time>2026-01-01T01:08:17.220000Z</time></trkpt>
<trkpt lat="-6.2475480" lon="106.9943700"><time>2026-01-01T01:08:18.220000Z</time></trkpt>
<trkpt lat="-6.2475823" lon="106.9944300"><time>2026-01-01T01:08:19.220000Z</time></trkpt>
<trkpt lat="-6.2476167" lon="106.9944900"><time>2026-01-01T01:08:20.220000Z</time></trkpt>
<trkpt lat="-6.2476510" lon="106.9945500"><time>2026-01-01T01:08:21.220000Z</time></trkpt>
<trkpt lat="-6.2476885" lon="106.9946062"><time>2026-01-01T01:08:22.220000Z</time></trkpt>
<trkpt lat="-6.2477260" lon="106.9946623"><time>2026-01-01T01:08:23.220000Z</time></trkpt>
<trkpt lat="-6.2477635" lon="106.9947185"><time>2026-01-01T01:08:24.220000Z</time></trkpt>
<trkpt lat="-6.2478010" lon="106.9947747"><time>2026-01-01T01:08:25.220000Z</time></trkpt>
<trkpt lat="-6.2478385" lon="106.9948308"><time>2026-01-01T01:08:26.220000Z</time></trkpt>
<trkpt lat="-6.2478760" lon="106.9948870"><time>2026-01-01T01:08:27.220000Z</time></trkpt>
<trkpt lat="-6.2479007" lon="106.9949310"><time>2026-01-01T01:08:28.220000Z</time></trkpt>
<trkpt lat="-6.2479253" lon="106.9949750"><time>2026-01-01T01:08:29.220000Z</time></trkpt>
<trkpt lat="-6.2479500" lon="106.9950190"><time>2026-01-01T01:08:30.220000Z</time></trkpt>
<trkpt lat="-6.2479830" lon="106.9950757"><time>2026-01-01T01:08:31.220000Z</time></trkpt>
<trkpt lat="-6.2480160" lon="106.9951325"><time>2026-01-01T01:08:32.220000Z</time></trkpt>
<trkpt lat="-6.2480490" lon="106.9951892"><time>2026-01-01T01:08:33.220000Z</time></trkpt>
<trkpt lat="-6.2480820" lon="106.9952460"><time>2026-01-01T01:08:34.220000Z</time></trkpt>
<trkpt lat="-6.2481150" lon="106.9953030"><time>2026-01-01T01:08:35.220000Z</time></trkpt>
<trkpt lat="-6.2481486" lon="106.9953620"><time>2026-01-01T01:08:36.220000Z</time></trkpt>
<trkpt lat="-6.2481822" lon="106.9954210"><time>2026-01-01T01:08:37.220000Z</time></trkpt>
<trkpt lat="-6.2482158" lon="106.9954800"><time>2026-01-01T01:08:38.220000Z</time></trkpt>
<trkpt lat="-6.2482494" lon="106.9955390"><time>2026-01-01T01:08:39.220000Z</time></trkpt>
<trkpt lat="-6.2482830" lon="106.9955980"><time>2026-01-01T01:08:40.220000Z</time></trkpt>
<trkpt lat="-6.2483156" lon="106.9956569"><time>2026-01-01T01:08:41.220000Z</time></trkpt>
<trkpt lat="-6.2483482" lon="106.9957158"><time>2026-01-01T01:08:42.220000Z</time></trkpt>
<trkpt lat="-6.2483808" lon="106.9957747"><time>2026-01-01T01:08:43.220000Z</time></trkpt>
<trkpt lat="-6.2484134" lon="106.9958336"><time>2026-01-01T01:08:44.220000Z</time></trkpt>
<trkpt lat="-6.2484460" lon="106.9958925"><time>2026-01-01T01:08:45.220000Z</time></trkpt>
<trkpt lat="-6.2484786" lon="106.9959514"><time>2026-01-01T01:08:46.220000Z</time></trkpt>
<trkpt lat="-6.2485112" lon="106.9960103"><time>2026-01-01T01:08:47.220000Z</time></trkpt>
<trkpt lat="-6.2485438" lon="106.9960692"><time>2026-01-01T01:08:48.220000Z</time></trkpt>
<trkpt lat="-6.2485764" lon="106.9961281"><time>2026-01-01T01:08:49.220000Z</time></trkpt>
<trkpt lat="-6.2486090" lon="106.9961870"><time>2026-01-01T01:08:50.220000Z</time></trkpt>
<trkpt lat="-6.2486360" lon="106.9962433"><time>2026-01-01T01:08:51.220000Z</time></trkpt>
<trkpt lat="-6.2486630" lon="106.9962995"><time>2026-01-01T01:08:52.220000Z</time></trkpt>
<trkpt lat="-6.2486900" lon="106.9963558"><time>2026-01-01T01:08:53.220000Z</time></trkpt>
<trkpt lat="-6.2487170" lon="106.9964120"><time>2026-01-01T01:08:54.220000Z</time></trkpt>
<trkpt lat="-6.2487373" lon="106.9964653"><time>2026-01-01T01:08:55.220000Z</time></trkpt>
<trkpt lat="-6.2487577" lon="106.9965187"><time>2026-01-01T01:08:56.220000Z</time></trkpt>
<trkpt lat="-6.2487780" lon="106.9965720"><time>2026-01-01T01:08:57.220000Z</time></trkpt>
<trkpt lat="-6.2488040" lon="106.9966235"><time>2026-01-01T01:08:58.220000Z</time></trkpt>
<trkpt lat="-6.2488300" lon="106.9966750"><time>2026-01-01T01:08:59.220000Z</time></trkpt>
<trkpt lat="-6.2488580" lon="106.9967290"><time>2026-01-01T01:09:00.220000Z</time></trkpt>
<trkpt lat="-6.2488860" lon="106.9967830"><time>2026-01-01T01:09:01.220000Z</time></trkpt>
<trkpt lat="-6.2489228" lon="106.9968322"><time>2026-01-01T01:09:02.220000Z</time></trkpt>
<trkpt lat="-6.2489595" lon="106.9968815"><time>2026-01-01T01:09:03.220000Z</time></trkpt>
<trkpt lat="-6.2489962" lon="106.9969307"><time>2026-01-01T01:09:04.220000Z</time></trkpt>
<trkpt lat="-6.2490330" lon="106.9969800"><time>2026-01-01T01:09:05.220000Z</time></trkpt>
<trkpt lat="-6.2490565" lon="106.9970265"><time>2026-01-01T01:09:06.220000Z</time></trkpt>
<trkpt lat="-6.2490800" lon="106.9970730"><time>2026-01-01T01:09:07.220000Z</time></trkpt>
<trkpt lat="-6.2491098" lon="106.9971380"><time>2026-01-01T01:09:08.220000Z</time></trkpt>
<trkpt lat="-6.2491395" lon="106.9972030"><time>2026-01-01T01:09:09.220000Z</time></trkpt>
<trkpt lat="-6.2491692" lon="106.9972680"><time>2026-01-01T01:09:10.220000Z</time></trkpt>
<trkpt lat="-6.2491990" lon="106.9973330"><time>2026-01-01T01:09:11.220000Z</time></trkpt>
<trkpt lat="-6.2492170" lon="106.9973650"><time>2026-01-01T01:09:12.220000Z</time></trkpt>
<trkpt lat="-6.2492490" lon="106.9974250"><time>2026-01-01T01:09:13.220000Z</time></trkpt>
<trkpt lat="-6.2492810" lon="106.9974850"><time>2026-01-01T01:09:14.220000Z</time></trkpt>
<trkpt lat="-6.2493030" lon="106.9975260"><time>2026-01-01T01:09:15.220000Z</time></trkpt>
<trkpt lat="-6.2493384" lon="106.9975857"><time>2026-01-01T01:09:16.220000Z</time></trkpt>
<trkpt lat="-6.2493739" lon="106.9976453"><time>2026-01-01T01:09:17.220000Z</time></trkpt>
<trkpt lat="-6.2494093" lon="106.9977050"><time>2026-01-01T01:09:18.220000Z</time></trkpt>
<trkpt lat="-6.2494448" lon="106.9977647"><time>2026-01-01T01:09:19.220000Z</time></trkpt>
<trkpt lat="-6.2494802" lon="106.9978243"><time>2026-01-01T01:09:20.220000Z</time></trkpt>
<trkpt lat="-6.2495157" lon="106.9978840"><time>2026-01-01T01:09:21.220000Z</time></trkpt>
<trkpt lat="-6.2495511" lon="106.9979437"><time>2026-01-01T01:09:22.220000Z</time></trkpt>
<trkpt lat="-6.2495866" lon="106.9980033"><time>2026-01-01T01:09:23.220000Z</time></trkpt>
<trkpt lat="-6.2496220" lon="106.9980630"><time>2026-01-01T01:09:24.220000Z</time></trkpt>
<trkpt lat="-6.2496527" lon="106.9981117"><time>2026-01-01T01:09:25.220000Z</time></trkpt>
<trkpt lat="-6.2496833" lon="106.9981603"><time>2026-01-01T01:09:26.220000Z</time></trkpt>
<trkpt lat="-6.2497140" lon="106.9982090"><time>2026-01-01T01:09:27.220000Z</time></trkpt>
<trkpt lat="-6.2497580" lon="106.9982605"><time>2026-01-01T01:09:28.220000Z</time></trkpt>
<trkpt lat="-6.2498020" lon="106.9983120"><time>2026-01-01T01:09:29.220000Z</time></trkpt>
<trkpt lat="-6.2498366" lon="106.9983701"><time>2026-01-01T01:09:30.220000Z</time></trkpt>
<trkpt lat="-6.2498712" lon="106.9984283"><time>2026-01-01T01:09:31.220000Z</time></trkpt>
<trkpt lat="-6.2499058" lon="106.9984864"><time>2026-01-01T01:09:32.220000Z</time></trkpt>
<trkpt lat="-6.2499404" lon="106.9985445"><time>2026-01-01T01:09:33.220000Z</time></trkpt>
<trkpt lat="-6.2499750" lon="106.9986027"><time>2026-01-01T01:09:34.220000Z</time></trkpt>
<trkpt lat="-6.2500096" lon="106.9986608"><time>2026-01-01T01:09:35.220000Z</time></trkpt>
<trkpt lat="-6.2500442" lon="106.9987189"><time>2026-01-01T01:09:36.220000Z</time></trkpt>
<trkpt lat="-6.2500788" lon="106.9987771"><time>2026-01-01T01:09:37.220000Z</time></trkpt>
<trkpt lat="-6.2501134" lon="106.9988352"><time>2026-01-01T01:09:38.220000Z</time></trkpt>
<trkpt lat="-6.2501480" lon="106.9988933"><time>2026-01-01T01:09:39.220000Z</time></trkpt>
<trkpt lat="-6.2501826" lon="106.9989515"><time>2026-01-01T01:09:40.220000Z</time></trkpt>
<trkpt lat="-6.2502172" lon="106.9990096"><time>2026-01-01T01:09:41.220000Z</time></trkpt>
<trkpt lat="-6.2502518" lon="106.9990677"><time>2026-01-01T01:09:42.220000Z</time></trkpt>
<trkpt lat="-6.2502864" lon="106.9991259"><time>2026-01-01T01:09:43.220000Z</time></trkpt>
<trkpt lat="-6.2503210" lon="106.9991840"><time>2026-01-01T01:09:44.220000Z</time></trkpt>
<trkpt lat="-6.2503582" lon="106.9992445"><time>2026-01-01T01:09:45.220000Z</time></trkpt>
<trkpt lat="-6.2503954" lon="106.9993051"><time>2026-01-01T01:09:46.220000Z</time></trkpt>
<trkpt lat="-6.2504325" lon="106.9993656"><time>2026-01-01T01:09:47.220000Z</time></trkpt>
<trkpt lat="-6.2504697" lon="106.9994262"><time>2026-01-01T01:09:48.220000Z</time></trkpt>
<trkpt lat="-6.2505069" lon="106.9994867"><time>2026-01-01T01:09:49.220000Z</time></trkpt>
<trkpt lat="-6.2505441" lon="106.9995473"><time>2026-01-01T01:09:50.220000Z</time></trkpt>
<trkpt lat="-6.2505813" lon="106.9996078"><time>2026-01-01T01:09:51.220000Z</time></trkpt>
<trkpt lat="-6.2506185" lon="106.9996684"><time>2026-01-01T01:09:52.220000Z</time></trkpt>
<trkpt lat="-6.2506556" lon="106.9997289"><time>2026-01-01T01:09:53.220000Z</time></trkpt>
<trkpt lat="-6.2506928" lon="106.9997895"><time>2026-01-01T01:09:54.220000Z</time></trkpt>
<trkpt lat="-6.2507300" lon="106.9998500"><time>2026-01-01T01:09:55.220000Z</time></trkpt>
<trkpt lat="-6.2506760" lon="106.9998895"><time>2026-01-01T01:09:56.220000Z</time></trkpt>
<trkpt lat="-6.2506220" lon="106.9999290"><time>2026-01-01T01:09:57.220000Z</time></trkpt>
<trkpt lat="-6.2505611" lon="106.9999626"><time>2026-01-01T01:09:58.220000Z</time></trkpt>
<trkpt lat="-6.2505002" lon="106.9999962"><time>2026-01-01T01:09:59.220000Z</time></trkpt>
<trkpt lat="-6.2504394" lon="107.0000299"><time>2026-01-01T01:10:00.220000Z</time></trkpt>
<trkpt lat="-6.2503785" lon="107.0000635"><time>2026-01-01T01:10:01.220000Z</time></trkpt>
<trkpt lat="-6.2503176" lon="107.0000971"><time>2026-01-01T01:10:02.220000Z</time></trkpt>
<trkpt lat="-6.2502568" lon="107.0001307"><time>2026-01-01T01:10:03.220000Z</time></trkpt>
<trkpt lat="-6.2501959" lon="107.0001644"><time>2026-01-01T01:10:04.220000Z</time></trkpt>
<trkpt lat="-6.2501350" lon="107.0001980"><time>2026-01-01T01:10:05.220000Z</time></trkpt>
<trkpt lat="-6.2501140" lon="107.0002360"><time>2026-01-01T01:10:06.220000Z</time></trkpt>
<trkpt lat="-6.2500800" lon="107.0002510"><time>2026-01-01T01:10:07.220000Z</time></trkpt>
<trkpt lat="-6.2500228" lon="107.0002745"><time>2026-01-01T01:10:08.220000Z</time></trkpt>
<trkpt lat="-6.2499657" lon="107.0002980"><time>2026-01-01T01:10:09.220000Z</time></trkpt>
<trkpt lat="-6.2499085" lon="107.0003215"><time>2026-01-01T01:10:10.220000Z</time></trkpt>
<trkpt lat="-6.2498513" lon="107.0003450"><time>2026-01-01T01:10:11.220000Z</time></trkpt>
<trkpt lat="-6.2497942" lon="107.0003685"><time>2026-01-01T01:10:12.220000Z</time></trkpt>
<trkpt lat="-6.2497370" lon="107.0003920"><time>2026-01-01T01:10:13.220000Z</time></trkpt>
<trkpt lat="-6.2497590" lon="107.0004437"><time>2026-01-01T01:10:14.220000Z</time></trkpt>
<trkpt lat="-6.2497810" lon="107.0004953"><time>2026-01-01T01:10:15.220000Z</time></trkpt>
<trkpt lat="-6.2498030" lon="107.0005470"><time>2026-01-01T01:10:16.220000Z</time></trkpt>
<trkpt lat="-6.2498267" lon="107.0005963"><time>2026-01-01T01:10:17.220000Z</time></trkpt>
<trkpt lat="-6.2498503" lon="107.0006457"><time>2026-01-01T01:10:18.220000Z</time></trkpt>
<trkpt lat="-6.2498740" lon="107.0006950"><time>2026-01-01T01:10:19.220000Z</time></trkpt>
<trkpt lat="-6.2498975" lon="107.0007265"><time>2026-01-01T01:10:20.220000Z</time></trkpt>
<trkpt lat="-6.2499210" lon="107.0007580"><time>2026-01-01T01:10:21.220000Z</time></trkpt>
</trkseg></trk></gpx>
