<?xml version="1.0" encoding="UTF-8"?>
<gpx version="1.1" creator="GPX Inspector" xmlns="http://www.topografix.com/GPX/1/1"><trk><name>Tangerang Dense Motorcycle Demo</name><trkseg>
<trkpt lat="-6.1783340" lon="106.6319840"><time>2026-01-01T01:00:00Z</time></trkpt>
<trkpt lat="-6.1782945" lon="106.6320005"><time>2026-01-01T01:00:01Z</time></trkpt>
<trkpt lat="-6.1782550" lon="106.6320170"><time>2026-01-01T01:00:02Z</time></trkpt>
<trkpt lat="-6.1782008" lon="106.6320503"><time>2026-01-01T01:00:03Z</time></trkpt>
<trkpt lat="-6.1781467" lon="106.6320837"><time>2026-01-01T01:00:04Z</time></trkpt>
<trkpt lat="-6.1780925" lon="106.6321170"><time>2026-01-01T01:00:05Z</time></trkpt>
<trkpt lat="-6.1780383" lon="106.6321503"><time>2026-01-01T01:00:06Z</time></trkpt>
<trkpt lat="-6.1779842" lon="106.6321837"><time>2026-01-01T01:00:07Z</time></trkpt>
<trkpt lat="-6.1779300" lon="106.6322170"><time>2026-01-01T01:00:08Z</time></trkpt>
<trkpt lat="-6.1779310" lon="106.6322410"><time>2026-01-01T01:00:09Z</time></trkpt>
<trkpt lat="-6.1779318" lon="106.6323000"><time>2026-01-01T01:00:10Z</time></trkpt>
<trkpt lat="-6.1779326" lon="106.6323590"><time>2026-01-01T01:00:11Z</time></trkpt>
<trkpt lat="-6.1779334" lon="106.6324180"><time>2026-01-01T01:00:12Z</time></trkpt>
<trkpt lat="-6.1779342" lon="106.6324770"><time>2026-01-01T01:00:13Z</time></trkpt>
<trkpt lat="-6.1779350" lon="106.6325360"><time>2026-01-01T01:00:14Z</time></trkpt>
<trkpt lat="-6.1779330" lon="106.6326015"><time>2026-01-01T01:00:15Z</time></trkpt>
<trkpt lat="-6.1779310" lon="106.6326670"><time>2026-01-01T01:00:16Z</time></trkpt>
<trkpt lat="-6.1779290" lon="106.6327325"><time>2026-01-01T01:00:17Z</time></trkpt>
<trkpt lat="-6.1779270" lon="106.6327980"><time>2026-01-01T01:00:18Z</time></trkpt>
<trkpt lat="-6.1779250" lon="106.6328635"><time>2026-01-01T01:00:19Z</time></trkpt>
<trkpt lat="-6.1779230" lon="106.6329290"><time>2026-01-01T01:00:20Z</time></trkpt>
<trkpt lat="-6.1779195" lon="106.6329860"><time>2026-01-01T01:00:21Z</time></trkpt>
<trkpt lat="-6.1779160" lon="106.6330430"><time>2026-01-01T01:00:22Z</time></trkpt>
<trkpt lat="-6.1779135" lon="106.6330875"><time>2026-01-01T01:00:23Z</time></trkpt>
<trkpt lat="-6.1779110" lon="106.6331320"><time>2026-01-01T01:00:24Z</time></trkpt>
<trkpt lat="-6.1779053" lon="106.6331817"><time>2026-01-01T01:00:25Z</time></trkpt>
<trkpt lat="-6.1778997" lon="106.6332313"><time>2026-01-01T01:00:26Z</time></trkpt>
<trkpt lat="-6.1778940" lon="106.6332810"><time>2026-01-01T01:00:27Z</time></trkpt>
<trkpt lat="-6.1778840" lon="106.6333390"><time>2026-01-01T01:00:28Z</time></trkpt>
<trkpt lat="-6.1779140" lon="106.6334030"><time>2026-01-01T01:00:29Z</time></trkpt>
<trkpt lat="-6.1779365" lon="106.6334330"><time>2026-01-01T01:00:30Z</time></trkpt>
<trkpt lat="-6.1779590" lon="106.6334630"><time>2026-01-01T01:00:31Z</time></trkpt>
<trkpt lat="-6.1780045" lon="106.6334830"><time>2026-01-01T01:00:32Z</time></trkpt>
<trkpt lat="-6.1780500" lon="106.6335030"><time>2026-01-01T01:00:33Z</time></trkpt>
<trkpt lat="-6.1780935" lon="106.6335010"><time>2026-01-01T01:00:34Z</time></trkpt>
<trkpt lat="-6.1781370" lon="106.6334990"><time>2026-01-01T01:00:35Z</time></trkpt>
<trkpt lat="-6.1781877" lon="106.6334970"><time>2026-01-01T01:00:36Z</time></trkpt>
<trkpt lat="-6.1782383" lon="106.6334950"><time>2026-01-01T01:00:37Z</time></trkpt>
<trkpt lat="-6.1782890" lon="106.6334930"><time>2026-01-01T01:00:38Z</time></trkpt>
<trkpt lat="-6.1783533" lon="106.6334910"><time>2026-01-01T01:00:39Z</time></trkpt>
<trkpt lat="-6.1784177" lon="106.6334890"><time>2026-01-01T01:00:40Z</time></trkpt>
<trkpt lat="-6.1784820" lon="106.6334870"><time>2026-01-01T01:00:41Z</time></trkpt>
<trkpt lat="-6.1785497" lon="106.6334860"><time>2026-01-01T01:00:42Z</time></trkpt>
<trkpt lat="-6.1786173" lon="106.6334850"><time>2026-01-01T01:00:43Z</time></trkpt>
<trkpt lat="-6.1786850" lon="106.6334840"><time>2026-01-01T01:00:44Z</time></trkpt>
<trkpt lat="-6.1787521" lon="106.6334750"><time>2026-01-01T01:00:45Z</time></trkpt>
<trkpt lat="-6.1788192" lon="106.6334660"><time>2026-01-01T01:00:46Z</time></trkpt>
<trkpt lat="-6.1788863" lon="106.6334570"><time>2026-01-01T01:00:47Z</time></trkpt>
<trkpt lat="-6.1789534" lon="106.6334480"><time>2026-01-01T01:00:48Z</time></trkpt>
<trkpt lat="-6.1790206" lon="106.6334390"><time>2026-01-01T01:00:49Z</time></trkpt>
<trkpt lat="-6.1790877" lon="106.6334300"><time>2026-01-01T01:00:50Z</time></trkpt>
<trkpt lat="-6.1791548" lon="106.6334210"><time>2026-01-01T01:00:51Z</time></trkpt>
<trkpt lat="-6.1792219" lon="106.6334120"><time>2026-01-01T01:00:52Z</time></trkpt>
<trkpt lat="-6.1792890" lon="106.6334030"><time>2026-01-01T01:00:53Z</time></trkpt>
<trkpt lat="-6.1793502" lon="106.6333978"><time>2026-01-01T01:00:54Z</time></trkpt>
<trkpt lat="-6.1794115" lon="106.6333925"><time>2026-01-01T01:00:55Z</time></trkpt>
<trkpt lat="-6.1794728" lon="106.6333872"><time>2026-01-01T01:00:56Z</time></trkpt>
<trkpt lat="-6.1795340" lon="106.6333820"><time>2026-01-01T01:00:57Z</time></trkpt>
<trkpt lat="-6.1795888" lon="106.6333812"><time>2026-01-01T01:00:58Z</time></trkpt>
<trkpt lat="-6.1796435" lon="106.6333805"><time>2026-01-01T01:00:59Z</time></trkpt>
<trkpt lat="-6.1796982" lon="106.6333798"><time>2026-01-01T01:01:00Z</time></trkpt>
<trkpt lat="-6.1797530" lon="106.6333790"><time>2026-01-01T01:01:01Z</time></trkpt>
<trkpt lat="-6.1798108" lon="106.6333798"><time>2026-01-01T01:01:02Z</time></trkpt>
<trkpt lat="-6.1798686" lon="106.6333806"><time>2026-01-01T01:01:03Z</time></trkpt>
<trkpt lat="-6.1799264" lon="106.6333814"><time>2026-01-01T01:01:04Z</time></trkpt>
<trkpt lat="-6.1799842" lon="106.6333822"><time>2026-01-01T01:01:05Z</time></trkpt>
<trkpt lat="-6.1800420" lon="106.6333830"><time>2026-01-01T01:01:06Z</time></trkpt>
<trkpt lat="-6.1801120" lon="106.6333820"><time>2026-01-01T01:01:07Z</time></trkpt>
<trkpt lat="-6.1801760" lon="106.6333835"><time>2026-01-01T01:01:08Z</time></trkpt>
<trkpt lat="-6.1802400" lon="106.6333850"><time>2026-01-01T01:01:09Z</time></trkpt>
<trkpt lat="-6.1803040" lon="106.6333865"><time>2026-01-01T01:01:10Z</time></trkpt>
<trkpt lat="-6.1803680" lon="106.6333880"><time>2026-01-01T01:01:11Z</time></trkpt>
<trkpt lat="-6.1804320" lon="106.6333895"><time>2026-01-01T01:01:12Z</time></trkpt>
<trkpt lat="-6.1804960" lon="106.6333910"><time>2026-01-01T01:01:13Z</time></trkpt>
<trkpt lat="-6.1805638" lon="106.6333947"><time>2026-01-01T01:01:14Z</time></trkpt>
<trkpt lat="-6.1806316" lon="106.6333983"><time>2026-01-01T01:01:15Z</time></trkpt>
<trkpt lat="-6.1806993" lon="106.6334020"><time>2026-01-01T01:01:16Z</time></trkpt>
<trkpt lat="-6.1807671" lon="106.6334057"><time>2026-01-01T01:01:17Z</time></trkpt>
<trkpt lat="-6.1808349" lon="106.6334093"><time>2026-01-01T01:01:18Z</time></trkpt>
<trkpt lat="-6.1809027" lon="106.6334130"><time>2026-01-01T01:01:19Z</time></trkpt>
<trkpt lat="-6.1809704" lon="106.6334167"><time>2026-01-01T01:01:20Z</time></trkpt>
<trkpt lat="-6.1810382" lon="106.6334203"><time>2026-01-01T01:01:21Z</time></trkpt>
<trkpt lat="-6.1811060" lon="106.6334240"><time>2026-01-01T01:01:22Z</time></trkpt>
<trkpt lat="-6.1811714" lon="106.6334278"><time>2026-01-01T01:01:23Z</time></trkpt>
<trkpt lat="-6.1812368" lon="106.6334315"><time>2026-01-01T01:01:24Z</time></trkpt>
<trkpt lat="-6.1813021" lon="106.6334353"><time>2026-01-01T01:01:25Z</time></trkpt>
<trkpt lat="-6.1813675" lon="106.6334390"><time>2026-01-01T01:01:26Z</time></trkpt>
<trkpt lat="-6.1814329" lon="106.6334428"><time>2026-01-01T01:01:27Z</time></trkpt>
<trkpt lat="-6.1814982" lon="106.6334465"><time>2026-01-01T01:01:28Z</time></trkpt>
<trkpt lat="-6.1815636" lon="106.6334502"><time>2026-01-01T01:01:29Z</time></trkpt>
<trkpt lat="-6.1816290" lon="106.6334540"><time>2026-01-01T01:01:30Z</time></trkpt>
<trkpt lat="-6.1816855" lon="106.6334570"><time>2026-01-01T01:01:31Z</time></trkpt>
<trkpt lat="-6.1817420" lon="106.6334600"><time>2026-01-01T01:01:32Z</time></trkpt>
<trkpt lat="-6.1817985" lon="106.6334630"><time>2026-01-01T01:01:33Z</time></trkpt>
<trkpt lat="-6.1818550" lon="106.6334660"><time>2026-01-01T01:01:34Z</time></trkpt>
<trkpt lat="-6.1819130" lon="106.6334650"><time>2026-01-01T01:01:35Z</time></trkpt>
<trkpt lat="-6.1819840" lon="106.6334650"><time>2026-01-01T01:01:36Z</time></trkpt>
<trkpt lat="-6.1820550" lon="106.6334650"><time>2026-01-01T01:01:37Z</time></trkpt>
<trkpt lat="-6.1821260" lon="106.6334650"><time>2026-01-01T01:01:38Z</time></trkpt>
<trkpt lat="-6.1821960" lon="106.6334616"><time>2026-01-01T01:01:39Z</time></trkpt>
<trkpt lat="-6.1822660" lon="106.6334583"><time>2026-01-01T01:01:40Z</time></trkpt>
<trkpt lat="-6.1823360" lon="106.6334549"><time>2026-01-01T01:01:41Z</time></trkpt>
<trkpt lat="-6.1824060" lon="106.6334515"><time>2026-01-01T01:01:42Z</time></trkpt>
<trkpt lat="-6.1824760" lon="106.6334481"><time>2026-01-01T01:01:43Z</time></trkpt>
<trkpt lat="-6.1825460" lon="106.6334447"><time>2026-01-01T01:01:44Z</time></trkpt>
<trkpt lat="-6.1826160" lon="106.6334414"><time>2026-01-01T01:01:45Z</time></trkpt>
<trkpt lat="-6.1826860" lon="106.6334380"><time>2026-01-01T01:01:46Z</time></trkpt>
<trkpt lat="-6.1827535" lon="106.6334335"><time>2026-01-01T01:01:47Z</time></trkpt>
<trkpt lat="-6.1828210" lon="106.6334290"><time>2026-01-01T01:01:48Z</time></trkpt>
<trkpt lat="-6.1828925" lon="106.6334270"><time>2026-01-01T01:01:49Z</time></trkpt>
<trkpt lat="-6.1829640" lon="106.6334250"><time>2026-01-01T01:01:50Z</time></trkpt>
<trkpt lat="-6.1830288" lon="106.6334300"><time>2026-01-01T01:01:51Z</time></trkpt>
<trkpt lat="-6.1830937" lon="106.6334350"><time>2026-01-01T01:01:52Z</time></trkpt>
<trkpt lat="-6.1831585" lon="106.6334400"><time>2026-01-01T01:01:53Z</time></trkpt>
<trkpt lat="-6.1832233" lon="106.6334450"><time>2026-01-01T01:01:54Z</time></trkpt>
<trkpt lat="-6.1832882" lon="106.6334500"><time>2026-01-01T01:01:55Z</time></trkpt>
<trkpt lat="-6.1833530" lon="106.6334550"><time>2026-01-01T01:01:56Z</time></trkpt>
<trkpt lat="-6.1834140" lon="106.6334597"><time>2026-01-01T01:01:57Z</time></trkpt>
<trkpt lat="-6.1834750" lon="106.6334643"><time>2026-01-01T01:01:58Z</time></trkpt>
<trkpt lat="-6.1835360" lon="106.6334690"><time>2026-01-01T01:01:59Z</time></trkpt>
<trkpt lat="-6.1835775" lon="106.6334745"><time>2026-01-01T01:02:00Z</time></trkpt>
<trkpt lat="-6.1836190" lon="106.6334800"><time>2026-01-01T01:02:01Z</time></trkpt>
<trkpt lat="-6.1836880" lon="106.6334852"><time>2026-01-01T01:02:02Z</time></trkpt>
<trkpt lat="-6.1837570" lon="106.6334903"><time>2026-01-01T01:02:03Z</time></trkpt>
<trkpt lat="-6.1838260" lon="106.6334955"><time>2026-01-01T01:02:04Z</time></trkpt>
<trkpt lat="-6.1838950" lon="106.6335007"><time>2026-01-01T01:02:05Z</time></trkpt>
<trkpt lat="-6.1839640" lon="106.6335058"><time>2026-01-01T01:02:05.180000Z</time></trkpt>
<trkpt lat="-6.1840330" lon="106.6335110"><time>2026-01-01T01:02:05.360000Z</time></trkpt>
<trkpt lat="-6.1840815" lon="106.6335125"><time>2026-01-01T01:02:05.540000Z</time></trkpt>
<trkpt lat="-6.1841300" lon="106.6335140"><time>2026-01-01T01:02:05.720000Z</time></trkpt>
<trkpt lat="-6.1841908" lon="106.6335177"><time>2026-01-01T01:02:06.720000Z</time></trkpt>
<trkpt lat="-6.1842517" lon="106.6335213"><time>2026-01-01T01:02:07.720000Z</time></trkpt>
<trkpt lat="-6.1843125" lon="106.6335250"><time>2026-01-01T01:02:08.720000Z</time></trkpt>
<trkpt lat="-6.1843733" lon="106.6335287"><time>2026-01-01T01:02:09.720000Z</time></trkpt>
<trkpt lat="-6.1844342" lon="106.6335323"><time>2026-01-01T01:02:10.720000Z</time></trkpt>
<trkpt lat="-6.1844950" lon="106.6335360"><time>2026-01-01T01:02:11.720000Z</time></trkpt>
<trkpt lat="-6.1845545" lon="106.6335393"><time>2026-01-01T01:02:12.720000Z</time></trkpt>
<trkpt lat="-6.1846140" lon="106.6335425"><time>2026-01-01T01:02:13.720000Z</time></trkpt>
<trkpt lat="-6.1846735" lon="106.6335457"><time>2026-01-01T01:02:14.720000Z</time></trkpt>
<trkpt lat="-6.1847330" lon="106.6335490"><time>2026-01-01T01:02:15.720000Z</time></trkpt>
<trkpt lat="-6.1847980" lon="106.6335520"><time>2026-01-01T01:02:16.720000Z</time></trkpt>
<trkpt lat="-6.1848670" lon="106.6335585"><time>2026-01-01T01:02:17.720000Z</time></trkpt>
<trkpt lat="-6.1849360" lon="106.6335650"><time>2026-01-01T01:02:18.720000Z</time></trkpt>
<trkpt lat="-6.1850050" lon="106.6335715"><time>2026-01-01T01:02:19.720000Z</time></trkpt>
<trkpt lat="-6.1850740" lon="106.6335780"><time>2026-01-01T01:02:20.720000Z</time></trkpt>
<trkpt lat="-6.1851120" lon="106.6335800"><time>2026-01-01T01:02:21.720000Z</time></trkpt>
<trkpt lat="-6.1851500" lon="106.6335820"><time>2026-01-01T01:02:22.720000Z</time></trkpt>
<trkpt lat="-6.1851930" lon="106.6335775"><time>2026-01-01T01:02:23.720000Z</time></trkpt>
<trkpt lat="-6.1852360" lon="106.6335730"><time>2026-01-01T01:02:24.720000Z</time></trkpt>
<trkpt lat="-6.1852735" lon="106.6335610"><time>2026-01-01T01:02:25.720000Z</time></trkpt>
<trkpt lat="-6.1853110" lon="106.6335490"><time>2026-01-01T01:02:26.720000Z</time></trkpt>
<trkpt lat="-6.1853745" lon="106.6335248"><time>2026-01-01T01:02:27.720000Z</time></trkpt>
<trkpt lat="-6.1854380" lon="106.6335005"><time>2026-01-01T01:02:28.720000Z</time></trkpt>
<trkpt lat="-6.1855015" lon="106.6334763"><time>2026-01-01T01:02:29.720000Z</time></trkpt>
<trkpt lat="-6.1855650" lon="106.6334520"><time>2026-01-01T01:02:30.720000Z</time></trkpt>
<trkpt lat="-6.1856107" lon="106.6334310"><time>2026-01-01T01:02:31.720000Z</time></trkpt>
<trkpt lat="-6.1856563" lon="106.6334100"><time>2026-01-01T01:02:32.720000Z</time></trkpt>
<trkpt lat="-6.1857020" lon="106.6333890"><time>2026-01-01T01:02:33.720000Z</time></trkpt>
<trkpt lat="-6.1857420" lon="106.6333770"><time>2026-01-01T01:02:34.720000Z</time></trkpt>
<trkpt lat="-6.1857820" lon="106.6333650"><time>2026-01-01T01:02:35.720000Z</time></trkpt>
<trkpt lat="-6.1858360" lon="106.6333560"><time>2026-01-01T01:02:36.720000Z</time></trkpt>
<trkpt lat="-6.1858755" lon="106.6333555"><time>2026-01-01T01:02:37.720000Z</time></trkpt>
<trkpt lat="-6.1859150" lon="106.6333550"><time>2026-01-01T01:02:38.720000Z</time></trkpt>
<trkpt lat="-6.1859655" lon="106.6333580"><time>2026-01-01T01:02:39.720000Z</time></trkpt>
<trkpt lat="-6.1860160" lon="106.6333610"><time>2026-01-01T01:02:40.720000Z</time></trkpt>
<trkpt lat="-6.1860460" lon="106.6333840"><time>2026-01-01T01:02:41.720000Z</time></trkpt>
<trkpt lat="-6.1860785" lon="106.6334115"><time>2026-01-01T01:02:42.720000Z</time></trkpt>
<trkpt lat="-6.1861110" lon="106.6334390"><time>2026-01-01T01:02:43.720000Z</time></trkpt>
<trkpt lat="-6.1861713" lon="106.6334732"><time>2026-01-01T01:02:44.720000Z</time></trkpt>
<trkpt lat="-6.1862315" lon="106.6335075"><time>2026-01-01T01:02:45.720000Z</time></trkpt>
<trkpt lat="-6.1862918" lon="106.6335417"><time>2026-01-01T01:02:46.720000Z</time></trkpt>
<trkpt lat="-6.1863520" lon="106.6335760"><time>2026-01-01T01:02:47.720000Z</time></trkpt>
<trkpt lat="-6.1864123" lon="106.6336102"><time>2026-01-01T01:02:48.720000Z</time></trkpt>
<trkpt lat="-6.1864725" lon="106.6336445"><time>2026-01-01T01:02:49.720000Z</time></trkpt>
<trkpt lat="-6.1865328" lon="106.6336788"><time>2026-01-01T01:02:50.720000Z</time></trkpt>
<trkpt lat="-6.1865930" lon="106.6337130"><time>2026-01-01T01:02:51.720000Z</time></trkpt>
<trkpt lat="-6.1866532" lon="106.6337472"><time>2026-01-01T01:02:52.720000Z</time></trkpt>
<trkpt lat="-6.1867135" lon="106.6337815"><time>2026-01-01T01:02:53.720000Z</time></trkpt>
<trkpt lat="-6.1867738" lon="106.6338157"><time>2026-01-01T01:02:54.720000Z</time></trkpt>
<trkpt lat="-6.1868340" lon="106.6338500"><time>2026-01-01T01:02:55.720000Z</time></trkpt>
<trkpt lat="-6.1868156" lon="106.6339130"><time>2026-01-01T01:02:56.720000Z</time></trkpt>
<trkpt lat="-6.1867971" lon="106.6339760"><time>2026-01-01T01:02:57.720000Z</time></trkpt>
<trkpt lat="-6.1867787" lon="106.6340390"><time>2026-01-01T01:02:58.720000Z</time></trkpt>
<trkpt lat="-6.1867603" lon="106.6341020"><time>2026-01-01T01:02:59.720000Z</time></trkpt>
<trkpt lat="-6.1867419" lon="106.6341650"><time>2026-01-01T01:03:00.720000Z</time></trkpt>
<trkpt lat="-6.1867234" lon="106.6342280"><time>2026-01-01T01:03:01.720000Z</time></trkpt>
<trkpt lat="-6.1867050" lon="106.6342910"><time>2026-01-01T01:03:02.720000Z</time></trkpt>
<trkpt lat="-6.1866925" lon="106.6343385"><time>2026-01-01T01:03:03.720000Z</time></trkpt>
<trkpt lat="-6.1866800" lon="106.6343860"><time>2026-01-01T01:03:04.720000Z</time></trkpt>
<trkpt lat="-6.1866672" lon="106.6344457"><time>2026-01-01T01:03:05.720000Z</time></trkpt>
<trkpt lat="-6.1866543" lon="106.6345053"><time>2026-01-01T01:03:06.720000Z</time></trkpt>
<trkpt lat="-6.1866415" lon="106.6345650"><time>2026-01-01T01:03:07.720000Z</time></trkpt>
<trkpt lat="-6.1866287" lon="106.6346247"><time>2026-01-01T01:03:08.720000Z</time></trkpt>
<trkpt lat="-6.1866158" lon="106.6346843"><time>2026-01-01T01:03:09.720000Z</time></trkpt>
<trkpt lat="-6.1866030" lon="106.6347440"><time>2026-01-01T01:03:10.720000Z</time></trkpt>
<trkpt lat="-6.1865890" lon="106.6348078"><time>2026-01-01T01:03:11.720000Z</time></trkpt>
<trkpt lat="-6.1865750" lon="106.6348717"><time>2026-01-01T01:03:12.720000Z</time></trkpt>
<trkpt lat="-6.1865610" lon="106.6349355"><time>2026-01-01T01:03:13.720000Z</time></trkpt>
<trkpt lat="-6.1865470" lon="106.6349993"><time>2026-01-01T01:03:14.720000Z</time></trkpt>
<trkpt lat="-6.1865330" lon="106.6350632"><time>2026-01-01T01:03:15.720000Z</time></trkpt>
<trkpt lat="-6.1865190" lon="106.6351270"><time>2026-01-01T01:03:16.720000Z</time></trkpt>
<trkpt lat="-6.1865075" lon="106.6351805"><time>2026-01-01T01:03:17.720000Z</time></trkpt>
<trkpt lat="-6.1864960" lon="106.6352340"><time>2026-01-01T01:03:18.720000Z</time></trkpt>
<trkpt lat="-6.1864845" lon="106.6352875"><time>2026-01-01T01:03:19.720000Z</time></trkpt>
<trkpt lat="-6.1864730" lon="106.6353410"><time>2026-01-01T01:03:20.720000Z</time></trkpt>
<trkpt lat="-6.1864620" lon="106.6353910"><time>2026-01-01T01:03:21.720000Z</time></trkpt>
<trkpt lat="-6.1864578" lon="106.6354534"><time>2026-01-01T01:03:22.720000Z</time></trkpt>
<trkpt lat="-6.1864536" lon="106.6355158"><time>2026-01-01T01:03:23.720000Z</time></trkpt>
<trkpt lat="-6.1864494" lon="106.6355782"><time>2026-01-01T01:03:24.720000Z</time></trkpt>
<trkpt lat="-6.1864452" lon="106.6356406"><time>2026-01-01T01:03:25.720000Z</time></trkpt>
<trkpt lat="-6.1864410" lon="106.6357030"><time>2026-01-01T01:03:26.720000Z</time></trkpt>
<trkpt lat="-6.1864375" lon="106.6357580"><time>2026-01-01T01:03:27.720000Z</time></trkpt>
<trkpt lat="-6.1864340" lon="106.6358130"><time>2026-01-01T01:03:28.720000Z</time></trkpt>
<trkpt lat="-6.1864355" lon="106.6358675"><time>2026-01-01T01:03:29.720000Z</time></trkpt>
<trkpt lat="-6.1864370" lon="106.6359220"><time>2026-01-01T01:03:30.720000Z</time></trkpt>
<trkpt lat="-6.1864385" lon="106.6359765"><time>2026-01-01T01:03:31.720000Z</time></trkpt>
<trkpt lat="-6.1864400" lon="106.6360310"><time>2026-01-01T01:03:32.720000Z</time></trkpt>
<trkpt lat="-6.1864397" lon="106.6360977"><time>2026-01-01T01:03:33.720000Z</time></trkpt>
<trkpt lat="-6.1864393" lon="106.6361643"><time>2026-01-01T01:03:34.720000Z</time></trkpt>
<trkpt lat="-6.1864390" lon="106.6362310"><time>2026-01-01T01:03:35.720000Z</time></trkpt>
<trkpt lat="-6.1864411" lon="106.6363011"><time>2026-01-01T01:03:36.720000Z</time></trkpt>
<trkpt lat="-6.1864432" lon="106.6363712"><time>2026-01-01T01:03:37.720000Z</time></trkpt>
<trkpt lat="-6.1864453" lon="106.6364413"><time>2026-01-01T01:03:38.720000Z</time></trkpt>
<trkpt lat="-6.1864474" lon="106.6365114"><time>2026-01-01T01:03:39.720000Z</time></trkpt>
<trkpt lat="-6.1864496" lon="106.6365816"><time>2026-01-01T01:03:40.720000Z</time></trkpt>
<trkpt lat="-6.1864517" lon="106.6366517"><time>2026-01-01T01:03:41.720000Z</time></trkpt>
<trkpt lat="-6.1864538" lon="106.6367218"><time>2026-01-01T01:03:42.720000Z</time></trkpt>
<trkpt lat="-6.1864559" lon="106.6367919"><time>2026-01-01T01:03:43.720000Z</time></trkpt>
<trkpt lat="-6.1864580" lon="106.6368620"><time>2026-01-01T01:03:44.720000Z</time></trkpt>
<trkpt lat="-6.1864586" lon="106.6369310"><time>2026-01-01T01:03:45.720000Z</time></trkpt>
<trkpt lat="-6.1864591" lon="106.6370000"><time>2026-01-01T01:03:46.720000Z</time></trkpt>
<trkpt lat="-6.1864597" lon="106.6370690"><time>2026-01-01T01:03:47.720000Z</time></trkpt>
<trkpt lat="-6.1864603" lon="106.6371380"><time>2026-01-01T01:03:48.720000Z</time></trkpt>
<trkpt lat="-6.1864609" lon="106.6372070"><time>2026-01-01T01:03:49.720000Z</time></trkpt>
<trkpt lat="-6.1864614" lon="106.6372760"><time>2026-01-01T01:03:50.720000Z</time></trkpt>
<trkpt lat="-6.1864620" lon="106.6373450"><time>2026-01-01T01:03:51.720000Z</time></trkpt>
<trkpt lat="-6.1864553" lon="106.6373987"><time>2026-01-01T01:03:52.720000Z</time></trkpt>
<trkpt lat="-6.1864487" lon="106.6374523"><time>2026-01-01T01:03:53.720000Z</time></trkpt>
<trkpt lat="-6.1864420" lon="106.6375060"><time>2026-01-01T01:03:54.720000Z</time></trkpt>
<trkpt lat="-6.1864277" lon="106.6375577"><time>2026-01-01T01:03:55.720000Z</time></trkpt>
<trkpt lat="-6.1864133" lon="106.6376093"><time>2026-01-01T01:03:56.720000Z</time></trkpt>
<trkpt lat="-6.1863990" lon="106.6376610"><time>2026-01-01T01:03:57.720000Z</time></trkpt>
<trkpt lat="-6.1863654" lon="106.6377204"><time>2026-01-01T01:03:58.720000Z</time></trkpt>
<trkpt lat="-6.1863318" lon="106.6377798"><time>2026-01-01T01:03:59.720000Z</time></trkpt>
<trkpt lat="-6.1862982" lon="106.6378392"><time>2026-01-01T01:04:00.720000Z</time></trkpt>
<trkpt lat="-6.1862646" lon="106.6378986"><time>2026-01-01T01:04:01.720000Z</time></trkpt>
<trkpt lat="-6.1862310" lon="106.6379580"><time>2026-01-01T01:04:02.720000Z</time></trkpt>
<trkpt lat="-6.1862075" lon="106.6380180"><time>2026-01-01T01:04:03.720000Z</time></trkpt>
<trkpt lat="-6.1861840" lon="106.6380780"><time>2026-01-01T01:04:04.720000Z</time></trkpt>
<trkpt lat="-6.1861465" lon="106.6380875"><time>2026-01-01T01:04:05.720000Z</time></trkpt>
<trkpt lat="-6.1861090" lon="106.6380970"><time>2026-01-01T01:04:06.720000Z</time></trkpt>
<trkpt lat="-6.1860790" lon="106.6381215"><time>2026-01-01T01:04:07.720000Z</time></trkpt>
<trkpt lat="-6.1860490" lon="106.6381460"><time>2026-01-01T01:04:08.720000Z</time></trkpt>
<trkpt lat="-6.1860340" lon="106.6381700"><time>2026-01-01T01:04:12.220000Z</time></trkpt>
<trkpt lat="-6.1860120" lon="106.6382350"><time>2026-01-01T01:04:15.720000Z</time></trkpt>
<trkpt lat="-6.1860160" lon="106.6383040"><time>2026-01-01T01:04:19.220000Z</time></trkpt>
<trkpt lat="-6.1860460" lon="106.6383660"><time>2026-01-01T01:04:20.220000Z</time></trkpt>
<trkpt lat="-6.1860820" lon="106.6384030"><time>2026-01-01T01:04:21.220000Z</time></trkpt>
<trkpt lat="-6.1861370" lon="106.6384310"><time>2026-01-01T01:04:22.220000Z</time></trkpt>
<trkpt lat="-6.1861970" lon="106.6384390"><time>2026-01-01T01:04:23.220000Z</time></trkpt>
<trkpt lat="-6.1862380" lon="106.6384320"><time>2026-01-01T01:04:24.220000Z</time></trkpt>
<trkpt lat="-6.1862760" lon="106.6384170"><time>2026-01-01T01:04:25.220000Z</time></trkpt>
<trkpt lat="-6.1863065" lon="106.6383895"><time>2026-01-01T01:04:26.220000Z</time></trkpt>
<trkpt lat="-6.1863370" lon="106.6383620"><time>2026-01-01T01:04:27.220000Z</time></trkpt>
<trkpt lat="-6.1863525" lon="106.6383240"><time>2026-01-01T01:04:28.220000Z</time></trkpt>
<trkpt lat="-6.1863680" lon="106.6382860"><time>2026-01-01T01:04:29.220000Z</time></trkpt>
<trkpt lat="-6.1864200" lon="106.6382875"><time>2026-01-01T01:04:30.220000Z</time></trkpt>
<trkpt lat="-6.1864720" lon="106.6382890"><time>2026-01-01T01:04:31.220000Z</time></trkpt>
<trkpt lat="-6.1865431" lon="106.6382912"><time>2026-01-01T01:04:32.220000Z</time></trkpt>
<trkpt lat="-6.1866141" lon="106.6382934"><time>2026-01-01T01:04:33.220000Z</time></trkpt>
<trkpt lat="-6.1866852" lon="106.6382956"><time>2026-01-01T01:04:34.220000Z</time></trkpt>
<trkpt lat="-6.1867563" lon="106.6382977"><time>2026-01-01T01:04:35.220000Z</time></trkpt>
<trkpt lat="-6.1868273" lon="106.6382999"><time>2026-01-01T01:04:36.220000Z</time></trkpt>
<trkpt lat="-6.1868984" lon="106.6383021"><time>2026-01-01T01:04:37.220000Z</time></trkpt>
<trkpt lat="-6.1869694" lon="106.6383043"><time>2026-01-01T01:04:38.220000Z</time></trkpt>
<trkpt lat="-6.1870405" lon="106.6383065"><time>2026-01-01T01:04:39.220000Z</time></trkpt>
<trkpt lat="-6.1871116" lon="106.6383087"><time>2026-01-01T01:04:40.220000Z</time></trkpt>
<trkpt lat="-6.1871826" lon="106.6383109"><time>2026-01-01T01:04:41.220000Z</time></trkpt>
<trkpt lat="-6.1872537" lon="106.6383131"><time>2026-01-01T01:04:42.220000Z</time></trkpt>
<trkpt lat="-6.1873248" lon="106.6383153"><time>2026-01-01T01:04:43.220000Z</time></trkpt>
<trkpt lat="-6.1873958" lon="106.6383174"><time>2026-01-01T01:04:44.220000Z</time></trkpt>
<trkpt lat="-6.1874669" lon="106.6383196"><time>2026-01-01T01:04:45.220000Z</time></trkpt>
<trkpt lat="-6.1875379" lon="106.6383218"><time>2026-01-01T01:04:46.220000Z</time></trkpt>
<trkpt lat="-6.1876090" lon="106.6383240"><time>2026-01-01T01:04:47.220000Z</time></trkpt>
<trkpt lat="-6.1876738" lon="106.6383243"><time>2026-01-01T01:04:48.220000Z</time></trkpt>
<trkpt lat="-6.1877387" lon="106.6383247"><time>2026-01-01T01:04:49.220000Z</time></trkpt>
<trkpt lat="-6.1878035" lon="106.6383250"><time>2026-01-01T01:04:50.220000Z</time></trkpt>
<trkpt lat="-6.1878683" lon="106.6383253"><time>2026-01-01T01:04:51.220000Z</time></trkpt>
<trkpt lat="-6.1879332" lon="106.6383257"><time>2026-01-01T01:04:52.220000Z</time></trkpt>
<trkpt lat="-6.1879980" lon="106.6383260"><time>2026-01-01T01:04:53.220000Z</time></trkpt>
<trkpt lat="-6.1880697" lon="106.6383255"><time>2026-01-01T01:04:54.220000Z</time></trkpt>
<trkpt lat="-6.1881415" lon="106.6383251"><time>2026-01-01T01:04:55.220000Z</time></trkpt>
<trkpt lat="-6.1882132" lon="106.6383246"><time>2026-01-01T01:04:56.220000Z</time></trkpt>
<trkpt lat="-6.1882849" lon="106.6383242"><time>2026-01-01T01:04:57.220000Z</time></trkpt>
<trkpt lat="-6.1883566" lon="106.6383237"><time>2026-01-01T01:04:58.220000Z</time></trkpt>
<trkpt lat="-6.1884284" lon="106.6383233"><time>2026-01-01T01:04:59.220000Z</time></trkpt>
<trkpt lat="-6.1885001" lon="106.6383228"><time>2026-01-01T01:05:00.220000Z</time></trkpt>
<trkpt lat="-6.1885718" lon="106.6383224"><time>2026-01-01T01:05:01.220000Z</time></trkpt>
<trkpt lat="-6.1886435" lon="106.6383219"><time>2026-01-01T01:05:02.220000Z</time></trkpt>
<trkpt lat="-6.1887153" lon="106.6383215"><time>2026-01-01T01:05:03.220000Z</time></trkpt>
<trkpt lat="-6.1887870" lon="106.6383210"><time>2026-01-01T01:05:04.220000Z</time></trkpt>
<trkpt lat="-6.1888405" lon="106.6383220"><time>2026-01-01T01:05:05.220000Z</time></trkpt>
<trkpt lat="-6.1888940" lon="106.6383230"><time>2026-01-01T01:05:06.220000Z</time></trkpt>
<trkpt lat="-6.1889613" lon="106.6383241"><time>2026-01-01T01:05:07.220000Z</time></trkpt>
<trkpt lat="-6.1890287" lon="106.6383252"><time>2026-01-01T01:05:08.220000Z</time></trkpt>
<trkpt lat="-6.1890960" lon="106.6383263"><time>2026-01-01T01:05:09.220000Z</time></trkpt>
<trkpt lat="-6.1891633" lon="106.6383273"><time>2026-01-01T01:05:10.220000Z</time></trkpt>
<trkpt lat="-6.1892307" lon="106.6383284"><time>2026-01-01T01:05:11.220000Z</time></trkpt>
<trkpt lat="-6.1892980" lon="106.6383295"><time>2026-01-01T01:05:12.220000Z</time></trkpt>
<trkpt lat="-6.1893653" lon="106.6383306"><time>2026-01-01T01:05:13.220000Z</time></trkpt>
<trkpt lat="-6.1894327" lon="106.6383317"><time>2026-01-01T01:05:14.220000Z</time></trkpt>
<trkpt lat="-6.1895000" lon="106.6383327"><time>2026-01-01T01:05:15.220000Z</time></trkpt>
<trkpt lat="-6.1895673" lon="106.6383338"><time>2026-01-01T01:05:16.220000Z</time></trkpt>
<trkpt lat="-6.1896347" lon="106.6383349"><time>2026-01-01T01:05:17.220000Z</time></trkpt>
<trkpt lat="-6.1897020" lon="106.6383360"><time>2026-01-01T01:05:18.220000Z</time></trkpt>
<trkpt lat="-6.1897650" lon="106.6383337"><time>2026-01-01T01:05:19.220000Z</time></trkpt>
<trkpt lat="-6.1898280" lon="106.6383313"><time>2026-01-01T01:05:20.220000Z</time></trkpt>
<trkpt lat="-6.1898910" lon="106.6383290"><time>2026-01-01T01:05:21.220000Z</time></trkpt>
<trkpt lat="-6.1899594" lon="106.6383269"><time>2026-01-01T01:05:22.220000Z</time></trkpt>
<trkpt lat="-6.1900278" lon="106.6383248"><time>2026-01-01T01:05:23.220000Z</time></trkpt>
<trkpt lat="-6.1900962" lon="106.6383227"><time>2026-01-01T01:05:24.220000Z</time></trkpt>
<trkpt lat="-6.1901646" lon="106.6383206"><time>2026-01-01T01:05:25.220000Z</time></trkpt>
<trkpt lat="-6.1902330" lon="106.6383185"><time>2026-01-01T01:05:26.220000Z</time></trkpt>
<trkpt lat="-6.1903014" lon="106.6383164"><time>2026-01-01T01:05:27.220000Z</time></trkpt>
<trkpt lat="-6.1903698" lon="106.6383143"><time>2026-01-01T01:05:28.220000Z</time></trkpt>
<trkpt lat="-6.1904382" lon="106.6383122"><time>2026-01-01T01:05:29.220000Z</time></trkpt>
<trkpt lat="-6.1905066" lon="106.6383101"><time>2026-01-01T01:05:30.220000Z</time></trkpt>
<trkpt lat="-6.1905750" lon="106.6383080"><time>2026-01-01T01:05:31.220000Z</time></trkpt>
<trkpt lat="-6.1906340" lon="106.6383062"><time>2026-01-01T01:05:32.220000Z</time></trkpt>
<trkpt lat="-6.1906930" lon="106.6383045"><time>2026-01-01T01:05:33.220000Z</time></trkpt>
<trkpt lat="-6.1907520" lon="106.6383027"><time>2026-01-01T01:05:34.220000Z</time></trkpt>
<trkpt lat="-6.1908110" lon="106.6383010"><time>2026-01-01T01:05:35.220000Z</time></trkpt>
<trkpt lat="-6.1908617" lon="106.6383017"><time>2026-01-01T01:05:36.220000Z</time></trkpt>
<trkpt lat="-6.1909123" lon="106.6383023"><time>2026-01-01T01:05:37.220000Z</time></trkpt>
<trkpt lat="-6.1909630" lon="106.6383030"><time>2026-01-01T01:05:38.220000Z</time></trkpt>
<trkpt lat="-6.1910323" lon="106.6383030"><time>2026-01-01T01:05:39.220000Z</time></trkpt>
<trkpt lat="-6.1911017" lon="106.6383030"><time>2026-01-01T01:05:40.220000Z</time></trkpt>
<trkpt lat="-6.1911710" lon="106.6383030"><time>2026-01-01T01:05:41.220000Z</time></trkpt>
<trkpt lat="-6.1912280" lon="106.6383025"><time>2026-01-01T01:05:42.220000Z</time></trkpt>
<trkpt lat="-6.1912850" lon="106.6383020"><time>2026-01-01T01:05:43.220000Z</time></trkpt>
<trkpt lat="-6.1913540" lon="106.6383032"><time>2026-01-01T01:05:44.220000Z</time></trkpt>
<trkpt lat="-6.1914230" lon="106.6383045"><time>2026-01-01T01:05:45.220000Z</time></trkpt>
<trkpt lat="-6.1914920" lon="106.6383058"><time>2026-01-01T01:05:46.220000Z</time></trkpt>
<trkpt lat="-6.1915610" lon="106.6383070"><time>2026-01-01T01:05:47.220000Z</time></trkpt>
<trkpt lat="-6.1916222" lon="106.6383082"><time>2026-01-01T01:05:48.220000Z</time></trkpt>
<trkpt lat="-6.1916834" lon="106.6383094"><time>2026-01-01T01:05:49.220000Z</time></trkpt>
<trkpt lat="-6.1917446" lon="106.6383106"><time>2026-01-01T01:05:50.220000Z</time></trkpt>
<trkpt lat="-6.1918058" lon="106.6383118"><time>2026-01-01T01:05:51.220000Z</time></trkpt>
<trkpt lat="-6.1918670" lon="106.6383130"><time>2026-01-01T01:05:52.220000Z</time></trkpt>
<trkpt lat="-6.1919370" lon="106.6383158"><time>2026-01-01T01:05:53.220000Z</time></trkpt>
<trkpt lat="-6.1920070" lon="106.6383185"><time>2026-01-01T01:05:54.220000Z</time></trkpt>
<trkpt lat="-6.1920770" lon="106.6383212"><time>2026-01-01T01:05:55.220000Z</time></trkpt>
<trkpt lat="-6.1921470" lon="106.6383240"><time>2026-01-01T01:05:56.220000Z</time></trkpt>
<trkpt lat="-6.1922105" lon="106.6383245"><time>2026-01-01T01:05:57.220000Z</time></trkpt>
<trkpt lat="-6.1922740" lon="106.6383250"><time>2026-01-01T01:05:58.220000Z</time></trkpt>
<trkpt lat="-6.1923090" lon="106.6383260"><time>2026-01-01T01:05:59.220000Z</time></trkpt>
<trkpt lat="-6.1923732" lon="106.6383272"><time>2026-01-01T01:06:00.220000Z</time></trkpt>
<trkpt lat="-6.1924374" lon="106.6383284"><time>2026-01-01T01:06:01.220000Z</time></trkpt>
<trkpt lat="-6.1925016" lon="106.6383296"><time>2026-01-01T01:06:02.220000Z</time></trkpt>
<trkpt lat="-6.1925658" lon="106.6383308"><time>2026-01-01T01:06:03.220000Z</time></trkpt>
<trkpt lat="-6.1926300" lon="106.6383320"><time>2026-01-01T01:06:04.220000Z</time></trkpt>
<trkpt lat="-6.1926710" lon="106.6383340"><time>2026-01-01T01:06:05.220000Z</time></trkpt>
<trkpt lat="-6.1927150" lon="106.6383360"><time>2026-01-01T01:06:06.220000Z</time></trkpt>
<trkpt lat="-6.1927765" lon="106.6383390"><time>2026-01-01T01:06:07.220000Z</time></trkpt>
<trkpt lat="-6.1928380" lon="106.6383420"><time>2026-01-01T01:06:08.220000Z</time></trkpt>
<trkpt lat="-6.1928120" lon="106.6383940"><time>2026-01-01T01:06:09.220000Z</time></trkpt>
<trkpt lat="-6.1927613" lon="106.6383947"><time>2026-01-01T01:06:10.220000Z</time></trkpt>
<trkpt lat="-6.1927107" lon="106.6383953"><time>2026-01-01T01:06:11.220000Z</time></trkpt>
<trkpt lat="-6.1926600" lon="106.6383960"><time>2026-01-01T01:06:12.220000Z</time></trkpt>
<trkpt lat="-6.1926390" lon="106.6384000"><time>2026-01-01T01:06:13.220000Z</time></trkpt>
<trkpt lat="-6.1926190" lon="106.6384140"><time>2026-01-01T01:06:14.220000Z</time></trkpt>
<trkpt lat="-6.1925920" lon="106.6384747"><time>2026-01-01T01:06:15.220000Z</time></trkpt>
<trkpt lat="-6.1925650" lon="106.6385354"><time>2026-01-01T01:06:16.220000Z</time></trkpt>
<trkpt lat="-6.1925380" lon="106.6385961"><time>2026-01-01T01:06:17.220000Z</time></trkpt>
<trkpt lat="-6.1925110" lon="106.6386569"><time>2026-01-01T01:06:18.220000Z</time></trkpt>
<trkpt lat="-6.1924840" lon="106.6387176"><time>2026-01-01T01:06:19.220000Z</time></trkpt>
<trkpt lat="-6.1924570" lon="106.6387783"><time>2026-01-01T01:06:20.220000Z</time></trkpt>
<trkpt lat="-6.1924300" lon="106.6388390"><time>2026-01-01T01:06:21.220000Z</time></trkpt>
<trkpt lat="-6.1924050" lon="106.6388895"><time>2026-01-01T01:06:22.220000Z</time></trkpt>
<trkpt lat="-6.1923800" lon="106.6389400"><time>2026-01-01T01:06:23.220000Z</time></trkpt>
</trkseg></trk></gpx>
